{
  "type": "FeatureCollection",
  "name": "area_kopi",
  "features": [
    {
      "type": "Feature",
      "properties": {
        "Id": 1,
        "Object_ID": "KOPI-PEMATANG-DUKU-2026-P01",
        "Nama_Objek": "Wilayah Penanaman Kopi – Pematang Duku – Plot 01",
        "Kategori": "Agroforestri/Kopi",
        "Kabupaten": "Bengkalis",
        "Kecamatan": "Bengkalis",
        "Desa": "Pematang Duku",
        "Tahun": "2026",
        "Luas_Ha": 0.879046,
        "Jumlah_Tanam": 2500,
        "Jenis_Pohon": "Kopi",
        "Riwayat_Penanaman": "Okt 2025: 2.500 bibit (total lokasi Pematang Duku; tidak dikalikan per polygon)",
        "Sumber_Data_Penanaman": "Rekap penanaman Yayasan Gambut",
        "Cakupan_Data_Penanaman": "Total seluruh area Pematang Duku",
        "Pemilik_Lahan": null,
        "Tumpang_Sari": null,
        "Layer_ID": "area_kopi",
        "Layer_Label": "Wilayah Penanaman Kopi",
        "Source_Layer": "area_kopi",
        "Source_Report_ID": "YG-20260720-132156-867",
        "Status_Objek": "Aktif"
      },
      "geometry": {
        "type": "Polygon",
        "coordinates": [[[102.2943050870477,1.463189748714773,0],[102.2943341992103,1.462687658423115,0],[102.2957595718348,1.462804160153516,0],[102.2957257196645,1.463296680990885,0],[102.2943050870477,1.463189748714773,0]]]
      }
    },
    {
      "type": "Feature",
      "properties": {
        "Id": 2,
        "Object_ID": "KOPI-PEMATANG-DUKU-2026-P02",
        "Nama_Objek": "Wilayah Penanaman Kopi – Pematang Duku – Plot 02",
        "Kategori": "Agroforestri/Kopi",
        "Kabupaten": "Bengkalis",
        "Kecamatan": "Bengkalis",
        "Desa": "Pematang Duku",
        "Tahun": "2026",
        "Luas_Ha": 0.580399,
        "Jumlah_Tanam": null,
        "Pemilik_Lahan": null,
        "Tumpang_Sari": null,
        "Layer_ID": "area_kopi",
        "Layer_Label": "Wilayah Penanaman Kopi",
        "Source_Layer": "area_kopi",
        "Source_Report_ID": "YG-20260720-132156-867",
        "Status_Objek": "Aktif"
      },
      "geometry": {
        "type": "Polygon",
        "coordinates": [[[102.2970807987818,1.448673645082976,0],[102.2968883670556,1.448742982847,0],[102.2966967184802,1.448822772267649,0],[102.2963240637878,1.44775153305876,0],[102.2965161623108,1.447673037541779,0],[102.2965157121568,1.44767174352368,0],[102.2967082485245,1.447593069057319,0],[102.2970807987818,1.448673645082976,0]]]
      }
    },
    {
      "type": "Feature",
      "properties": {
        "Id": 3,
        "Object_ID": "KOPI-PEMATANG-DUKU-2026-P03",
        "Nama_Objek": "Wilayah Penanaman Kopi – Pematang Duku – Plot 03",
        "Kategori": "Agroforestri/Kopi",
        "Kabupaten": "Bengkalis",
        "Kecamatan": "Bengkalis",
        "Desa": "Pematang Duku",
        "Tahun": "2026",
        "Luas_Ha": 0.284343,
        "Jumlah_Tanam": null,
        "Pemilik_Lahan": null,
        "Tumpang_Sari": null,
        "Layer_ID": "area_kopi",
        "Layer_Label": "Wilayah Penanaman Kopi",
        "Source_Layer": "area_kopi",
        "Source_Report_ID": "YG-20260720-132156-867",
        "Status_Objek": "Aktif"
      },
      "geometry": {
        "type": "Polygon",
        "coordinates": [[[102.296299957419,1.447612205647237,0],[102.2961040413575,1.447034525003206,0],[102.2964754514043,1.446932599833225,0],[102.2966564463663,1.447516990471147,0],[102.296299957419,1.447612205647237,0]]]
      }
    },
    {
      "type": "Feature",
      "properties": {
        "Id": 4,
        "Object_ID": "KOPI-PEMATANG-DUKU-2026-P04",
        "Nama_Objek": "Wilayah Penanaman Kopi – Pematang Duku – Plot 04",
        "Kategori": "Agroforestri/Kopi",
        "Kabupaten": "Bengkalis",
        "Kecamatan": "Bengkalis",
        "Desa": "Pematang Duku",
        "Tahun": "2026",
        "Luas_Ha": 0.564643,
        "Jumlah_Tanam": null,
        "Pemilik_Lahan": null,
        "Tumpang_Sari": null,
        "Layer_ID": "area_kopi",
        "Layer_Label": "Wilayah Penanaman Kopi",
        "Source_Layer": "area_kopi",
        "Source_Report_ID": "YG-20260720-132156-867",
        "Status_Objek": "Aktif"
      },
      "geometry": {
        "type": "Polygon",
        "coordinates": [[[102.2973160888616,1.443537703716893,0],[102.2974345060791,1.443726148189246,0],[102.2977509477743,1.444346175727373,0],[102.2979350307074,1.4448641878455,0],[102.2976255237036,1.444931840478282,0],[102.2970658197723,1.443609014142505,0],[102.2973160888616,1.443537703716893,0]]]
      }
    },
    {
      "type": "Feature",
      "properties": {
        "Id": 5,
        "Object_ID": "KOPI-PEMATANG-DUKU-2026-P05",
        "Nama_Objek": "Wilayah Penanaman Kopi – Pematang Duku – Plot 05",
        "Kategori": "Agroforestri/Kopi",
        "Kabupaten": "Bengkalis",
        "Kecamatan": "Bengkalis",
        "Desa": "Pematang Duku",
        "Tahun": "2026",
        "Luas_Ha": 0.281863,
        "Jumlah_Tanam": null,
        "Pemilik_Lahan": null,
        "Tumpang_Sari": null,
        "Layer_ID": "area_kopi",
        "Layer_Label": "Wilayah Penanaman Kopi",
        "Source_Layer": "area_kopi",
        "Source_Report_ID": "YG-20260720-132156-867",
        "Status_Objek": "Aktif"
      },
      "geometry": {
        "type": "Polygon",
        "coordinates": [[[102.2989732144984,1.444657348793227,0],[102.2987944274195,1.444676123418994,0],[102.2984021633493,1.443426408363074,0],[102.2985633009998,1.443379257674205,0],[102.2989732144984,1.444657348793227,0]]]
      }
    },
    {
      "type": "Feature",
      "properties": {
        "Id": 6,
        "Object_ID": "KOPI-PEMATANG-DUKU-2026-P06",
        "Nama_Objek": "Wilayah Penanaman Kopi – Pematang Duku – Plot 06",
        "Kategori": "Agroforestri/Kopi",
        "Kabupaten": "Bengkalis",
        "Kecamatan": "Bengkalis",
        "Desa": "Pematang Duku",
        "Tahun": "2026",
        "Luas_Ha": 0.567787,
        "Jumlah_Tanam": null,
        "Pemilik_Lahan": null,
        "Tumpang_Sari": null,
        "Layer_ID": "area_kopi",
        "Layer_Label": "Wilayah Penanaman Kopi",
        "Source_Layer": "area_kopi",
        "Source_Report_ID": "YG-20260720-132156-867",
        "Status_Objek": "Aktif"
      },
      "geometry": {
        "type": "Polygon",
        "coordinates": [[[102.2989980411152,1.448032428674209,0],[102.2972915069471,1.448604239839082,0],[102.2971984481112,1.448340737890504,0],[102.2989198960483,1.447814746282789,0],[102.2989980411152,1.448032428674209,0]]]
      }
    },
    {
      "type": "Feature",
      "properties": {
        "Id": 7,
        "Object_ID": "KOPI-PEMATANG-DUKU-2026-P07",
        "Nama_Objek": "Wilayah Penanaman Kopi – Pematang Duku – Plot 07",
        "Kategori": "Agroforestri/Kopi",
        "Kabupaten": "Bengkalis",
        "Kecamatan": "Bengkalis",
        "Desa": "Pematang Duku",
        "Tahun": "2026",
        "Luas_Ha": 0.26808,
        "Jumlah_Tanam": null,
        "Pemilik_Lahan": null,
        "Tumpang_Sari": null,
        "Layer_ID": "area_kopi",
        "Layer_Label": "Wilayah Penanaman Kopi",
        "Source_Layer": "area_kopi",
        "Source_Report_ID": "YG-20260720-132156-867",
        "Status_Objek": "Aktif"
      },
      "geometry": {
        "type": "Polygon",
        "coordinates": [[[102.2981350352283,1.447743322221067,0],[102.2988313244262,1.44752955374421,0],[102.2989198960483,1.447814746282789,0],[102.2982250533275,1.448027057050811,0],[102.2981350352283,1.447743322221067,0]]]
      }
    },
    {
      "type": "Feature",
      "properties": {
        "Id": 8,
        "Object_ID": "KOPI-PEMATANG-DUKU-2026-P08",
        "Nama_Objek": "Wilayah Penanaman Kopi – Pematang Duku – Plot 08",
        "Kategori": "Agroforestri/Kopi",
        "Kabupaten": "Bengkalis",
        "Kecamatan": "Bengkalis",
        "Desa": "Pematang Duku",
        "Tahun": "2026",
        "Luas_Ha": 0.258137,
        "Jumlah_Tanam": null,
        "Pemilik_Lahan": null,
        "Tumpang_Sari": null,
        "Layer_ID": "area_kopi",
        "Layer_Label": "Wilayah Penanaman Kopi",
        "Source_Layer": "area_kopi",
        "Source_Report_ID": "YG-20260720-132156-867",
        "Status_Objek": "Aktif"
      },
      "geometry": {
        "type": "Polygon",
        "coordinates": [[[102.3004115824536,1.456981980210692,0],[102.2996512236803,1.457052795188626,0],[102.299615870799,1.456813644010029,0],[102.3004416224147,1.456695086051364,0],[102.3004115824536,1.456981980210692,0]]]
      }
    },
    {
      "type": "Feature",
      "properties": {
        "Id": 9,
        "Object_ID": "KOPI-PEMATANG-DUKU-2026-P09",
        "Nama_Objek": "Wilayah Penanaman Kopi – Pematang Duku – Plot 09",
        "Kategori": "Agroforestri/Kopi",
        "Kabupaten": "Bengkalis",
        "Kecamatan": "Bengkalis",
        "Desa": "Pematang Duku",
        "Tahun": "2026",
        "Luas_Ha": 0.268074,
        "Jumlah_Tanam": null,
        "Pemilik_Lahan": null,
        "Tumpang_Sari": null,
        "Layer_ID": "area_kopi",
        "Layer_Label": "Wilayah Penanaman Kopi",
        "Source_Layer": "area_kopi",
        "Source_Report_ID": "YG-20260720-132156-867",
        "Status_Objek": "Aktif"
      },
      "geometry": {
        "type": "Polygon",
        "coordinates": [[[102.2941490584237,1.463414374925266,0],[102.2941273574398,1.463679757788429,0],[102.2933932374002,1.463664519301108,0],[102.2934577897627,1.463327456489676,0],[102.2941490584237,1.463414374925266,0]]]
      }
    },
    {
      "type": "Feature",
      "properties": {
        "Id": 10,
        "Object_ID": "KOPI-PEMATANG-DUKU-2026-P10",
        "Nama_Objek": "Wilayah Penanaman Kopi – Pematang Duku – Plot 10",
        "Kategori": "Agroforestri/Kopi",
        "Kabupaten": "Bengkalis",
        "Kecamatan": "Bengkalis",
        "Desa": "Pematang Duku",
        "Tahun": "2026",
        "Luas_Ha": 0.351712,
        "Jumlah_Tanam": null,
        "Pemilik_Lahan": null,
        "Tumpang_Sari": null,
        "Layer_ID": "area_kopi",
        "Layer_Label": "Wilayah Penanaman Kopi",
        "Source_Layer": "area_kopi",
        "Source_Report_ID": "YG-20260720-132156-867",
        "Status_Objek": "Aktif"
      },
      "geometry": {
        "type": "Polygon",
        "coordinates": [[[102.2940903768498,1.464798735493452,0],[102.2940685721874,1.465150196851755,0],[102.2931704147274,1.465220836486092,0],[102.2931136959138,1.464969704911138,0],[102.2940903768498,1.464798735493452,0]]]
      }
    },
    {"type":"Feature","properties":{"Kategori":"Agroforestri/Kopi","Kabupaten":"Kampar","Kecamatan":"Kampa","Desa":"Tanjungbungo","Lokasi":"Hutan Adat Imbo Pomuan (Ghimbo Pomuan)","Tahun":"2026","Jenis_Pohon":"Kopi Liberika","Program":"Program Penanaman Mangrove dan Kopi Agroforestri","Project_ID":"PRG-MA-EARTH-2026","Donor":"MA Earth","Donor_Cluster":"MA Earth","Nama_Donor":"MA Earth","Layer_ID":"area_kopi","Layer_Label":"Wilayah Penanaman Kopi","Source_Layer":"area_kopi","Status_Objek":"Aktif","Attribute_Source":"KML area penanaman dan konfirmasi realisasi oleh Yayasan Gambut","Attribute_Updated":"2026-09-24","Tanggal_Dokumentasi":"2026-09-24","Catatan_Tanggal":"Tanggal kegiatan belum dikonfirmasi; 24 September adalah tanggal dokumentasi foto/KML.","Status_Penanaman":"Sudah tertanam","Catatan_Batas":"Tapak berada di Desa Tanjungbungo menurut batas desa GeoPortal (delineasi 2018). Tapak bersinggungan batas Hutan Adat Ghimbo Pomuan hasil digitasi peta SK; perlu verifikasi geometri resmi untuk kepastian batas.","Ecosystem_Metrics":"pending_classification","Riwayat_Penanaman":"2026: 1.000 bibit kopi liberika tertanam, dukungan MA Earth.","Foto":"assets/program-photos/ma-earth-ghimbo-pomuan-2026-penanaman.jpg","Foto_2":"assets/program-photos/ma-earth-ghimbo-pomuan-2026-tim.jpg","photos":["assets/program-photos/ma-earth-ghimbo-pomuan-2026-penanaman.jpg","assets/program-photos/ma-earth-ghimbo-pomuan-2026-tim.jpg"],"Object_ID":"KOPI-GHIMBO-POMUAN-MA-EARTH-2026-001","Nama_Objek":"Penanaman 1.000 kopi liberika MA Earth – HA Imbo Pomuan","Ket":"Area penanaman utama. KML juga memuat poligon rincian yang bertumpang tindih; keduanya mewakili satu kegiatan.","Luas_Ha":0.88504,"Jumlah_Tanam":1000,"Cakupan_Data_Penanaman":"Total satu kegiatan di HA Imbo Pomuan; tidak dihitung ulang pada poligon rincian."},"geometry":{"type":"Polygon","coordinates":[[[101.2164800973422,0.3338723661356964],[101.2153631212125,0.3335117738280357],[101.215690089144,0.3327305989609443],[101.2163742541159,0.3332137371628653],[101.2164254784933,0.3333431044741776],[101.2165213290459,0.333757755825526],[101.2164800973422,0.3338723661356964]]]}},
    {"type":"Feature","properties":{"Kategori":"Agroforestri/Kopi","Kabupaten":"Kampar","Kecamatan":"Kampa","Desa":"Tanjungbungo","Lokasi":"Hutan Adat Imbo Pomuan (Ghimbo Pomuan)","Tahun":"2026","Jenis_Pohon":"Kopi Liberika","Program":"Program Penanaman Mangrove dan Kopi Agroforestri","Project_ID":"PRG-MA-EARTH-2026","Donor":"MA Earth","Donor_Cluster":"MA Earth","Nama_Donor":"MA Earth","Layer_ID":"area_kopi","Layer_Label":"Wilayah Penanaman Kopi","Source_Layer":"area_kopi","Status_Objek":"Aktif","Attribute_Source":"KML area penanaman dan konfirmasi realisasi oleh Yayasan Gambut","Attribute_Updated":"2026-09-24","Tanggal_Dokumentasi":"2026-09-24","Catatan_Tanggal":"Tanggal kegiatan belum dikonfirmasi; 24 September adalah tanggal dokumentasi foto/KML.","Status_Penanaman":"Sudah tertanam","Catatan_Batas":"Tapak berada di Desa Tanjungbungo menurut batas desa GeoPortal (delineasi 2018). Tapak bersinggungan batas Hutan Adat Ghimbo Pomuan hasil digitasi peta SK; perlu verifikasi geometri resmi untuk kepastian batas.","Ecosystem_Metrics":"pending_classification","Riwayat_Penanaman":"2026: 1.000 bibit kopi liberika tertanam, dukungan MA Earth.","Foto":"assets/program-photos/ma-earth-ghimbo-pomuan-2026-penanaman.jpg","Foto_2":"assets/program-photos/ma-earth-ghimbo-pomuan-2026-tim.jpg","photos":["assets/program-photos/ma-earth-ghimbo-pomuan-2026-penanaman.jpg","assets/program-photos/ma-earth-ghimbo-pomuan-2026-tim.jpg"],"Object_ID":"KOPI-GHIMBO-POMUAN-MA-EARTH-2026-SUB01","Nama_Objek":"Rincian area penanaman kopi MA Earth – HA Imbo Pomuan","Ket":"Poligon rincian kegiatan yang sama, bertumpang tindih dengan area utama; 1.000 bibit tercatat pada objek induk.","Luas_Ha":null,"Luas_Poligon_Ha":0.30181,"Jumlah_Tanam":null,"Jumlah_Bibit_Kegiatan":1000,"Cakupan_Data_Penanaman":"Rincian poligon, tidak menambah jumlah bibit maupun luas agregat.","Parent_Object_ID":"KOPI-GHIMBO-POMUAN-MA-EARTH-2026-001"},"geometry":{"type":"Polygon","coordinates":[[[101.2164865627969,0.3338572668346193],[101.2159263254843,0.3336857005298012],[101.2162314638783,0.3331169237547649],[101.2163724456456,0.3332302317523962],[101.2164022549272,0.3333244099868784],[101.2165407390682,0.3337728723078044],[101.2164865627969,0.3338572668346193]]]}}
  ]
}
