{"type":"FeatureCollection","name":"Cakupan garis pantai yang dianalisis tanpa perubahan terpetakan","generatedAt":"2026-09-01T09:10:32.673936+00:00","methodVersion":"s2-annual-water-edge-coverage-v1","features":[{"type":"Feature","properties":{"village":"Bentang Pesisir Basilam Baru - Sungai Geniot","district":"Sungai Sembilan","regency":"Kota Dumai","baseline":"2016","current":"2025","confidence":"rendah","resolutionM":10,"uncertaintyM":14.1,"change":"stable","coverage":"analysed-no-mapped-change","analysisScope":"physical-coastal-landscape","analysisScopeId":"basilam-geniot-coastal-landscape","sharedLandscape":true,"administrativeBoundaryUsedForClipping":false},"geometry":{"type":"Polygon","coordinates":[[[101.32549348713479,1.9610904960638655],[101.32549336227831,1.961000099001143],[101.32540351704328,1.9610002246191844],[101.32540339219736,1.9609098275505612],[101.32531354696138,1.9609099531579646],[101.32531367180248,1.9610003502323825],[101.32522382655593,1.9610004758407387],[101.32522320243214,1.9605484904386175],[101.32531304765465,1.9605483648592343],[101.32531267323513,1.9602771736340745],[101.32540251843743,1.9602770480672336],[101.32540214405539,1.960005856858506],[101.32549198923748,1.9600057313042092],[101.32549211403054,1.9600961283680973],[101.32558195921169,1.9600960028031655],[101.3255818344138,1.9600056057450737],[101.32567167958437,1.9600054801810967],[101.32567155478746,1.9599150831286947],[101.32576139994745,1.9599149575656736],[101.32576189918895,1.9602765457514642],[101.32567205400971,1.9602766713376676],[101.32567242848698,1.9605478624932866],[101.32558258328754,1.960547988092036],[101.32558333236888,1.9610903704351859],[101.32549348713479,1.9610904960638655]]]}},{"type":"Feature","properties":{"village":"Bentang Pesisir Basilam Baru - Sungai Geniot","district":"Sungai Sembilan","regency":"Kota Dumai","baseline":"2016","current":"2025","confidence":"rendah","resolutionM":10,"uncertaintyM":14.1,"change":"stable","coverage":"analysed-no-mapped-change","analysisScope":"physical-coastal-landscape","analysisScopeId":"basilam-geniot-coastal-landscape","sharedLandscape":true,"administrativeBoundaryUsedForClipping":false},"geometry":{"type":"Polygon","coordinates":[[[101.325850246857,1.9591916556675188],[101.32585012210237,1.9591012586257566],[101.32576027699145,1.9591013841414542],[101.32576015224738,1.95901098709379],[101.3256703071355,1.959011112598854],[101.32567043187473,1.9591015096523146],[101.32558058675227,1.9591016351583366],[101.32558008784912,1.958740046920679],[101.32566993295235,1.958739921437839],[101.32567005767429,1.958830318491616],[101.32575990277657,1.9588301929981426],[101.3257600275091,1.9589205900460187],[101.3258498726104,1.9589204645419123],[101.3258497478731,1.9588300674998322],[101.32593959296383,1.9588299419966848],[101.32594009196698,1.959191530141187],[101.325850246857,1.9591916556675188]]]}},{"type":"Feature","properties":{"village":"Bentang Pesisir Basilam Baru - Sungai Geniot","district":"Sungai Sembilan","regency":"Kota Dumai","baseline":"2016","current":"2025","confidence":"rendah","resolutionM":10,"uncertaintyM":14.1,"change":"stable","coverage":"analysed-no-mapped-change","analysisScope":"physical-coastal-landscape","analysisScopeId":"basilam-geniot-coastal-landscape","sharedLandscape":true,"administrativeBoundaryUsedForClipping":false},"geometry":{"type":"Polygon","coordinates":[[[101.32672818331162,1.9442748964328491],[101.32672805946089,1.9441844994316653],[101.32663821519799,1.9441846240390603],[101.32663796752337,1.9440038300247813],[101.32654812326425,1.944003954615779],[101.32654787562223,1.9438231605894842],[101.3264580313669,1.9438232851640862],[101.32645778375749,1.9436424911257768],[101.3265476280033,1.9436423665627691],[101.32654750420248,1.943551969549255],[101.32645765996145,1.9435520941064637],[101.32645728860793,1.9432809030478968],[101.32636744437544,1.9432810275829147],[101.32636719684481,1.9431002335317509],[101.32627735261609,1.9431003580503756],[101.3262772288642,1.9430099610188396],[101.32618738463448,1.9430100855268695],[101.32618726089312,1.9429196884894304],[101.32627710511808,1.942919563987198],[101.32627698137772,1.9428291669554512],[101.32636682559213,1.942829042454218],[101.32636670185276,1.9427386454281634],[101.32645654605665,1.9427385209279298],[101.32645666980078,1.9428289179481864],[101.32654651400364,1.9428287934373576],[101.32654663775831,1.9429191904517114],[101.32663648196018,1.942919065930287],[101.32663672949634,1.943099859947086],[101.32672657370199,1.943099735409267],[101.32672682127078,1.9432805294140498],[101.3268166654802,1.9432804048598358],[101.32681703689096,1.9435515958488283],[101.32690688110891,1.9435514712724202],[101.32690700492881,1.9436418682627425],[101.32681716070609,1.9436419928449489],[101.32681740835365,1.943822786836876],[101.3269072525859,1.943822662243072],[101.32690750026609,1.9440034562229818],[101.32699734450213,1.9440033316127814],[101.32699759221492,1.9441841255806733],[101.32690774796934,1.9441842502024724],[101.32690787182963,1.9442746471920593],[101.32672818331162,1.9442748964328491]]]}},{"type":"Feature","properties":{"village":"Bentang Pesisir Basilam Baru - Sungai Geniot","district":"Sungai Sembilan","regency":"Kota Dumai","baseline":"2016","current":"2025","confidence":"rendah","resolutionM":10,"uncertaintyM":14.1,"change":"stable","coverage":"analysed-no-mapped-change","analysisScope":"physical-coastal-landscape","analysisScopeId":"basilam-geniot-coastal-landscape","sharedLandscape":true,"administrativeBoundaryUsedForClipping":false},"geometry":{"type":"Polygon","coordinates":[[[101.32833215066351,1.9346001840241789],[101.32833202734463,1.9345097871161892],[101.32824218369493,1.9345099111891875],[101.32824206038656,1.9344195142752902],[101.32815221673583,1.9344196383377106],[101.32815209343798,1.9343292414179074],[101.32824193708396,1.9343291173612893],[101.32824181378714,1.934238720447184],[101.32833165742261,1.9342385963915918],[101.3283315341268,1.9341481994831824],[101.32842137775175,1.9341480754286162],[101.32842150105229,1.934238472331223],[101.32851134467622,1.9342383482660765],[101.32851171462671,1.93450953895586],[101.32842187098856,1.9345096630384127],[101.32842199431221,1.9346000599406012],[101.32833215066351,1.9346001840241789]]]}},{"type":"Feature","properties":{"village":"Bentang Pesisir Basilam Baru - Sungai Geniot","district":"Sungai Sembilan","regency":"Kota Dumai","baseline":"2016","current":"2025","confidence":"rendah","resolutionM":10,"uncertaintyM":14.1,"change":"stable","coverage":"analysed-no-mapped-change","analysisScope":"physical-coastal-landscape","analysisScopeId":"basilam-geniot-coastal-landscape","sharedLandscape":true,"administrativeBoundaryUsedForClipping":false},"geometry":{"type":"Polygon","coordinates":[[[101.32833104100135,1.9337866118485056],[101.32833091773443,1.9336962149395753],[101.32824107412746,1.9336963389603554],[101.32824095087103,1.933605942045519],[101.32815110726304,1.933606066055723],[101.32815123051469,1.9336964629763618],[101.32806138689617,1.9336965869875917],[101.32806101717273,1.9334253962079582],[101.32815086077701,1.9334252722141323],[101.32815073754267,1.9333348752931803],[101.32824058113644,1.9333347513003825],[101.32824070437555,1.9334251482155322],[101.32833054796828,1.9334250242121567],[101.3283306712179,1.9335154211214003],[101.32842051480961,1.93351529710745],[101.32842088460731,1.9337864878171478],[101.32833104100135,1.9337866118485056]]]}},{"type":"Feature","properties":{"village":"Bentang Pesisir Basilam Baru - Sungai Geniot","district":"Sungai Sembilan","regency":"Kota Dumai","baseline":"2016","current":"2025","confidence":"rendah","resolutionM":10,"uncertaintyM":14.1,"change":"stable","coverage":"analysed-no-mapped-change","analysisScope":"physical-coastal-landscape","analysisScopeId":"basilam-geniot-coastal-landscape","sharedLandscape":true,"administrativeBoundaryUsedForClipping":false},"geometry":{"type":"Polygon","coordinates":[[[101.32993076682543,1.920948031277132],[101.32993064429343,1.9208576344578903],[101.32984080146207,1.9208577577401778],[101.32984067894056,1.920767360915027],[101.32975083610815,1.920767484186765],[101.32975071359712,1.9206770873557049],[101.32984055642483,1.9206769640897732],[101.32984018891226,1.920405773613387],[101.32993003172005,1.9204056503601292],[101.3299299092227,1.9203152535402659],[101.33001975202,1.9203151302880719],[101.33001938454849,1.920043939845278],[101.33010922732586,1.9200438166057618],[101.33010885989222,1.9197726261794532],[101.33019870264968,1.9197725029526147],[101.33019845771338,1.91959170934617],[101.33028830045565,1.9195915861262047],[101.33028805553303,1.9194107925309594],[101.3303778982601,1.9194106693178676],[101.33037802072323,1.9195010661097354],[101.33046786344921,1.919500942886097],[101.33046798592284,1.9195913396720539],[101.33055782864777,1.919591216437868],[101.33055807362176,1.919772009997855],[101.3304682308874,1.919772133243656],[101.33046859837759,1.9200433236002814],[101.33037875562333,1.9200434468587637],[101.3303791231514,1.920314637231878],[101.33028928037722,1.9203147605030395],[101.33028940289341,1.920405157299677],[101.33019956010874,1.9204052805719034],[101.33019992767785,1.9206764709786148],[101.33011008487325,1.9206765942635187],[101.33011032993879,1.920857387879087],[101.330020487119,1.9208575111708601],[101.33002060965572,1.9209479079842953],[101.32993076682543,1.920948031277132]]]}},{"type":"Feature","properties":{"village":"Bentang Pesisir Basilam Baru - Sungai Geniot","district":"Sungai Sembilan","regency":"Kota Dumai","baseline":"2016","current":"2025","confidence":"rendah","resolutionM":10,"uncertaintyM":14.1,"change":"stable","coverage":"analysed-no-mapped-change","analysisScope":"physical-coastal-landscape","analysisScopeId":"basilam-geniot-coastal-landscape","sharedLandscape":true,"administrativeBoundaryUsedForClipping":false},"geometry":{"type":"Polygon","coordinates":[[[101.33090741797882,1.912358982573058],[101.330907295944,1.91226858580786],[101.33081745362307,1.9122687085905314],[101.33081733159872,1.912178311819422],[101.3307274892767,1.9121784345915631],[101.33072736726281,1.912088037814542],[101.33063752493972,1.912088160576153],[101.33063740293632,1.9119977637932206],[101.33072724525472,1.9119976410374175],[101.3307271232524,1.9119072442601903],[101.33081696556035,1.911907121505474],[101.3308168435591,1.9118167247339517],[101.33090668585658,1.9118166019803213],[101.33090656385643,1.9117262052145039],[101.33099640614344,1.9117260824619626],[101.33099677217528,1.9119972727416792],[101.33108661447058,1.9119971499669903],[101.33108673649745,1.9120875467208802],[101.33117657879167,1.91208742393566],[101.331176700829,1.9121778206836386],[101.3310868585301,1.9121779434746675],[101.33108698056853,1.9122683402283513],[101.33099713825915,1.9122684630204665],[101.33099726029867,1.912358859779856],[101.33090741797882,1.912358982573058]]]}},{"type":"Feature","properties":{"village":"Bentang Pesisir Basilam Baru - Sungai Geniot","district":"Sungai Sembilan","regency":"Kota Dumai","baseline":"2016","current":"2025","confidence":"rendah","resolutionM":10,"uncertaintyM":14.1,"change":"stable","coverage":"analysed-no-mapped-change","analysisScope":"physical-coastal-landscape","analysisScopeId":"basilam-geniot-coastal-landscape","sharedLandscape":true,"administrativeBoundaryUsedForClipping":false},"geometry":{"type":"Polygon","coordinates":[[[101.33135553120377,1.9115447979307305],[101.3313554091975,1.9114544011936483],[101.33144525144154,1.9114542784349307],[101.33144512943636,1.9113638817035548],[101.33135528719703,1.9113640044564624],[101.33135516520232,1.9112736077191737],[101.33126532296188,1.9112737304615517],[101.33126520097765,1.9111833337183504],[101.33153472766752,1.9111829654944854],[101.33153460567499,1.9110925687686098],[101.33171429009661,1.9110923232740558],[101.3317141681005,1.9110019265596974],[101.3318938524896,1.911001681057888],[101.3318939744951,1.9110920777606246],[101.33198381668569,1.9110919549968308],[101.33198406072341,1.9112727483903738],[101.33189421852346,1.9112728711657903],[101.33189434054631,1.9113632678682175],[101.33171465611967,1.9113635134165123],[101.33171477813893,1.911453910130458],[101.33153509367978,1.911454155671494],[101.33153521569542,1.9115445523969568],[101.33135553120377,1.9115447979307305]]]}},{"type":"Feature","properties":{"village":"Bentang Pesisir Basilam Baru - Sungai Geniot","district":"Sungai Sembilan","regency":"Kota Dumai","baseline":"2016","current":"2025","confidence":"rendah","resolutionM":10,"uncertaintyM":14.1,"change":"stable","coverage":"analysed-no-mapped-change","analysisScope":"physical-coastal-landscape","analysisScopeId":"basilam-geniot-coastal-landscape","sharedLandscape":true,"administrativeBoundaryUsedForClipping":false},"geometry":{"type":"Polygon","coordinates":[[[101.3318038883029,1.9109114071025006],[101.33180327841447,1.9104594235576944],[101.33198296273575,1.9104591781161773],[101.33198308471125,1.9105495748137238],[101.33207292686791,1.9105494520800772],[101.33207280488772,1.910459055388343],[101.33216264703391,1.91045893265579],[101.33216313500812,1.9108205193988639],[101.33207329284318,1.9108206421546623],[101.33207317084565,1.9107302454632373],[101.3319833286796,1.9107303682085055],[101.33198345067245,1.9108207649057423],[101.33189360849595,1.9108208876521036],[101.33189373048988,1.9109112843550473],[101.3318038883029,1.9109114071025006]]]}},{"type":"Feature","properties":{"village":"Bentang Pesisir Basilam Baru - Sungai Geniot","district":"Sungai Sembilan","regency":"Kota Dumai","baseline":"2016","current":"2025","confidence":"rendah","resolutionM":10,"uncertaintyM":14.1,"change":"stable","coverage":"analysed-no-mapped-change","analysisScope":"physical-coastal-landscape","analysisScopeId":"basilam-geniot-coastal-landscape","sharedLandscape":true,"administrativeBoundaryUsedForClipping":false},"geometry":{"type":"Polygon","coordinates":[[[101.3321624030815,1.9102781392836343],[101.33216228111395,1.910187742597401],[101.33207243898184,1.9101878653125193],[101.33207231702478,1.9100974686203724],[101.33198247489156,1.910097591324962],[101.33198259684394,1.9101879880229211],[101.33189275470025,1.9101881107286052],[101.33189226694421,1.9098265239129075],[101.33198210906914,1.9098264012304675],[101.33198223100416,1.9099167979287355],[101.332072073128,1.909916675235768],[101.33207195118828,1.9098262785433109],[101.33216179330165,1.909826155851439],[101.33216167136304,1.9097357591646897],[101.33225151346593,1.9097356364739122],[101.33225224521252,1.9102780165579867],[101.3321624030815,1.9102781392836343]]]}},{"type":"Feature","properties":{"village":"Bentang Pesisir Basilam Baru - Sungai Geniot","district":"Sungai Sembilan","regency":"Kota Dumai","baseline":"2016","current":"2025","confidence":"rendah","resolutionM":10,"uncertaintyM":14.1,"change":"stable","coverage":"analysed-no-mapped-change","analysisScope":"physical-coastal-landscape","analysisScopeId":"basilam-geniot-coastal-landscape","sharedLandscape":true,"administrativeBoundaryUsedForClipping":false},"geometry":{"type":"Polygon","coordinates":[[[101.33225053812765,1.9090124630227012],[101.33225041623638,1.9089220663408353],[101.33216057417566,1.9089221889793078],[101.33216045229486,1.9088317922915266],[101.33207061023305,1.9088319149194743],[101.33207073210914,1.9089223116130662],[101.33198089003686,1.9089224342421107],[101.3319806462998,1.9087416408432012],[101.3320704883627,1.908741518225779],[101.3320702446394,1.9085607248380803],[101.33216008668717,1.9085606022275667],[101.3321602085506,1.9086509989156575],[101.33225005059728,1.9086508762946195],[101.33224992872915,1.9085604796123414],[101.33233977076536,1.9085603569924028],[101.33233964889833,1.908469960315834],[101.33242949092407,1.9084698376969946],[101.33242985655656,1.908741027708956],[101.33234001451677,1.9087411503452327],[101.33234038018728,1.9090123403737032],[101.33225053812765,1.9090124630227012]]]}},{"type":"Feature","properties":{"village":"Bentang Pesisir Basilam Baru - Sungai Geniot","district":"Sungai Sembilan","regency":"Kota Dumai","baseline":"2016","current":"2025","confidence":"rendah","resolutionM":10,"uncertaintyM":14.1,"change":"stable","coverage":"analysed-no-mapped-change","analysisScope":"physical-coastal-landscape","analysisScopeId":"basilam-geniot-coastal-landscape","sharedLandscape":true,"administrativeBoundaryUsedForClipping":false},"geometry":{"type":"Polygon","coordinates":[[[101.33413112777201,1.9044900582890536],[101.33413100607173,1.9043996617241328],[101.33404116436645,1.9043997841707798],[101.33404079931434,1.9041285944579518],[101.33413064100559,1.9041284720287532],[101.33413051932844,1.904038075463421],[101.33422036100924,1.904037953035337],[101.33422048269105,1.9041283495948529],[101.33431032437073,1.9041282271562505],[101.334310446063,1.9042186237098468],[101.33440028774157,1.9042185012607251],[101.3344004094443,1.9043088978084015],[101.33431056776107,1.9043090202633395],[101.33431068946491,1.9043994168167304],[101.33422084777122,1.9043995392727822],[101.33422096947618,1.904489935831887],[101.33413112777201,1.9044900582890536]]]}},{"type":"Feature","properties":{"village":"Bentang Pesisir Basilam Baru - Sungai Geniot","district":"Sungai Sembilan","regency":"Kota Dumai","baseline":"2016","current":"2025","confidence":"rendah","resolutionM":10,"uncertaintyM":14.1,"change":"stable","coverage":"analysed-no-mapped-change","analysisScope":"physical-coastal-landscape","analysisScopeId":"basilam-geniot-coastal-landscape","sharedLandscape":true,"administrativeBoundaryUsedForClipping":false},"geometry":{"type":"Polygon","coordinates":[[[101.33591920640752,1.8979790636939764],[101.33591908503075,1.8978886672380315],[101.3358292437772,1.8978887893596375],[101.33582912241087,1.8977983928977693],[101.3357392811562,1.8977985150088676],[101.33573940251785,1.897888911476557],[101.33564956125272,1.89788903358879],[101.33564907585942,1.8975274476941373],[101.33573891710594,1.8975273256051857],[101.33573903845023,1.8976177220731827],[101.3358288796956,1.8976175999737248],[101.33582875834665,1.8975272035115487],[101.33591859958157,1.897527081413225],[101.33591847823376,1.8974366849567674],[101.33600831945824,1.8974365628595797],[101.33600904765994,1.8979789415618635],[101.33591920640752,1.8979790636939764]]]}},{"type":"Feature","properties":{"village":"Bentang Pesisir Basilam Baru - Sungai Geniot","district":"Sungai Sembilan","regency":"Kota Dumai","baseline":"2016","current":"2025","confidence":"rendah","resolutionM":10,"uncertaintyM":14.1,"change":"stable","coverage":"analysed-no-mapped-change","analysisScope":"physical-coastal-landscape","analysisScopeId":"basilam-geniot-coastal-landscape","sharedLandscape":true,"administrativeBoundaryUsedForClipping":false},"geometry":{"type":"Polygon","coordinates":[[[101.3360069849633,1.896442201895805],[101.33600686368032,1.896351805443938],[101.33591702251172,1.8963519274712741],[101.33591690123919,1.8962615310134827],[101.33582706006943,1.8962616530303158],[101.33582718133731,1.8963520494939277],[101.33573734015712,1.8963521715118985],[101.335736855139,1.8959905856335555],[101.33582669630057,1.895990463638867],[101.33582681755108,1.896080860102786],[101.33591665871151,1.8960807380975948],[101.33591677997245,1.8961711345555896],[101.33600662113176,1.8961710125398956],[101.33600649986617,1.896080616087721],[101.33609634101504,1.8960804940731657],[101.33609682613077,1.8964420798579653],[101.3360069849633,1.896442201895805]]]}},{"type":"Feature","properties":{"village":"Bentang Pesisir Basilam Baru - Sungai Geniot","district":"Sungai Sembilan","regency":"Kota Dumai","baseline":"2016","current":"2025","confidence":"rendah","resolutionM":10,"uncertaintyM":14.1,"change":"stable","coverage":"analysed-no-mapped-change","analysisScope":"physical-coastal-landscape","analysisScopeId":"basilam-geniot-coastal-landscape","sharedLandscape":true,"administrativeBoundaryUsedForClipping":false},"geometry":{"type":"Polygon","coordinates":[[[101.33564531720299,1.894725156954972],[101.33564519604866,1.8946347604778755],[101.33555535494526,1.8946348823758992],[101.33555523380137,1.8945444858928813],[101.33546539269685,1.8945446077804065],[101.33546502931388,1.894273418313278],[101.33555487040445,1.8942732964432116],[101.33555474928373,1.8941828999597832],[101.33564459036387,1.894182778090859],[101.33564446924429,1.8940923816131487],[101.335734310314,1.894092259745368],[101.3357340680829,1.893911466801281],[101.33582390913752,1.8939113449404639],[101.33582378802602,1.8938209484740873],[101.33591362907019,1.8938208266144143],[101.33591350795983,1.8937304301537552],[101.33600334899357,1.8937303082952268],[101.33600322788435,1.8936399118402876],[101.33609306890764,1.893639789982903],[101.33609294779957,1.8935493935336822],[101.33627262981949,1.8935491498165296],[101.3362725087079,1.8934587533788487],[101.33636234970454,1.8934586315190802],[101.33636198639063,1.8931874422228914],[101.33645182736753,1.8931873203759135],[101.33645170626983,1.8930969239494682],[101.33654154723628,1.8930968021036372],[101.33654142613973,1.893006405682912],[101.33663126709575,1.8930062838382289],[101.33663114600034,1.8929158874232235],[101.33672098694593,1.8929157655796887],[101.33672110804598,1.8930061619888718],[101.3368109489904,1.8930060401348396],[101.33681119121718,1.8931868329412522],[101.33672135026346,1.8931869548069302],[101.33672183476796,1.8935485404418189],[101.33663199378985,1.8935486623261126],[101.3366321149258,1.8936390587404013],[101.33654227393725,1.893639180625842],[101.33654239507436,1.8937295770458515],[101.33645255407538,1.8937296989324381],[101.33645267521362,1.8938200953581679],[101.33627299318898,1.8938203391289554],[101.33627311432373,1.8939107355662268],[101.33609343226662,1.8939109793299516],[101.33609379567773,1.8941821686760787],[101.33600395462655,1.8941822905683898],[101.33600407577052,1.894272687022715],[101.33591423470888,1.8942728089161702],[101.33591447700489,1.894453601836156],[101.33582463592818,1.894453723736574],[101.33582475708023,1.8945441202022342],[101.33573491599307,1.8945442421037946],[101.33573503714626,1.8946346385751727],[101.33582487823806,1.8946345166677916],[101.33582499940168,1.8947249131332469],[101.33564531720299,1.894725156954972]]]}},{"type":"Feature","properties":{"village":"Bentang Pesisir Basilam Baru - Sungai Geniot","district":"Sungai Sembilan","regency":"Kota Dumai","baseline":"2016","current":"2025","confidence":"rendah","resolutionM":10,"uncertaintyM":14.1,"change":"stable","coverage":"analysed-no-mapped-change","analysisScope":"physical-coastal-landscape","analysisScopeId":"basilam-geniot-coastal-landscape","sharedLandscape":true,"administrativeBoundaryUsedForClipping":false},"geometry":{"type":"Polygon","coordinates":[[[101.33663017744566,1.8921927160994974],[101.33662993536491,1.892011923267543],[101.33654009445998,1.8920120450481785],[101.33653997343295,1.8919216486262256],[101.33645013252686,1.8919217703963664],[101.33645001151027,1.8918313739684893],[101.33662969330734,1.8918311304351794],[101.33662957228725,1.8917407340188446],[101.33671941317246,1.8917406122510056],[101.3367195341972,1.8918310086615184],[101.33680937508124,1.8918308868831837],[101.33680949611643,1.8919212832877716],[101.33689933699934,1.8919211614989426],[101.33689945804494,1.8920115578976042],[101.33680961715739,1.8920116796922557],[101.33680973820415,1.8921020760966387],[101.33671989730617,1.8921021978924415],[101.33672001835409,1.8921925943025444],[101.33663017744566,1.8921927160994974]]]}},{"type":"Feature","properties":{"village":"Bentang Pesisir Basilam Baru - Sungai Geniot","district":"Sungai Sembilan","regency":"Kota Dumai","baseline":"2016","current":"2025","confidence":"rendah","resolutionM":10,"uncertaintyM":14.1,"change":"stable","coverage":"analysed-no-mapped-change","analysisScope":"physical-coastal-landscape","analysisScopeId":"basilam-geniot-coastal-landscape","sharedLandscape":true,"administrativeBoundaryUsedForClipping":false},"geometry":{"type":"Polygon","coordinates":[[[101.35423352408151,1.888191362612657],[101.35423340238492,1.8881009673377513],[101.35414356281916,1.8881010897818302],[101.35414344113305,1.888010694500957],[101.35405360156608,1.8880108169345078],[101.35405347989044,1.8879204216476655],[101.35396364032228,1.8879205440706879],[101.3539635186571,1.8878301487778781],[101.35387367908773,1.887830271190373],[101.35387355743302,1.8877398758915955],[101.35378371786244,1.8877399982935648],[101.35378359621821,1.8876496029888197],[101.35387343578417,1.887649480592716],[101.35387331414113,1.8875590852937345],[101.35396315369661,1.8875589628988358],[101.35396303205478,1.8874685676056175],[101.35405287159979,1.887468445211924],[101.35405299324624,1.8875588404992762],[101.35414283279005,1.8875587180950557],[101.35414307610975,1.8877395086577224],[101.35423291565698,1.887739386237109],[101.3542330373302,1.8878297815124225],[101.35432287687624,1.8878296590812818],[101.35432299855995,1.8879200543506263],[101.35423315900927,1.8879201767876344],[101.35423328069417,1.8880105720627443],[101.35432312024949,1.88801044961987],[101.35432324194485,1.8881008448890113],[101.35441308149895,1.8881007224356077],[101.3544132032048,1.888191117698781],[101.35423352408151,1.888191362612657]]]}},{"type":"Feature","properties":{"village":"Bentang Pesisir Basilam Baru - Sungai Geniot","district":"Sungai Sembilan","regency":"Kota Dumai","baseline":"2016","current":"2025","confidence":"rendah","resolutionM":10,"uncertaintyM":14.1,"change":"stable","coverage":"analysed-no-mapped-change","analysisScope":"physical-coastal-landscape","analysisScopeId":"basilam-geniot-coastal-landscape","sharedLandscape":true,"administrativeBoundaryUsedForClipping":false},"geometry":{"type":"Polygon","coordinates":[[[101.3529728520139,1.8860235878911278],[101.35297273052221,1.8859331925316645],[101.3528828909859,1.8859333147697581],[101.35288276950465,1.8858429194043302],[101.35297260903634,1.8858427971720997],[101.35297175879859,1.885210029652291],[101.35306159829207,1.885209907456447],[101.35306147684824,1.8851195121019293],[101.35297163735939,1.8851196342919105],[101.3529712730768,1.8848484482101564],[101.35306111255176,1.8848483260377653],[101.35306099113126,1.8847579306828404],[101.35315083059577,1.884757808511659],[101.35315022355769,1.8843058317648205],[101.35324006299324,1.884305709618304],[101.35323969882653,1.8840345235865692],[101.35332953824236,1.884034401452992],[101.35332905274994,1.883672820099374],[101.35341889214145,1.8836726979846017],[101.35341901351043,1.8837630933172949],[101.35350885290073,1.883762971192007],[101.35350897428016,1.8838533665187331],[101.35359881366925,1.883853244382929],[101.35359893505915,1.8839436397036895],[101.35368877444704,1.8839435175573687],[101.35368889584738,1.8840339128721622],[101.35359905645488,1.884034035024348],[101.35359942067709,1.884305220985711],[101.35350958126487,1.884305343150838],[101.35351018839545,1.8847573197803953],[101.35342034895427,1.8847574419701916],[101.35342047039326,1.8848478373016615],[101.35333063094164,1.8848479594926688],[101.35333099527975,1.8851191455040592],[101.35342083474526,1.8851190232954589],[101.35342095620759,1.885209418626521],[101.35333111673746,1.8852095408409848],[101.35333196710476,1.8858423081966118],[101.35315228808221,1.885842552693669],[101.35315240957735,1.8859329480415066],[101.3530625700527,1.8859330702889139],[101.35306269154903,1.8860234656425137],[101.3529728520139,1.8860235878911278]]]}},{"type":"Feature","properties":{"village":"Bentang Pesisir Basilam Baru - Sungai Geniot","district":"Sungai Sembilan","regency":"Kota Dumai","baseline":"2016","current":"2025","confidence":"rendah","resolutionM":10,"uncertaintyM":14.1,"change":"stable","coverage":"analysed-no-mapped-change","analysisScope":"physical-coastal-landscape","analysisScopeId":"basilam-geniot-coastal-landscape","sharedLandscape":true,"administrativeBoundaryUsedForClipping":false},"geometry":{"type":"Polygon","coordinates":[[[101.34173996394446,1.8838693260902648],[101.34173984317064,1.8837789299971999],[101.3416500030179,1.8837790515131365],[101.34164988225452,1.883688655414134],[101.34156004210057,1.8836887769195843],[101.34155980060046,1.8835079847096052],[101.34164964074515,1.8835078632158244],[101.34164951999918,1.883417467116517],[101.34173936013343,1.8834173456239203],[101.34173948088403,1.8835077417173927],[101.3418293210171,1.8835076202143106],[101.34182944177812,1.8835980163018458],[101.34191928191001,1.883597894788277],[101.34191940268147,1.8836882908698744],[101.34182956254494,1.883688412389279],[101.34182980409602,1.8838692045638412],[101.34173996394446,1.8838693260902648]]]}},{"type":"Feature","properties":{"village":"Bentang Pesisir Basilam Baru - Sungai Geniot","district":"Sungai Sembilan","regency":"Kota Dumai","baseline":"2016","current":"2025","confidence":"rendah","resolutionM":10,"uncertaintyM":14.1,"change":"stable","coverage":"analysed-no-mapped-change","analysisScope":"physical-coastal-landscape","analysisScopeId":"basilam-geniot-coastal-landscape","sharedLandscape":true,"administrativeBoundaryUsedForClipping":false},"geometry":{"type":"Polygon","coordinates":[[[101.34200875974271,1.8833265850421603],[101.34200863898985,1.883236188965991],[101.34191879888226,1.8832363104608674],[101.34191867813983,1.8831459143787603],[101.34182883803106,1.883146035863151],[101.34182871729907,1.8830556397751068],[101.34191855740322,1.8830555182965516],[101.34191831594741,1.8828747261318282],[101.34200815603651,1.8828746046602949],[101.3420079145947,1.8826938125068353],[101.34209775466876,1.882693691042325],[101.3420978753914,1.8827840871132693],[101.34218771546426,1.8827839656382737],[101.34218783619733,1.8828743617032795],[101.34227767626902,1.882874240217798],[101.34227791776179,1.8830550323358317],[101.34218807768086,1.8830551538329863],[101.34218831918763,1.8832359459622858],[101.34209847909165,1.8832360674664634],[101.34209859984912,1.883326463536797],[101.34200875974271,1.8833265850421603]]]}},{"type":"Feature","properties":{"village":"Bentang Pesisir Basilam Baru - Sungai Geniot","district":"Sungai Sembilan","regency":"Kota Dumai","baseline":"2016","current":"2025","confidence":"rendah","resolutionM":10,"uncertaintyM":14.1,"change":"stable","coverage":"analysed-no-mapped-change","analysisScope":"physical-coastal-landscape","analysisScopeId":"basilam-geniot-coastal-landscape","sharedLandscape":true,"administrativeBoundaryUsedForClipping":false},"geometry":{"type":"Polygon","coordinates":[[[101.34236703340055,1.8825125345137255],[101.34236691268147,1.8824221384599849],[101.3422770726387,1.8824222599209322],[101.34227695193005,1.882331863861254],[101.34218711188608,1.8823319853117169],[101.34218674980885,1.8820607971145615],[101.34227658983896,1.882060675681608],[101.34227671053017,1.8821510717415924],[101.3423665505591,1.8821509502981553],[101.34236667126075,1.8822413463521999],[101.34245651128849,1.882241224898279],[101.34245639058221,1.8821508288500701],[101.34254623059952,1.8821507073973376],[101.34254647202711,1.8823314994819778],[101.34245663200056,1.882331620946385],[101.34245687344213,1.8825124130422923],[101.34236703340055,1.8825125345137255]]]}},{"type":"Feature","properties":{"village":"Bentang Pesisir Basilam Baru - Sungai Geniot","district":"Sungai Sembilan","regency":"Kota Dumai","baseline":"2016","current":"2025","confidence":"rendah","resolutionM":10,"uncertaintyM":14.1,"change":"stable","coverage":"analysed-no-mapped-change","analysisScope":"physical-coastal-landscape","analysisScopeId":"basilam-geniot-coastal-landscape","sharedLandscape":true,"administrativeBoundaryUsedForClipping":false},"geometry":{"type":"Polygon","coordinates":[[[101.34263546712062,1.8816986057557628],[101.34263534643995,1.881608209718618],[101.34254550645616,1.881608331140974],[101.3425452651215,1.881427539054706],[101.34263510509605,1.8814274176440247],[101.3426348637754,1.881246625569024],[101.34281454368862,1.8812463827570758],[101.34281442302778,1.8811559867310983],[101.34290426297105,1.881155865323994],[101.34290414231138,1.8810654693037527],[101.34299398224425,1.881065347897842],[101.34299410290852,1.8811557439122444],[101.34308394284018,1.8811556224958503],[101.3430840635149,1.8812460185043132],[101.3429942235786,1.8812461399265459],[101.34299446493621,1.8814269319548427],[101.34290462498488,1.8814270533841067],[101.34290474566778,1.8815174494039413],[101.34281490570602,1.8815175708343974],[101.34281502639011,1.8816079668599683],[101.34272518641794,1.8816080882916164],[101.34272530710321,1.8816984843229223],[101.34263546712062,1.8816986057557628]]]}},{"type":"Feature","properties":{"village":"Bentang Pesisir Basilam Baru - Sungai Geniot","district":"Sungai Sembilan","regency":"Kota Dumai","baseline":"2016","current":"2025","confidence":"rendah","resolutionM":10,"uncertaintyM":14.1,"change":"stable","coverage":"analysed-no-mapped-change","analysisScope":"physical-coastal-landscape","analysisScopeId":"basilam-geniot-coastal-landscape","sharedLandscape":true,"administrativeBoundaryUsedForClipping":false},"geometry":{"type":"Polygon","coordinates":[[[101.34254442063315,1.880794766749562],[101.34254417940302,1.8806139746614627],[101.34263401933603,1.8806138533033192],[101.34263389872505,1.8805234572649543],[101.34272373864765,1.8805233359080036],[101.34272361803788,1.880432939875374],[101.34281345795006,1.8804328185196177],[101.3428132167387,1.8802520264657308],[101.34290305663583,1.8802519051170075],[101.34290317724322,1.8803423011381635],[101.34299301713914,1.8803421797789583],[101.34299313775695,1.880432575794175],[101.34308297765169,1.880432454424489],[101.3430830982799,1.8805228504337654],[101.34299325838056,1.8805229718092902],[101.34299337901,1.8806133678243033],[101.3429035391002,1.8806134892010231],[101.34290365973082,1.8807038852217726],[101.34281381981063,1.8807040065996865],[101.34281369918463,1.8806136105730984],[101.34272385926323,1.8806137319405305],[101.34272397988462,1.8807041279729557],[101.3426341399528,1.8807042493415818],[101.34263426057538,1.8807946453797428],[101.34254442063315,1.880794766749562]]]}},{"type":"Feature","properties":{"village":"Bentang Pesisir Basilam Baru - Sungai Geniot","district":"Sungai Sembilan","regency":"Kota Dumai","baseline":"2016","current":"2025","confidence":"rendah","resolutionM":10,"uncertaintyM":14.1,"change":"stable","coverage":"analysed-no-mapped-change","analysisScope":"physical-coastal-landscape","analysisScopeId":"basilam-geniot-coastal-landscape","sharedLandscape":true,"administrativeBoundaryUsedForClipping":false},"geometry":{"type":"Polygon","coordinates":[[[101.34317233506734,1.8800707490353927],[101.34317221446354,1.8799803530314476],[101.34308237459767,1.8799804743765836],[101.34308225400429,1.8798900783666974],[101.34317209386553,1.8798899570273992],[101.343171852687,1.879709165019],[101.3432616925332,1.879709043686739],[101.34326181312419,1.8797994396851505],[101.3433516529692,1.8797993183424082],[101.34335153237359,1.8797089223498358],[101.34344137220819,1.8797088010082914],[101.34344125161378,1.8796184050214566],[101.34353109143795,1.87961828368111],[101.34353145325242,1.87988947162379],[101.34344161341443,1.8798895929816561],[101.34344173402624,1.8799799889681852],[101.34335189417783,1.8799801103272482],[101.34335201479084,1.8800705063195153],[101.34317233506734,1.8800707490353927]]]}},{"type":"Feature","properties":{"village":"Bentang Pesisir Basilam Baru - Sungai Geniot","district":"Sungai Sembilan","regency":"Kota Dumai","baseline":"2016","current":"2025","confidence":"rendah","resolutionM":10,"uncertaintyM":14.1,"change":"stable","coverage":"analysed-no-mapped-change","analysisScope":"physical-coastal-landscape","analysisScopeId":"basilam-geniot-coastal-landscape","sharedLandscape":true,"administrativeBoundaryUsedForClipping":false},"geometry":{"type":"Polygon","coordinates":[[[101.35395720011027,1.8831295934111318],[101.3539570787544,1.883039198112915],[101.35386723943026,1.8830393202145361],[101.35386711808485,1.8829489249103526],[101.3537772787595,1.8829490470014587],[101.35377703609544,1.8827682563810544],[101.35386687541154,1.8827681343016789],[101.35386651144537,1.8824969483879046],[101.35395635074178,1.8824968263214767],[101.3539561081176,1.8823160357235165],[101.35404594739896,1.8823159136641718],[101.354045826091,1.8822255183709038],[101.3541356653619,1.8822253963127782],[101.35413542275425,1.8820446057376694],[101.35422526201008,1.882044483686628],[101.3542251407104,1.8819540884047865],[101.35431497995576,1.8819539663549645],[101.35431461607786,1.88168278052643],[101.35440445530354,1.8816826584895612],[101.35440421273823,1.881501867948429],[101.35449405194883,1.8815017459186467],[101.35449393067032,1.8814113506537955],[101.35458376987047,1.8814112286252351],[101.35458352732172,1.88123043810696],[101.35467336650679,1.8812303160854889],[101.35467324523655,1.8811399208320654],[101.35476308441118,1.8811397988118166],[101.35476284187898,1.8809590083164005],[101.35485268103852,1.880958886303243],[101.35485255977657,1.8808684910612492],[101.35494239892569,1.880868369049315],[101.35494215641005,1.8806875785767596],[101.35503199554407,1.8806874565719165],[101.35503175304257,1.880506666110692],[101.35512159216154,1.8805065441129418],[101.35512147091492,1.8804161488880442],[101.35521131002344,1.8804160268915195],[101.35521118877804,1.8803256316723895],[101.3553010278761,1.8803255096770906],[101.35530090663194,1.8802351144637282],[101.35539074571953,1.8802349924696555],[101.3553905032395,1.880054202054362],[101.35548034231203,1.8800540800673853],[101.35548022107618,1.8799636848654557],[101.35557006013825,1.8799635628797062],[101.35556993890361,1.8798731676835447],[101.35565977795524,1.879873045699023],[101.35565965672183,1.879782650508629],[101.35574949576299,1.879782528525336],[101.35574925330445,1.8796017381559833],[101.35583909233057,1.8796016161797882],[101.35583897110544,1.8795112210008291],[101.35601864913092,1.8795109770462575],[101.35601877036527,1.8796013722134757],[101.35610860937386,1.879601250223358],[101.3561088518693,1.8797820405457464],[101.35601901285149,1.879782162547606],[101.35601913410336,1.879872557714518],[101.35592929507509,1.8798726797176075],[101.35592941632818,1.8799630748902887],[101.35583957728947,1.8799631968946062],[101.35583969854379,1.8800535920730566],[101.35574985949461,1.880053714078602],[101.35575010201157,1.880234504446938],[101.35566026294731,1.8802346264595808],[101.35566038420993,1.8803250216494665],[101.35557054513524,1.8803251436633364],[101.35557066639909,1.8804155388589898],[101.35548082731393,1.8804156608740872],[101.35548094857899,1.8805060560755085],[101.35539110948339,1.8805061780918317],[101.35539135202183,1.8806869685061072],[101.35530151291114,1.8806870905295252],[101.3553017554637,1.880867880955132],[101.35521191633795,1.8808680029856437],[101.35521203761837,1.8809583982041633],[101.35512219848218,1.8809585202359],[101.35512244105131,1.8811393106843712],[101.35503260190004,1.8811394327231996],[101.35503272318873,1.881229827953151],[101.354942884027,1.881229949993203],[101.3549431266127,1.8814107404645366],[101.3548532874359,1.8814108625116799],[101.3548534087329,1.8815012577530614],[101.35476356954563,1.8815013798014264],[101.35476381214788,1.8816821702956208],[101.35467397294555,1.8816822923510752],[101.35467433687886,1.881953478109206],[101.35458449765684,1.8819536001776156],[101.354584618975,1.8820439954359895],[101.35449477974252,1.88204411750562],[101.35449502238711,1.882224908033796],[101.35440518313958,1.882225030110513],[101.35440530446601,1.8823154253803154],[101.354315465208,1.882315547458251],[101.35431570786915,1.8824963380092836],[101.35422586859606,1.8824964600943046],[101.35422623261769,1.8827676459376885],[101.35413639332491,1.8827677680356592],[101.3541367573852,1.883038953895725],[101.35404691807273,1.8830390760066447],[101.35404703943321,1.8831294712989954],[101.35395720011027,1.8831295934111318]]]}},{"type":"Feature","properties":{"village":"Bentang Pesisir Basilam Baru - Sungai Geniot","district":"Sungai Sembilan","regency":"Kota Dumai","baseline":"2016","current":"2025","confidence":"rendah","resolutionM":10,"uncertaintyM":14.1,"change":"stable","coverage":"analysed-no-mapped-change","analysisScope":"physical-coastal-landscape","analysisScopeId":"basilam-geniot-coastal-landscape","sharedLandscape":true,"administrativeBoundaryUsedForClipping":false},"geometry":{"type":"Polygon","coordinates":[[[101.35646723789296,1.8790583913877819],[101.35646711667061,1.8789679962493107],[101.35637727771767,1.8789681182168911],[101.35637715650576,1.8788777230724467],[101.35646699545408,1.8788776011107382],[101.35646687424342,1.8787872059720636],[101.35655671318129,1.8787870840115883],[101.35655659197185,1.8786966888786838],[101.35664643089927,1.8786965669194418],[101.35664630969107,1.878606171792307],[101.35673614860804,1.8786060498342985],[101.35673590619992,1.8784252595914708],[101.35682574510183,1.8784251376405687],[101.35682562390193,1.8783347425248753],[101.35700530167901,1.8783344986209023],[101.35700554410309,1.8785152888286951],[101.35709538299207,1.8785151668580056],[101.35709550421748,1.8786055619558766],[101.3570056653239,1.8786056839324397],[101.35700578655054,1.878696079036082],[101.35691594764648,1.8786962010138801],[101.35691606887438,1.8787865961232946],[101.35682622995986,1.8787867181023266],[101.35682635118899,1.8788771132175113],[101.35673651226404,1.8788772351977774],[101.35673663349436,1.878967630318734],[101.35664679455896,1.878967752300232],[101.35664691579055,1.8790581474269596],[101.35646723789296,1.8790583913877819]]]}},{"type":"Feature","properties":{"village":"Bentang Pesisir Basilam Baru - Sungai Geniot","district":"Sungai Sembilan","regency":"Kota Dumai","baseline":"2016","current":"2025","confidence":"rendah","resolutionM":10,"uncertaintyM":14.1,"change":"stable","coverage":"analysed-no-mapped-change","analysisScope":"physical-coastal-landscape","analysisScopeId":"basilam-geniot-coastal-landscape","sharedLandscape":true,"administrativeBoundaryUsedForClipping":false},"geometry":{"type":"Polygon","coordinates":[[[101.34424788043786,1.8781709778291065],[101.34424775990075,1.87808058189311],[101.34415792020144,1.878080703171283],[101.34415779967476,1.877990307229343],[101.34406795997425,1.8779904284970377],[101.34406771894753,1.87780963660117],[101.3441575586388,1.8778095153451575],[101.34415719712845,1.8775383275181177],[101.3442470368001,1.8775382062749928],[101.34424655484925,1.8771766225275521],[101.34433639449665,1.8771765013031563],[101.34433567171709,1.8766341257139993],[101.34442551133105,1.87663400452002],[101.34442539088353,1.8765436085939804],[101.34451523048708,1.8765434874012088],[101.34451535093919,1.8766338833214067],[101.34460519054153,1.8766337621181595],[101.34460531100407,1.8767241580324132],[101.3446951506052,1.8767240368186897],[101.34469575302816,1.877176016359224],[101.34460591340401,1.87717613760216],[101.34460639542857,1.8775377212561297],[101.34451655578017,1.8775378425177998],[101.34451691734581,1.8778090302747392],[101.34442707767778,1.8778091515492987],[101.34442719820667,1.8778995474739175],[101.34433735852822,1.877899668749682],[101.34433772013595,1.878170856540454],[101.34424788043786,1.8781709778291065]]]}},{"type":"Feature","properties":{"village":"Bentang Pesisir Basilam Baru - Sungai Geniot","district":"Sungai Sembilan","regency":"Kota Dumai","baseline":"2016","current":"2025","confidence":"rendah","resolutionM":10,"uncertaintyM":14.1,"change":"stable","coverage":"analysed-no-mapped-change","analysisScope":"physical-coastal-landscape","analysisScopeId":"basilam-geniot-coastal-landscape","sharedLandscape":true,"administrativeBoundaryUsedForClipping":false},"geometry":{"type":"Polygon","coordinates":[[[101.34523322429438,1.8760001424493755],[101.34523310384611,1.8759097465752124],[101.34514326432131,1.875909867764147],[101.34514314388346,1.8758194718840382],[101.34505330435744,1.8758195930624968],[101.34505294309257,1.8755484054040317],[101.34514278260478,1.8755482842431042],[101.34514266219018,1.8754578883625899],[101.34523250169198,1.8754577672028745],[101.34523238127858,1.8753673713281034],[101.34532222076996,1.8753672501696008],[101.34532234118794,1.8754576460385284],[101.3454121806781,1.8754575248695518],[101.34541206025551,1.875367129006468],[101.34550189973524,1.8753670078387046],[101.34550177931388,1.8752766119813638],[101.3455916187832,1.8752764908148138],[101.34559185964098,1.8754572825177045],[101.34550202016244,1.8754574036959437],[101.34550214059544,1.8755477995530814],[101.3454123011065,1.8755479207325336],[101.34541278287827,1.875909504183448],[101.34532294336509,1.875909625381646],[101.34532306381797,1.8760000212499657],[101.34523322429438,1.8760001424493755]]]}},{"type":"Feature","properties":{"village":"Bentang Pesisir Basilam Baru - Sungai Geniot","district":"Sungai Sembilan","regency":"Kota Dumai","baseline":"2016","current":"2025","confidence":"rendah","resolutionM":10,"uncertaintyM":14.1,"change":"stable","coverage":"analysed-no-mapped-change","analysisScope":"physical-coastal-landscape","analysisScopeId":"basilam-geniot-coastal-landscape","sharedLandscape":true,"administrativeBoundaryUsedForClipping":false},"geometry":{"type":"Polygon","coordinates":[[[101.34568109698985,1.8750051821060731],[101.34568097658253,1.8749147862600162],[101.34559113713743,1.8749149074078166],[101.34559101674053,1.874824511555814],[101.34550117729421,1.8748246326931401],[101.34550105690772,1.8747342368351911],[101.34541121746018,1.8747343579620432],[101.34541085634942,1.8744631703700547],[101.34550069578314,1.8744630492607361],[101.3455004550625,1.8742822575439264],[101.34559029448123,1.8742821364416693],[101.34559041484323,1.87437253229428],[101.34568025426073,1.874372411181549],[101.34568037463316,1.8744628070282134],[101.34577021404945,1.8744626859050093],[101.34577057521543,1.8747338734268595],[101.34568073578534,1.8747339945676],[101.34568085618102,1.8748243904138586],[101.3457706956157,1.8748242692672739],[101.34577093643374,1.875005060947798],[101.34568109698985,1.8750051821060731]]]}},{"type":"Feature","properties":{"village":"Bentang Pesisir Basilam Baru - Sungai Geniot","district":"Sungai Sembilan","regency":"Kota Dumai","baseline":"2016","current":"2025","confidence":"rendah","resolutionM":10,"uncertaintyM":14.1,"change":"stable","coverage":"analysed-no-mapped-change","analysisScope":"physical-coastal-landscape","analysisScopeId":"basilam-geniot-coastal-landscape","sharedLandscape":true,"administrativeBoundaryUsedForClipping":false},"geometry":{"type":"Polygon","coordinates":[[[101.34648700324716,1.8730153840357828],[101.34648688292641,1.8729249882401118],[101.34639704363482,1.8729251093009462],[101.34639692332449,1.8728347134993264],[101.3463070840317,1.872834834549689],[101.34630684343766,1.8726540429344527],[101.34639668272128,1.872653921895783],[101.34639644214131,1.8724731302918347],[101.34630660286689,1.872473251318811],[101.34630648259024,1.8723828555108384],[101.34639632186007,1.872382734489709],[101.34639620158462,1.8722923386874817],[101.34648604084406,1.872292217667576],[101.34648568003887,1.872021030277827],[101.34657551927867,1.8720209092708389],[101.34657539901733,1.8719305134799],[101.34666523824673,1.871930392474137],[101.34666463700427,1.8714784135471652],[101.34675447620488,1.8714782925660183],[101.34675435596925,1.871387896786168],[101.34666451677323,1.8713880177614672],[101.346664396548,1.8712976219756678],[101.34675423573943,1.8712975010062156],[101.34675399529725,1.8711167094460088],[101.34684383447369,1.8711165884836314],[101.34684335364079,1.8707550053853936],[101.34693319279303,1.8707548844417887],[101.34693331299712,1.8708452802106523],[101.34702315214814,1.8708451592565787],[101.34702303193946,1.8707547634935648],[101.34711287108007,1.8707546425407202],[101.34711275087263,1.8706642467834529],[101.34720259000282,1.8706641258318382],[101.34720319112122,1.8711161045879203],[101.34711335196808,1.8711162255687783],[101.34711359244699,1.8712970170822005],[101.34702375327882,1.8712971380701349],[101.34702387352242,1.8713875338325427],[101.34711371269518,1.8713874128387595],[101.34711383294918,1.871477808595218],[101.34702399377183,1.8714779295948492],[101.34702459510616,1.8719299084048628],[101.34693475590004,1.8719300294291148],[101.34693487617976,1.8720204251966626],[101.34684503696322,1.8720205462221402],[101.34684539782354,1.8722917335417193],[101.34675555858739,1.8722918545801186],[101.34675567888121,1.8723822503589567],[101.34666583963464,1.8723823713985797],[101.34666595992968,1.8724727671831645],[101.34675579918084,1.8724726461376935],[101.34675603979754,1.8726534376948631],[101.34666620053721,1.8726535587520292],[101.346666441168,1.8728343503204898],[101.34657660189265,1.872834471384726],[101.34657684253753,1.8730152629644763],[101.34648700324716,1.8730153840357828]]]}},{"type":"Feature","properties":{"village":"Bentang Pesisir Basilam Baru - Sungai Geniot","district":"Sungai Sembilan","regency":"Kota Dumai","baseline":"2016","current":"2025","confidence":"rendah","resolutionM":10,"uncertaintyM":14.1,"change":"stable","coverage":"analysed-no-mapped-change","analysisScope":"physical-coastal-landscape","analysisScopeId":"basilam-geniot-coastal-landscape","sharedLandscape":true,"administrativeBoundaryUsedForClipping":false},"geometry":{"type":"Polygon","coordinates":[[[101.34738142686014,1.8700311137338745],[101.34738130668548,1.8699407179933452],[101.34729146760363,1.8699408389074048],[101.34729134743937,1.8698504431609242],[101.34720150835629,1.8698505640645182],[101.34720114791219,1.869579376806924],[101.3472909869815,1.8695792559208773],[101.34729086684051,1.8694888601739923],[101.34738070589943,1.8694887392891788],[101.34738082604498,1.8695791350302142],[101.3475605041545,1.8695788932350388],[101.34756086465367,1.8698500804224416],[101.34747102558805,1.8698502013398857],[101.34747126594075,1.8700309928093481],[101.34738142686014,1.8700311137338745]]]}}],"analysisScope":"physical-coastal-landscape","administrativeBoundaryUsedForClipping":false}
