{"type":"FeatureCollection","features":[{"type":"Feature","properties":{"Object_ID":"DESA-KOTOPERAMBAHAN-KAMPAR","Nama_Objek":"Desa Koto Perambahan","Desa":"Koto Perambahan","Kecamatan":"Kampa","Kabupaten":"Kampar","Sumber_Data":"Batas administrasi desa Riau pada GeoPortal","Tahun_Delineasi":"2018","Status_Geometri":"Batas administrasi indikatif; perlu rujukan BIG/pemerintah desa untuk penetapan hukum"},"geometry":{"type":"Polygon","coordinates":[[[101.23169014520009,0.35809372022001895],[101.23129014520009,0.3560937202200183],[101.23619014520008,0.3167937202200193],[101.23829014520008,0.2990937202200179],[101.2411901452001,0.2882937202200182],[101.2399901452001,0.284893720220019],[101.24629014520009,0.27159372022001804],[101.24099014520009,0.268893720220019],[101.22909014520009,0.2686937202200177],[101.2270901452001,0.278793720220019],[101.22439014520009,0.2926937202200186],[101.21969014520009,0.3178937202200185],[101.21579014520009,0.3385937202200182],[101.2142901452001,0.3460937202200185],[101.21299014520008,0.35259372022001934],[101.2077901452001,0.35639372022001936],[101.20559014520009,0.35869372022001933],[101.20789014520008,0.3598937202200183],[101.21109014520009,0.36199372022001874],[101.21179014520008,0.36619372022001784],[101.20929014520009,0.3701937202200192],[101.2099901452001,0.3736937202200181],[101.21329014520009,0.375593720220019],[101.21649014520008,0.3750937202200184],[101.21969014520009,0.36979372022001833],[101.22239014520008,0.3664937202200189],[101.22329014520008,0.3615937202200179],[101.22459014520008,0.35839372022001825],[101.22869014520009,0.3579937202200192],[101.23169014520009,0.35809372022001895]]]}},{"type":"Feature","properties":{"Object_ID":"DESA-TANJUNGBUNGO-KAMPAR","Nama_Objek":"Desa Tanjungbungo","Desa":"Tanjungbungo","Kecamatan":"Kampa","Kabupaten":"Kampar","Sumber_Data":"Batas administrasi desa Riau pada GeoPortal","Tahun_Delineasi":"2018","Status_Geometri":"Batas administrasi indikatif; perlu rujukan BIG/pemerintah desa untuk penetapan hukum"},"geometry":{"type":"Polygon","coordinates":[[[101.22909014520009,0.2686937202200177],[101.22519014520009,0.26379372022001846],[101.22389014520009,0.25969372022001913],[101.22219014520009,0.25419372022001774],[101.22039014520008,0.24689372022001876],[101.21699014520009,0.2434937202200178],[101.21329014520009,0.2680937202200191],[101.21159014520009,0.2788937202200188],[101.21029014520009,0.28679372022001814],[101.20919014520008,0.2937937202200178],[101.2060901452001,0.31409372022001847],[101.20379014520009,0.32879372022001796],[101.20299014520009,0.33409372022001804],[101.20199014520009,0.34019372022001804],[101.20099014520008,0.34589372022001896],[101.2005901452001,0.3488937202200191],[101.2000901452001,0.35309372022001817],[101.20179014520009,0.35449372022001846],[101.20359014520008,0.35669372022001866],[101.20559014520009,0.35869372022001933],[101.2077901452001,0.35639372022001936],[101.21299014520008,0.35259372022001934],[101.2142901452001,0.3460937202200185],[101.21579014520009,0.3385937202200182],[101.21969014520009,0.3178937202200185],[101.22439014520009,0.2926937202200186],[101.2270901452001,0.278793720220019],[101.22909014520009,0.2686937202200177]]]}}]}
