{
  "type": "FeatureCollection",
  "name": "Konteks resmi lokasi Program Dayun",
  "features": [
    {
      "type": "Feature",
      "properties": {
        "contextId": "desa-dayun",
        "name": "Desa Dayun",
        "district": "Siak",
        "regency": "Siak",
        "source": "Hasil Delineasi Tahun 2018",
        "crs": "SRGI 2013",
        "sourceFile": "desa_intervensi.geojson"
      },
      "geometry": {
        "type": "Polygon",
        "coordinates": [
          [
            [
              102.23979014520009,
              0.7838937202200178
            ],
            [
              102.23929014520009,
              0.7794937202200192
            ],
            [
              102.23859014520009,
              0.7660937202200184
            ],
            [
              102.23829014520008,
              0.7575937202200187
            ],
            [
              102.23789014520008,
              0.7504937202200193
            ],
            [
              102.23729014520009,
              0.7378937202200184
            ],
            [
              102.24139014520009,
              0.7353937202200189
            ],
            [
              102.26499014520009,
              0.7206937202200177
            ],
            [
              102.28559014520009,
              0.7089937202200183
            ],
            [
              102.29309014520008,
              0.697993720220019
            ],
            [
              102.29549014520009,
              0.6949937202200189
            ],
            [
              102.29749014520009,
              0.6925937202200192
            ],
            [
              102.30599014520008,
              0.6818937202200193
            ],
            [
              102.30979014520008,
              0.677093720220018
            ],
            [
              102.32109014520009,
              0.6630937202200187
            ],
            [
              102.32859014520008,
              0.6536937202200193
            ],
            [
              102.33309014520009,
              0.6480937202200181
            ],
            [
              102.33899014520009,
              0.6407937202200191
            ],
            [
              102.34489014520008,
              0.6333937202200186
            ],
            [
              102.35459014520009,
              0.6213937202200182
            ],
            [
              102.36049014520009,
              0.6137937202200181
            ],
            [
              102.36539014520008,
              0.6073937202200188
            ],
            [
              102.36169014520009,
              0.607293720220019
            ],
            [
              102.34939014520009,
              0.6071937202200193
            ],
            [
              102.34519014520009,
              0.606193720220018
            ],
            [
              102.33859014520009,
              0.6038937202200181
            ],
            [
              102.32539014520009,
              0.5992937202200181
            ],
            [
              102.30709014520009,
              0.5907937202200184
            ],
            [
              102.26959014520008,
              0.5861937202200185
            ],
            [
              102.26019014520008,
              0.5849937202200177
            ],
            [
              102.25609014520009,
              0.5844937202200189
            ],
            [
              102.2501901452001,
              0.5837937202200187
            ],
            [
              102.23879014520008,
              0.582593720220018
            ],
            [
              102.22599014520009,
              0.5812937202200192
            ],
            [
              102.1726901452001,
              0.5759937202200192
            ],
            [
              102.16829014520009,
              0.5755937202200183
            ],
            [
              102.16319014520009,
              0.5750937202200177
            ],
            [
              102.1448901452001,
              0.5731937202200186
            ],
            [
              102.13319014520009,
              0.5720937202200194
            ],
            [
              102.09019014520008,
              0.5677937202200187
            ],
            [
              102.05719014520008,
              0.5644937202200193
            ],
            [
              102.04229014520008,
              0.5629937202200193
            ],
            [
              102.02099014520009,
              0.5608937202200188
            ],
            [
              102.01639014520009,
              0.5603937202200182
            ],
            [
              102.00829014520009,
              0.5595937202200183
            ],
            [
              101.97459014520008,
              0.5561937202200191
            ],
            [
              101.97339014520009,
              0.5501937202200189
            ],
            [
              101.95769014520009,
              0.5418937202200187
            ],
            [
              101.93969014520009,
              0.532293720220018
            ],
            [
              101.93229014520008,
              0.5291937202200181
            ],
            [
              101.93009014520008,
              0.5340937202200191
            ],
            [
              101.92989014520009,
              0.5392937202200176
            ],
            [
              101.9299901452001,
              0.5425937202200188
            ],
            [
              101.93199014520009,
              0.5506937202200177
            ],
            [
              101.93189014520009,
              0.5542937202200182
            ],
            [
              101.93009014520008,
              0.5557937202200183
            ],
            [
              101.92739014520009,
              0.556993720220019
            ],
            [
              101.92239014520008,
              0.5595937202200183
            ],
            [
              101.91989014520009,
              0.5610937202200184
            ],
            [
              101.91569014520009,
              0.5610937202200184
            ],
            [
              101.91179014520009,
              0.5602937202200184
            ],
            [
              101.90829014520008,
              0.5600937202200189
            ],
            [
              101.90549014520009,
              0.5622937202200191
            ],
            [
              101.90319014520009,
              0.5664937202200182
            ],
            [
              101.89909014520009,
              0.5688937202200179
            ],
            [
              101.89769014520009,
              0.5721937202200191
            ],
            [
              101.8957901452001,
              0.5749937202200179
            ],
            [
              101.89429014520009,
              0.5767937202200191
            ],
            [
              101.8914901452001,
              0.5788937202200177
            ],
            [
              101.88839014520009,
              0.5814937202200188
            ],
            [
              101.88499014520009,
              0.5819937202200194
            ],
            [
              101.8815901452001,
              0.5828937202200191
            ],
            [
              101.8726901452001,
              0.5835937202200192
            ],
            [
              101.84639014520009,
              0.5847937202200182
            ],
            [
              101.84449014520008,
              0.5881937202200191
            ],
            [
              101.83869014520009,
              0.588693720220018
            ],
            [
              101.83869014520009,
              0.5939937202200181
            ],
            [
              101.83869014520009,
              0.5965937202200191
            ],
            [
              101.8387901452001,
              0.5988937202200191
            ],
            [
              101.83859014520009,
              0.6009937202200177
            ],
            [
              101.8383901452001,
              0.6074937202200186
            ],
            [
              101.8383901452001,
              0.6126937202200189
            ],
            [
              101.84889014520009,
              0.6135937202200186
            ],
            [
              101.86059014520009,
              0.6121937202200183
            ],
            [
              101.86089014520009,
              0.6082937202200185
            ],
            [
              101.86269014520009,
              0.6048937202200193
            ],
            [
              101.86649014520009,
              0.6049937202200191
            ],
            [
              101.8781901452001,
              0.6033937202200192
            ],
            [
              101.88219014520008,
              0.6033937202200192
            ],
            [
              101.8858901452001,
              0.6038937202200181
            ],
            [
              101.89099014520009,
              0.6043937202200187
            ],
            [
              101.89429014520009,
              0.6044937202200185
            ],
            [
              101.89859014520009,
              0.604693720220018
            ],
            [
              101.8991901452001,
              0.6002937202200194
            ],
            [
              101.9000901452001,
              0.5981937202200189
            ],
            [
              101.90249014520009,
              0.5957937202200192
            ],
            [
              101.90639014520009,
              0.5955937202200179
            ],
            [
              101.91139014520009,
              0.5955937202200179
            ],
            [
              101.91179014520009,
              0.5871937202200179
            ],
            [
              101.91209014520008,
              0.5773937202200177
            ],
            [
              101.91679014520008,
              0.5767937202200191
            ],
            [
              101.91779014520009,
              0.5734937202200179
            ],
            [
              101.92249014520009,
              0.5728937202200193
            ],
            [
              101.92239014520008,
              0.5692937202200188
            ],
            [
              101.92959014520008,
              0.5693937202200186
            ],
            [
              101.93369014520009,
              0.5693937202200186
            ],
            [
              101.9325901452001,
              0.5818937202200178
            ],
            [
              101.9325901452001,
              0.5883937202200187
            ],
            [
              101.9325901452001,
              0.5921937202200187
            ],
            [
              101.93229014520008,
              0.6065937202200189
            ],
            [
              101.94039014520008,
              0.6085937202200178
            ],
            [
              101.94419014520008,
              0.6088937202200189
            ],
            [
              101.94429014520009,
              0.612293720220018
            ],
            [
              101.94689014520009,
              0.6129937202200182
            ],
            [
              101.94909014520009,
              0.6147937202200193
            ],
            [
              101.95109014520008,
              0.6172937202200188
            ],
            [
              101.95419014520009,
              0.6180937202200187
            ],
            [
              101.95669014520008,
              0.6202937202200189
            ],
            [
              101.95879014520008,
              0.6220937202200183
            ],
            [
              101.96049014520008,
              0.6236937202200181
            ],
            [
              101.96239014520009,
              0.625593720220019
            ],
            [
              101.9642901452001,
              0.6283937202200178
            ],
            [
              101.96419014520009,
              0.6357937202200183
            ],
            [
              101.96139014520008,
              0.6364937202200185
            ],
            [
              101.95629014520009,
              0.6364937202200185
            ],
            [
              101.95339014520009,
              0.6382937202200178
            ],
            [
              101.96829014520009,
              0.638993720220018
            ],
            [
              101.97429014520009,
              0.6462937202200187
            ],
            [
              101.9740901452001,
              0.653793720220019
            ],
            [
              101.97169014520009,
              0.6612937202200193
            ],
            [
              101.96899014520008,
              0.664893720220018
            ],
            [
              101.96889014520009,
              0.669493720220018
            ],
            [
              101.97139014520009,
              0.6679937202200179
            ],
            [
              101.97679014520008,
              0.6734937202200193
            ],
            [
              101.97849014520008,
              0.6813937202200187
            ],
            [
              101.98099014520008,
              0.6931937202200178
            ],
            [
              101.98099014520008,
              0.6990937202200183
            ],
            [
              101.98109014520008,
              0.703793720220018
            ],
            [
              101.98089014520009,
              0.706393720220019
            ],
            [
              101.97669014520008,
              0.7064937202200188
            ],
            [
              101.97679014520008,
              0.713693720220018
            ],
            [
              101.97979014520008,
              0.7149937202200185
            ],
            [
              101.98029014520009,
              0.7245937202200192
            ],
            [
              101.96689014520008,
              0.7244937202200177
            ],
            [
              101.96369014520009,
              0.7244937202200177
            ],
            [
              101.95679014520009,
              0.7244937202200177
            ],
            [
              101.94919014520009,
              0.7244937202200177
            ],
            [
              101.94519014520009,
              0.7244937202200177
            ],
            [
              101.94299014520008,
              0.7242937202200181
            ],
            [
              101.94309014520009,
              0.7450937202200176
            ],
            [
              101.94689014520009,
              0.7450937202200176
            ],
            [
              101.95479014520009,
              0.7450937202200176
            ],
            [
              101.95749014520008,
              0.7450937202200176
            ],
            [
              101.96319014520009,
              0.7450937202200176
            ],
            [
              101.96719014520009,
              0.7450937202200176
            ],
            [
              101.97219014520009,
              0.7450937202200176
            ],
            [
              101.97779014520009,
              0.7450937202200176
            ],
            [
              101.98169014520009,
              0.7450937202200176
            ],
            [
              101.98699014520008,
              0.7449937202200179
            ],
            [
              101.99599014520008,
              0.7450937202200176
            ],
            [
              102.0001901452001,
              0.744493720220019
            ],
            [
              101.99979014520008,
              0.7411937202200178
            ],
            [
              101.99949014520008,
              0.7373937202200178
            ],
            [
              101.9988901452001,
              0.7321937202200193
            ],
            [
              101.99869014520009,
              0.7270937202200187
            ],
            [
              102.00089014520009,
              0.7268937202200192
            ],
            [
              102.00569014520009,
              0.7274937202200178
            ],
            [
              102.01109014520009,
              0.7280937202200182
            ],
            [
              102.0151901452001,
              0.7285937202200188
            ],
            [
              102.01969014520009,
              0.7300937202200188
            ],
            [
              102.02209014520008,
              0.7300937202200188
            ],
            [
              102.02409014520009,
              0.7290937202200194
            ],
            [
              102.02709014520009,
              0.7272937202200183
            ],
            [
              102.03109014520008,
              0.7249937202200183
            ],
            [
              102.03479014520009,
              0.7228937202200179
            ],
            [
              102.03849014520009,
              0.7206937202200177
            ],
            [
              102.04439014520008,
              0.7172937202200185
            ],
            [
              102.0502901452001,
              0.7238937202200191
            ],
            [
              102.06079014520009,
              0.7224937202200188
            ],
            [
              102.06719014520009,
              0.7219937202200182
            ],
            [
              102.07429014520008,
              0.7213937202200178
            ],
            [
              102.10759014520009,
              0.720093720220019
            ],
            [
              102.11399014520009,
              0.719793720220018
            ],
            [
              102.10769014520008,
              0.7281937202200179
            ],
            [
              102.11459014520008,
              0.7280937202200182
            ],
            [
              102.12289014520009,
              0.7287937202200183
            ],
            [
              102.12639014520009,
              0.7336937202200193
            ],
            [
              102.13089014520008,
              0.7399937202200189
            ],
            [
              102.13509014520008,
              0.7460937202200189
            ],
            [
              102.1375901452001,
              0.7525937202200179
            ],
            [
              102.1397901452001,
              0.757893720220018
            ],
            [
              102.14089014520009,
              0.7613937202200187
            ],
            [
              102.14119014520008,
              0.7652937202200185
            ],
            [
              102.14179014520009,
              0.7714937202200183
            ],
            [
              102.1414901452001,
              0.7768937202200181
            ],
            [
              102.14439014520009,
              0.7794937202200192
            ],
            [
              102.14779014520009,
              0.7835937202200185
            ],
            [
              102.1517901452001,
              0.7836937202200183
            ],
            [
              102.15549014520009,
              0.7836937202200183
            ],
            [
              102.16249014520008,
              0.7836937202200183
            ],
            [
              102.16659014520009,
              0.7836937202200183
            ],
            [
              102.17179014520009,
              0.7836937202200183
            ],
            [
              102.17539014520008,
              0.7836937202200183
            ],
            [
              102.18589014520009,
              0.7836937202200183
            ],
            [
              102.19589014520008,
              0.7836937202200183
            ],
            [
              102.19829014520009,
              0.783793720220018
            ],
            [
              102.2000901452001,
              0.7819937202200187
            ],
            [
              102.2022901452001,
              0.7797937202200185
            ],
            [
              102.20419014520009,
              0.7785937202200177
            ],
            [
              102.2065901452001,
              0.7775937202200183
            ],
            [
              102.20929014520009,
              0.7755937202200194
            ],
            [
              102.21329014520009,
              0.7753937202200181
            ],
            [
              102.21569014520009,
              0.7758937202200187
            ],
            [
              102.21779014520008,
              0.7770937202200177
            ],
            [
              102.2193901452001,
              0.7795937202200189
            ],
            [
              102.22169014520009,
              0.7807937202200179
            ],
            [
              102.22459014520008,
              0.7812937202200185
            ],
            [
              102.22789014520009,
              0.7798937202200182
            ],
            [
              102.23129014520009,
              0.7800937202200178
            ],
            [
              102.23279014520008,
              0.7829937202200181
            ],
            [
              102.23579014520008,
              0.7846937202200177
            ],
            [
              102.23979014520009,
              0.7838937202200178
            ]
          ]
        ]
      }
    },
    {
      "type": "Feature",
      "properties": {
        "contextId": "ps-hkm",
        "name": "PS HKm KTH Mandiri Sejahtera",
        "permitAreaHa": 980,
        "geometryAreaHa": 982.87,
        "permitNumber": "SK.5760/Menlhk-PSKL/PKPS/PSL.0/9/2021",
        "sourceFile": "PERHUTANAN_SOSIAL_RIAU.geojson"
      },
      "geometry": {
        "type": "Polygon",
        "coordinates": [
          [
            [
              102.01329132164784,
              0.585797458887953
            ],
            [
              102.00183885685374,
              0.561203944796944
            ],
            [
              101.98043455500016,
              0.559235595000189
            ],
            [
              101.97375825000012,
              0.558670242000062
            ],
            [
              101.97159377449765,
              0.558401562551012
            ],
            [
              101.97166312724306,
              0.559656700277969
            ],
            [
              101.97164885047698,
              0.560741734496673
            ],
            [
              101.97147752928453,
              0.561555510160588
            ],
            [
              101.97129193132605,
              0.562197964632105
            ],
            [
              101.97119199396383,
              0.563026017062271
            ],
            [
              101.97114916366576,
              0.563240168552795
            ],
            [
              101.97136807407821,
              0.563475735192185
            ],
            [
              101.9714680114406,
              0.563818377577093
            ],
            [
              101.97145373467453,
              0.564275234090246
            ],
            [
              101.9713537973123,
              0.564617876475097
            ],
            [
              101.97126813671599,
              0.56503190269018
            ],
            [
              101.97145373467453,
              0.56534599154287
            ],
            [
              101.97169643969698,
              0.565574419799475
            ],
            [
              101.97202480531598,
              0.565588696565385
            ],
            [
              101.97245310829697,
              0.565688633927777
            ],
            [
              101.97286713451206,
              0.565688633927778
            ],
            [
              101.97320977689674,
              0.565802848055853
            ],
            [
              101.97349531221744,
              0.565817124821933
            ],
            [
              101.97393789196451,
              0.565688633927777
            ],
            [
              101.9741520434552,
              0.565788571289943
            ],
            [
              101.97426625758334,
              0.566131213674851
            ],
            [
              101.97430908788158,
              0.566630900486018
            ],
            [
              101.97445185554182,
              0.567316185255777
            ],
            [
              101.97449468583989,
              0.567944362961157
            ],
            [
              101.97458153616662,
              0.569319691422606
            ],
            [
              101.97458153616662,
              0.57009301624953
            ],
            [
              101.97470050921692,
              0.570777111288635
            ],
            [
              101.97475999574209,
              0.571401719802736
            ],
            [
              101.97481948226732,
              0.571996585054194
            ],
            [
              101.9749681985802,
              0.572591450305652
            ],
            [
              101.9749681985802,
              0.573216058819696
            ],
            [
              101.9749681985802,
              0.573721694283336
            ],
            [
              101.97467076595427,
              0.574078613434267
            ],
            [
              101.97437333332874,
              0.574376046060024
            ],
            [
              101.97470050921692,
              0.57485193826119
            ],
            [
              101.97470050921692,
              0.575208857411951
            ],
            [
              101.97487896879238,
              0.575506290037708
            ],
            [
              101.97499794184262,
              0.575952438976287
            ],
            [
              101.97499794184262,
              0.576339101389863
            ],
            [
              101.97526563120573,
              0.576606790752976
            ],
            [
              101.97538460425619,
              0.57666627727798
            ],
            [
              101.97541434751878,
              0.577112426216616
            ],
            [
              101.97556306383166,
              0.577469345367547
            ],
            [
              101.97580100993218,
              0.577826264518478
            ],
            [
              101.97642561844623,
              0.57904573828381
            ],
            [
              101.97627690213335,
              0.579402657434798
            ],
            [
              101.97600921277024,
              0.58005700921143
            ],
            [
              101.97591998298242,
              0.580413928362248
            ],
            [
              101.9760686992953,
              0.58142519928964
            ],
            [
              101.97633638865841,
              0.582733902843018
            ],
            [
              101.97648510497129,
              0.583715430507823
            ],
            [
              101.9766040780217,
              0.584429268809572
            ],
            [
              101.97669330780934,
              0.585291823424313
            ],
            [
              101.9765743347591,
              0.585708229100305
            ],
            [
              101.97669330780934,
              0.586124634776297
            ],
            [
              101.97690151064728,
              0.586481553927229
            ],
            [
              101.97702048369769,
              0.587582054642326
            ],
            [
              101.97710971348533,
              0.588117433368552
            ],
            [
              101.97716920001056,
              0.588771785145241
            ],
            [
              101.9772881730608,
              0.589515366709577
            ],
            [
              101.97740714611109,
              0.590229205011269
            ],
            [
              101.97755586242391,
              0.590526637637026
            ],
            [
              101.98032198584332,
              0.588979987983293
            ],
            [
              101.98073839151931,
              0.588652812095006
            ],
            [
              101.98079787804431,
              0.588474352519484
            ],
            [
              101.98085736456954,
              0.588057946843549
            ],
            [
              101.98097633761984,
              0.587760514217791
            ],
            [
              101.981452229821,
              0.587522568117094
            ],
            [
              101.98240401422322,
              0.587106162441103
            ],
            [
              101.98433732629064,
              0.586273351089176
            ],
            [
              101.9862706383579,
              0.585053877323617
            ],
            [
              101.98814446389991,
              0.583655943982649
            ],
            [
              101.98841215326303,
              0.583417997882123
            ],
            [
              101.9929628724368,
              0.583536970932357
            ],
            [
              101.99323056179992,
              0.583269281569244
            ],
            [
              101.9937180654274,
              0.58327844151637
            ],
            [
              101.99495091210707,
              0.58191893744845
            ],
            [
              101.99520789389567,
              0.581719062724062
            ],
            [
              101.99560764334467,
              0.581661955659911
            ],
            [
              101.99897696012897,
              0.579192075135779
            ],
            [
              102.00067589528709,
              0.581690509191901
            ],
            [
              102.0032314364073,
              0.580005850799751
            ],
            [
              102.0062010037426,
              0.584503032100884
            ],
            [
              102.00744308238768,
              0.583417997882123
            ],
            [
              102.00809981362528,
              0.584545862398897
            ],
            [
              102.00868516103264,
              0.584474478568723
            ],
            [
              102.00915629431188,
              0.585174040104505
            ],
            [
              102.00932761550428,
              0.585759387511871
            ],
            [
              102.00968453465504,
              0.586487502579644
            ],
            [
              102.00995579320988,
              0.586944359092797
            ],
            [
              102.01015566793427,
              0.587258447945487
            ],
            [
              102.01024132853058,
              0.587543983266244
            ],
            [
              102.01045548002111,
              0.587758134756712
            ],
            [
              102.01056969414935,
              0.58770102769256
            ],
            [
              102.01329132164784,
              0.585797458887953
            ]
          ]
        ]
      }
    }
  ]
}
