{
  "type": "FeatureCollection",
  "name": "Blok Agroforestri KUPS Rimba Sejahtera",
  "sourceDataset": "SHP file Agro Mandiri Sejahtera.rar",
  "sourceCrs": "WGS 84 / UTM zone 48N (EPSG:32648)",
  "generatedAt": "2026-09-16",
  "totalAreaHa": 28.0639,
  "features": [
    {
      "type": "Feature",
      "properties": {
        "blockId": "DAYUN-BLOCK-A",
        "name": "Blok A",
        "blockCode": "A",
        "areaHa": 3.2305,
        "sourceFeatureCount": 44,
        "plantingFeatureCount": 27,
        "color": "#7c3aed",
        "source": "SHP file Agro Mandiri Sejahtera.rar",
        "sourceCrs": "WGS 84 / UTM zone 48N (EPSG:32648)"
      },
      "geometry": {
        "type": "Polygon",
        "coordinates": [
          [
            [
              102.0063821,
              0.5822225
            ],
            [
              102.0063625,
              0.5821951
            ],
            [
              102.0063434,
              0.5821685
            ],
            [
              102.0062969,
              0.5821034
            ],
            [
              102.006247,
              0.5820277
            ],
            [
              102.0061987,
              0.5819543
            ],
            [
              102.0050634,
              0.5828094
            ],
            [
              102.0049749,
              0.582876
            ],
            [
              102.0049927,
              0.582938
            ],
            [
              102.0055723,
              0.5837905
            ],
            [
              102.00583,
              0.584083
            ],
            [
              102.0061427,
              0.584151
            ],
            [
              102.006152,
              0.584164
            ],
            [
              102.0061878,
              0.5841375
            ],
            [
              102.0062182,
              0.584115
            ],
            [
              102.0062083,
              0.5841039
            ],
            [
              102.006252,
              0.5840682
            ],
            [
              102.0068318,
              0.5835931
            ],
            [
              102.0071667,
              0.5833186
            ],
            [
              102.0071425,
              0.5832848
            ],
            [
              102.0071138,
              0.5832446
            ],
            [
              102.0070684,
              0.5831813
            ],
            [
              102.0070417,
              0.5831439
            ],
            [
              102.0070098,
              0.5830994
            ],
            [
              102.0069935,
              0.5830766
            ],
            [
              102.0069589,
              0.5830282
            ],
            [
              102.0069323,
              0.5829911
            ],
            [
              102.0068893,
              0.582931
            ],
            [
              102.0068712,
              0.5829058
            ],
            [
              102.0068174,
              0.5828307
            ],
            [
              102.00679,
              0.5827924
            ],
            [
              102.0067579,
              0.5827475
            ],
            [
              102.0067401,
              0.5827226
            ],
            [
              102.0066933,
              0.5826573
            ],
            [
              102.0066746,
              0.5826312
            ],
            [
              102.0066171,
              0.5825507
            ],
            [
              102.0066002,
              0.5825272
            ],
            [
              102.0065699,
              0.5824848
            ],
            [
              102.0065469,
              0.5824527
            ],
            [
              102.0065051,
              0.5823943
            ],
            [
              102.0064873,
              0.5823695
            ],
            [
              102.0064421,
              0.5823063
            ],
            [
              102.0064187,
              0.5822737
            ],
            [
              102.0063821,
              0.5822225
            ]
          ],
          [
            [
              102.0058098,
              0.5824359
            ],
            [
              102.0058014,
              0.5824417
            ],
            [
              102.0062969,
              0.5821034
            ],
            [
              102.0058098,
              0.5824359
            ]
          ],
          [
            [
              102.006095,
              0.5839699
            ],
            [
              102.0061087,
              0.5839785
            ],
            [
              102.0061528,
              0.5840061
            ],
            [
              102.006252,
              0.5840682
            ],
            [
              102.006095,
              0.5839699
            ]
          ],
          [
            [
              102.0060042,
              0.5839
            ],
            [
              102.0060117,
              0.5839057
            ],
            [
              102.0060156,
              0.5839087
            ],
            [
              102.0060042,
              0.5839
            ]
          ],
          [
            [
              102.0059568,
              0.58379
            ],
            [
              102.0059575,
              0.5837996
            ],
            [
              102.0059615,
              0.5838527
            ],
            [
              102.0059568,
              0.58379
            ]
          ],
          [
            [
              102.0059056,
              0.5837549
            ],
            [
              102.0059076,
              0.5837562
            ],
            [
              102.0059568,
              0.58379
            ],
            [
              102.0059056,
              0.5837549
            ]
          ],
          [
            [
              102.0058245,
              0.5836626
            ],
            [
              102.0058466,
              0.5836938
            ],
            [
              102.0058749,
              0.5837338
            ],
            [
              102.0058245,
              0.5836626
            ]
          ],
          [
            [
              102.006502,
              0.5833009
            ],
            [
              102.0061041,
              0.5835394
            ],
            [
              102.0058466,
              0.5836938
            ],
            [
              102.006502,
              0.5833009
            ]
          ],
          [
            [
              102.0054916,
              0.5833962
            ],
            [
              102.0055336,
              0.5834611
            ],
            [
              102.0055557,
              0.5834953
            ],
            [
              102.0055819,
              0.5835359
            ],
            [
              102.0056476,
              0.5836374
            ],
            [
              102.0054916,
              0.5833962
            ]
          ],
          [
            [
              102.0059269,
              0.583133
            ],
            [
              102.0062797,
              0.5829222
            ],
            [
              102.0062592,
              0.5829344
            ],
            [
              102.0059269,
              0.583133
            ]
          ],
          [
            [
              102.006424,
              0.5828351
            ],
            [
              102.0064237,
              0.5828352
            ],
            [
              102.0062797,
              0.5829222
            ],
            [
              102.006424,
              0.5828351
            ]
          ],
          [
            [
              102.0054132,
              0.5832732
            ],
            [
              102.0054145,
              0.5832769
            ],
            [
              102.005408,
              0.5832578
            ],
            [
              102.0054132,
              0.5832732
            ]
          ],
          [
            [
              102.0053543,
              0.5831872
            ],
            [
              102.0053691,
              0.5832067
            ],
            [
              102.0053986,
              0.5832455
            ],
            [
              102.005408,
              0.5832578
            ],
            [
              102.0053543,
              0.5831872
            ]
          ],
          [
            [
              102.0058874,
              0.582843
            ],
            [
              102.0058767,
              0.5828491
            ],
            [
              102.0056123,
              0.5829971
            ],
            [
              102.0058874,
              0.582843
            ]
          ],
          [
            [
              102.0059646,
              0.5827863
            ],
            [
              102.0059086,
              0.5828275
            ],
            [
              102.0058874,
              0.582843
            ],
            [
              102.0059646,
              0.5827863
            ]
          ],
          [
            [
              102.0060932,
              0.5826447
            ],
            [
              102.0059373,
              0.5827395
            ],
            [
              102.0059353,
              0.5827407
            ],
            [
              102.0060932,
              0.5826447
            ]
          ],
          [
            [
              102.0053468,
              0.5831773
            ],
            [
              102.0053991,
              0.5831375
            ],
            [
              102.0053468,
              0.5831773
            ],
            [
              102.0053468,
              0.5831773
            ]
          ],
          [
            [
              102.0055889,
              0.5829567
            ],
            [
              102.0055601,
              0.582975
            ],
            [
              102.0056923,
              0.5828908
            ],
            [
              102.0055889,
              0.5829567
            ]
          ],
          [
            [
              102.0052185,
              0.5830028
            ],
            [
              102.0052413,
              0.5830384
            ],
            [
              102.0051422,
              0.5828836
            ],
            [
              102.0051697,
              0.5829265
            ],
            [
              102.0051832,
              0.5829476
            ],
            [
              102.0052185,
              0.5830028
            ]
          ],
          [
            [
              102.0060449,
              0.5828668
            ],
            [
              102.0060035,
              0.5828895
            ],
            [
              102.0059395,
              0.5829246
            ],
            [
              102.0060449,
              0.5828668
            ]
          ],
          [
            [
              102.0055993,
              0.583274
            ],
            [
              102.0055961,
              0.5832798
            ],
            [
              102.0056028,
              0.5832678
            ],
            [
              102.0055993,
              0.583274
            ]
          ],
          [
            [
              102.0059916,
              0.583281
            ],
            [
              102.0058984,
              0.5833374
            ],
            [
              102.0058116,
              0.5833899
            ],
            [
              102.0059916,
              0.583281
            ]
          ]
        ]
      }
    },
    {
      "type": "Feature",
      "properties": {
        "blockId": "DAYUN-BLOCK-B",
        "name": "Blok B",
        "blockCode": "B",
        "areaHa": 5.7756,
        "sourceFeatureCount": 36,
        "plantingFeatureCount": 16,
        "color": "#2563eb",
        "source": "SHP file Agro Mandiri Sejahtera.rar",
        "sourceCrs": "WGS 84 / UTM zone 48N (EPSG:32648)"
      },
      "geometry": {
        "type": "Polygon",
        "coordinates": [
          [
            [
              102.0061987,
              0.5819543
            ],
            [
              102.006247,
              0.5820277
            ],
            [
              102.0062658,
              0.5820563
            ],
            [
              102.0062969,
              0.5821034
            ],
            [
              102.0063106,
              0.5821226
            ],
            [
              102.0063625,
              0.5821951
            ],
            [
              102.0063821,
              0.5822225
            ],
            [
              102.0064187,
              0.5822737
            ],
            [
              102.0064421,
              0.5823063
            ],
            [
              102.0064873,
              0.5823695
            ],
            [
              102.0065051,
              0.5823943
            ],
            [
              102.0065469,
              0.5824527
            ],
            [
              102.0065699,
              0.5824848
            ],
            [
              102.0066002,
              0.5825272
            ],
            [
              102.0066171,
              0.5825507
            ],
            [
              102.0066746,
              0.5826312
            ],
            [
              102.0066933,
              0.5826573
            ],
            [
              102.0067401,
              0.5827226
            ],
            [
              102.0067583,
              0.582748
            ],
            [
              102.00679,
              0.5827923
            ],
            [
              102.0068174,
              0.5828307
            ],
            [
              102.0068712,
              0.5829058
            ],
            [
              102.0068893,
              0.582931
            ],
            [
              102.0069323,
              0.5829911
            ],
            [
              102.006959,
              0.5830284
            ],
            [
              102.0069935,
              0.5830766
            ],
            [
              102.0070098,
              0.5830994
            ],
            [
              102.0070544,
              0.5831617
            ],
            [
              102.0070684,
              0.5831813
            ],
            [
              102.0071138,
              0.5832446
            ],
            [
              102.0071415,
              0.5832834
            ],
            [
              102.0071667,
              0.5833186
            ],
            [
              102.0072152,
              0.5832789
            ],
            [
              102.0072105,
              0.5832414
            ],
            [
              102.0072601,
              0.5832034
            ],
            [
              102.0075291,
              0.5830332
            ],
            [
              102.0091967,
              0.5820482
            ],
            [
              102.0091806,
              0.582013
            ],
            [
              102.0091531,
              0.5819528
            ],
            [
              102.0091369,
              0.5819174
            ],
            [
              102.0091208,
              0.5818822
            ],
            [
              102.0091967,
              0.5820482
            ],
            [
              102.0092609,
              0.5820111
            ],
            [
              102.008622,
              0.580576
            ],
            [
              102.0085874,
              0.5804983
            ],
            [
              102.008496,
              0.5802931
            ],
            [
              102.0084765,
              0.5802528
            ],
            [
              102.0084767,
              0.5802527
            ],
            [
              102.0084632,
              0.5802489
            ],
            [
              102.0084063,
              0.5802917
            ],
            [
              102.0061987,
              0.5819543
            ]
          ],
          [
            [
              102.0071234,
              0.582584
            ],
            [
              102.0070483,
              0.5826309
            ],
            [
              102.00679,
              0.5827923
            ],
            [
              102.0071234,
              0.582584
            ]
          ],
          [
            [
              102.0084368,
              0.5803383
            ],
            [
              102.0084967,
              0.580473
            ],
            [
              102.0084838,
              0.5804441
            ],
            [
              102.0084753,
              0.5804249
            ],
            [
              102.0084368,
              0.5803383
            ]
          ],
          [
            [
              102.0089034,
              0.5814222
            ],
            [
              102.0089034,
              0.5814222
            ],
            [
              102.0087047,
              0.581545
            ],
            [
              102.0089034,
              0.5814222
            ]
          ],
          [
            [
              102.008772,
              0.5811244
            ],
            [
              102.0087653,
              0.5811095
            ],
            [
              102.0087765,
              0.5811345
            ],
            [
              102.008772,
              0.5811244
            ]
          ],
          [
            [
              102.00856,
              0.5806277
            ],
            [
              102.0085447,
              0.580581
            ],
            [
              102.0085607,
              0.5806298
            ],
            [
              102.00856,
              0.5806277
            ]
          ],
          [
            [
              102.008517,
              0.5805187
            ],
            [
              102.008517,
              0.5805187
            ],
            [
              102.0081761,
              0.5807271
            ],
            [
              102.008517,
              0.5805187
            ]
          ],
          [
            [
              102.0090128,
              0.5816537
            ],
            [
              102.0090121,
              0.5816522
            ],
            [
              102.0090132,
              0.5816545
            ],
            [
              102.0090128,
              0.5816537
            ]
          ],
          [
            [
              102.0075745,
              0.5823239
            ],
            [
              102.0072082,
              0.5825464
            ],
            [
              102.0070797,
              0.5826245
            ],
            [
              102.0075745,
              0.5823239
            ]
          ]
        ]
      }
    },
    {
      "type": "Feature",
      "properties": {
        "blockId": "DAYUN-BLOCK-C",
        "name": "Blok C",
        "blockCode": "C",
        "areaHa": 4.317,
        "sourceFeatureCount": 24,
        "plantingFeatureCount": 11,
        "color": "#0891b2",
        "source": "SHP file Agro Mandiri Sejahtera.rar",
        "sourceCrs": "WGS 84 / UTM zone 48N (EPSG:32648)"
      },
      "geometry": {
        "type": "Polygon",
        "coordinates": [
          [
            [
              102.0072105,
              0.5832414
            ],
            [
              102.0072152,
              0.5832789
            ],
            [
              102.007293,
              0.5833568
            ],
            [
              102.0078434,
              0.584543
            ],
            [
              102.008344,
              0.5843621
            ],
            [
              102.0083101,
              0.5843187
            ],
            [
              102.0083093,
              0.5842985
            ],
            [
              102.0083633,
              0.5842716
            ],
            [
              102.0086686,
              0.5840907
            ],
            [
              102.0090492,
              0.5838635
            ],
            [
              102.009416,
              0.583637
            ],
            [
              102.0098063,
              0.5833879
            ],
            [
              102.0098019,
              0.5833771
            ],
            [
              102.0098547,
              0.5833449
            ],
            [
              102.0098515,
              0.5833376
            ],
            [
              102.009816,
              0.5832579
            ],
            [
              102.0092609,
              0.5820111
            ],
            [
              102.0091967,
              0.5820482
            ],
            [
              102.0092137,
              0.5820854
            ],
            [
              102.0091967,
              0.5820482
            ],
            [
              102.0075291,
              0.5830332
            ],
            [
              102.0072601,
              0.5832034
            ],
            [
              102.0072105,
              0.5832414
            ]
          ],
          [
            [
              102.0076874,
              0.5839851
            ],
            [
              102.007725,
              0.5840803
            ],
            [
              102.0077302,
              0.5840936
            ],
            [
              102.0077376,
              0.5841121
            ],
            [
              102.0077458,
              0.5841328
            ],
            [
              102.0078225,
              0.584327
            ],
            [
              102.0076874,
              0.5839851
            ]
          ],
          [
            [
              102.0075759,
              0.5837365
            ],
            [
              102.007587,
              0.5837613
            ],
            [
              102.0076531,
              0.5839086
            ],
            [
              102.0076619,
              0.5839282
            ],
            [
              102.0076874,
              0.5839851
            ],
            [
              102.0075759,
              0.5837365
            ]
          ],
          [
            [
              102.0074692,
              0.5835117
            ],
            [
              102.0074775,
              0.5835294
            ],
            [
              102.0074897,
              0.5835551
            ],
            [
              102.0075246,
              0.5836285
            ],
            [
              102.0075393,
              0.5836594
            ],
            [
              102.0075759,
              0.5837365
            ],
            [
              102.0074692,
              0.5835117
            ]
          ],
          [
            [
              102.0074299,
              0.5834382
            ],
            [
              102.007448,
              0.5834721
            ],
            [
              102.0074692,
              0.5835117
            ],
            [
              102.0074299,
              0.5834382
            ]
          ],
          [
            [
              102.0094403,
              0.5826033
            ],
            [
              102.0094415,
              0.5826058
            ],
            [
              102.0094409,
              0.5826046
            ],
            [
              102.0094403,
              0.5826033
            ]
          ],
          [
            [
              102.0093709,
              0.5824476
            ],
            [
              102.0093611,
              0.5824257
            ],
            [
              102.009381,
              0.5824703
            ],
            [
              102.0093709,
              0.5824476
            ]
          ],
          [
            [
              102.0093104,
              0.582307
            ],
            [
              102.0092832,
              0.5822432
            ],
            [
              102.0092648,
              0.5821999
            ],
            [
              102.0092473,
              0.5821589
            ],
            [
              102.0093124,
              0.5823116
            ],
            [
              102.0093104,
              0.582307
            ]
          ],
          [
            [
              102.0073268,
              0.5832702
            ],
            [
              102.0072698,
              0.5832391
            ],
            [
              102.0073043,
              0.5832579
            ],
            [
              102.0073268,
              0.5832702
            ]
          ],
          [
            [
              102.0073354,
              0.5832826
            ],
            [
              102.0073746,
              0.5833396
            ],
            [
              102.0073861,
              0.5833563
            ],
            [
              102.0073268,
              0.5832702
            ],
            [
              102.0073354,
              0.5832826
            ]
          ],
          [
            [
              102.0073985,
              0.5833794
            ],
            [
              102.0074192,
              0.5834183
            ],
            [
              102.0073861,
              0.5833563
            ],
            [
              102.0073985,
              0.5833794
            ]
          ],
          [
            [
              102.0096267,
              0.5829897
            ],
            [
              102.0096184,
              0.5829721
            ],
            [
              102.0096552,
              0.5830501
            ],
            [
              102.0096267,
              0.5829897
            ]
          ],
          [
            [
              102.0097228,
              0.5831935
            ],
            [
              102.0097205,
              0.5831886
            ],
            [
              102.0097532,
              0.5832578
            ],
            [
              102.0097228,
              0.5831935
            ]
          ]
        ]
      }
    },
    {
      "type": "Feature",
      "properties": {
        "blockId": "DAYUN-BLOCK-D",
        "name": "Blok D",
        "blockCode": "D",
        "areaHa": 5.1167,
        "sourceFeatureCount": 25,
        "plantingFeatureCount": 10,
        "color": "#16a34a",
        "source": "SHP file Agro Mandiri Sejahtera.rar",
        "sourceCrs": "WGS 84 / UTM zone 48N (EPSG:32648)"
      },
      "geometry": {
        "type": "Polygon",
        "coordinates": [
          [
            [
              102.0090492,
              0.5838635
            ],
            [
              102.0086686,
              0.5840907
            ],
            [
              102.0083633,
              0.5842716
            ],
            [
              102.0083093,
              0.5842985
            ],
            [
              102.0083101,
              0.5843187
            ],
            [
              102.008344,
              0.5843621
            ],
            [
              102.0086002,
              0.5848462
            ],
            [
              102.0086119,
              0.5848652
            ],
            [
              102.008942,
              0.585403
            ],
            [
              102.0089466,
              0.5855006
            ],
            [
              102.0091321,
              0.585851
            ],
            [
              102.0092218,
              0.5857956
            ],
            [
              102.0092218,
              0.5857956
            ],
            [
              102.0094484,
              0.5856484
            ],
            [
              102.0101866,
              0.5852042
            ],
            [
              102.010559,
              0.5849714
            ],
            [
              102.0105794,
              0.5849591
            ],
            [
              102.0110858,
              0.5846545
            ],
            [
              102.0115761,
              0.5843583
            ],
            [
              102.0118003,
              0.5842246
            ],
            [
              102.0119505,
              0.5841501
            ],
            [
              102.0121139,
              0.5840469
            ],
            [
              102.0121581,
              0.5840075
            ],
            [
              102.0122072,
              0.5839782
            ],
            [
              102.01197,
              0.5834727
            ],
            [
              102.0119414,
              0.5834874
            ],
            [
              102.0119293,
              0.5834952
            ],
            [
              102.0103571,
              0.5843808
            ],
            [
              102.0103379,
              0.5843916
            ],
            [
              102.0103242,
              0.5843993
            ],
            [
              102.0098547,
              0.5833449
            ],
            [
              102.0098019,
              0.5833771
            ],
            [
              102.0098578,
              0.5835139
            ],
            [
              102.0098063,
              0.5833879
            ],
            [
              102.009416,
              0.583637
            ],
            [
              102.0090492,
              0.5838635
            ]
          ],
          [
            [
              102.0099894,
              0.5837765
            ],
            [
              102.009909,
              0.5836162
            ],
            [
              102.0098978,
              0.5835938
            ],
            [
              102.0098578,
              0.5835139
            ],
            [
              102.0099894,
              0.5837765
            ]
          ],
          [
            [
              102.0087001,
              0.5848097
            ],
            [
              102.008706,
              0.5848221
            ],
            [
              102.0087001,
              0.5848097
            ],
            [
              102.0087001,
              0.5848097
            ]
          ],
          [
            [
              102.0089249,
              0.585247
            ],
            [
              102.0090047,
              0.5854069
            ],
            [
              102.0090162,
              0.5854298
            ],
            [
              102.0090609,
              0.5855194
            ],
            [
              102.0089129,
              0.5852229
            ],
            [
              102.0089249,
              0.585247
            ]
          ],
          [
            [
              102.0103521,
              0.5844936
            ],
            [
              102.0105292,
              0.5849025
            ],
            [
              102.0104761,
              0.58478
            ],
            [
              102.0104699,
              0.5847657
            ],
            [
              102.0103901,
              0.5845815
            ],
            [
              102.0103809,
              0.5845602
            ],
            [
              102.0103521,
              0.5844936
            ]
          ],
          [
            [
              102.0103174,
              0.5845115
            ],
            [
              102.0103759,
              0.5844814
            ],
            [
              102.0103521,
              0.5844936
            ],
            [
              102.0103174,
              0.5845115
            ]
          ],
          [
            [
              102.0102687,
              0.5844025
            ],
            [
              102.0102555,
              0.584373
            ],
            [
              102.0102196,
              0.5842928
            ],
            [
              102.0103174,
              0.5845115
            ],
            [
              102.0102687,
              0.5844025
            ]
          ],
          [
            [
              102.0085974,
              0.5846683
            ],
            [
              102.008614,
              0.5846992
            ],
            [
              102.0086803,
              0.5848222
            ],
            [
              102.008549,
              0.5845784
            ],
            [
              102.0085974,
              0.5846683
            ]
          ],
          [
            [
              102.0084352,
              0.5843537
            ],
            [
              102.0084883,
              0.5844585
            ],
            [
              102.008549,
              0.5845784
            ],
            [
              102.0084352,
              0.5843537
            ]
          ],
          [
            [
              102.0104958,
              0.584763
            ],
            [
              102.0105401,
              0.584867
            ],
            [
              102.010429,
              0.5846061
            ],
            [
              102.0104883,
              0.5847454
            ],
            [
              102.0104958,
              0.584763
            ]
          ],
          [
            [
              102.0121494,
              0.5839888
            ],
            [
              102.0121364,
              0.5839715
            ],
            [
              102.0121257,
              0.5839572
            ],
            [
              102.0121494,
              0.5839888
            ]
          ]
        ]
      }
    },
    {
      "type": "Feature",
      "properties": {
        "blockId": "DAYUN-BLOCK-E",
        "name": "Blok E",
        "blockCode": "E",
        "areaHa": 4.4137,
        "sourceFeatureCount": 23,
        "plantingFeatureCount": 10,
        "color": "#d97706",
        "source": "SHP file Agro Mandiri Sejahtera.rar",
        "sourceCrs": "WGS 84 / UTM zone 48N (EPSG:32648)"
      },
      "geometry": {
        "type": "Polygon",
        "coordinates": [
          [
            [
              102.0101866,
              0.5852042
            ],
            [
              102.0094484,
              0.5856484
            ],
            [
              102.0092218,
              0.5857956
            ],
            [
              102.0092218,
              0.5857956
            ],
            [
              102.0091321,
              0.585851
            ],
            [
              102.0093281,
              0.5862213
            ],
            [
              102.0095176,
              0.5866274
            ],
            [
              102.0096522,
              0.5867455
            ],
            [
              102.0096997,
              0.5867147
            ],
            [
              102.0097912,
              0.586654
            ],
            [
              102.0100335,
              0.5864821
            ],
            [
              102.0105822,
              0.5861467
            ],
            [
              102.0108459,
              0.5859805
            ],
            [
              102.0109639,
              0.5859083
            ],
            [
              102.0109823,
              0.5858963
            ],
            [
              102.0109823,
              0.5858963
            ],
            [
              102.011222,
              0.5857413
            ],
            [
              102.0120819,
              0.5852015
            ],
            [
              102.012553,
              0.5849031
            ],
            [
              102.0126149,
              0.5848645
            ],
            [
              102.0123977,
              0.584384
            ],
            [
              102.0122072,
              0.5839782
            ],
            [
              102.0121581,
              0.5840075
            ],
            [
              102.0121139,
              0.5840469
            ],
            [
              102.0119505,
              0.5841501
            ],
            [
              102.0118003,
              0.5842246
            ],
            [
              102.0115761,
              0.5843583
            ],
            [
              102.0110858,
              0.5846545
            ],
            [
              102.0105794,
              0.5849591
            ],
            [
              102.010559,
              0.5849714
            ],
            [
              102.0101866,
              0.5852042
            ]
          ],
          [
            [
              102.0109562,
              0.5858904
            ],
            [
              102.010878,
              0.585709
            ],
            [
              102.0108648,
              0.5856784
            ],
            [
              102.0107792,
              0.5854799
            ],
            [
              102.0107723,
              0.585464
            ],
            [
              102.0107567,
              0.5854278
            ],
            [
              102.0109639,
              0.5859083
            ],
            [
              102.0109562,
              0.5858904
            ]
          ],
          [
            [
              102.0125446,
              0.5848844
            ],
            [
              102.0125216,
              0.5848327
            ],
            [
              102.012553,
              0.5849031
            ],
            [
              102.0125446,
              0.5848844
            ]
          ],
          [
            [
              102.0106769,
              0.5852436
            ],
            [
              102.0106591,
              0.5852025
            ],
            [
              102.0106458,
              0.5851717
            ],
            [
              102.010559,
              0.5849714
            ],
            [
              102.0106769,
              0.5852436
            ]
          ],
          [
            [
              102.0093359,
              0.5860168
            ],
            [
              102.0094262,
              0.5862104
            ],
            [
              102.0092768,
              0.58589
            ],
            [
              102.0093213,
              0.5859853
            ],
            [
              102.0093359,
              0.5860168
            ]
          ],
          [
            [
              102.0094332,
              0.586224
            ],
            [
              102.0094671,
              0.58629
            ],
            [
              102.0094759,
              0.5863071
            ],
            [
              102.0095353,
              0.5864227
            ],
            [
              102.0094262,
              0.5862104
            ],
            [
              102.0094332,
              0.586224
            ]
          ],
          [
            [
              102.0095887,
              0.5865265
            ],
            [
              102.009597,
              0.5865428
            ],
            [
              102.0095866,
              0.5865224
            ],
            [
              102.0095887,
              0.5865265
            ]
          ],
          [
            [
              102.012345,
              0.5844359
            ],
            [
              102.0123401,
              0.5844249
            ],
            [
              102.0123483,
              0.5844434
            ],
            [
              102.012345,
              0.5844359
            ]
          ]
        ]
      }
    },
    {
      "type": "Feature",
      "properties": {
        "blockId": "DAYUN-BLOCK-F",
        "name": "Blok F",
        "blockCode": "F",
        "areaHa": 5.2103,
        "sourceFeatureCount": 29,
        "plantingFeatureCount": 13,
        "color": "#dc2626",
        "source": "SHP file Agro Mandiri Sejahtera.rar",
        "sourceCrs": "WGS 84 / UTM zone 48N (EPSG:32648)"
      },
      "geometry": {
        "type": "Polygon",
        "coordinates": [
          [
            [
              102.0097912,
              0.586654
            ],
            [
              102.0096997,
              0.5867147
            ],
            [
              102.0096522,
              0.5867455
            ],
            [
              102.009736,
              0.586819
            ],
            [
              102.0096622,
              0.5869374
            ],
            [
              102.0097636,
              0.5871546
            ],
            [
              102.009838,
              0.587125
            ],
            [
              102.009961,
              0.587286
            ],
            [
              102.009907,
              0.587339
            ],
            [
              102.010079,
              0.587672
            ],
            [
              102.010224,
              0.587752
            ],
            [
              102.0102362,
              0.5877583
            ],
            [
              102.010328,
              0.587805
            ],
            [
              102.0104377,
              0.58773
            ],
            [
              102.0114577,
              0.5870323
            ],
            [
              102.0114772,
              0.587019
            ],
            [
              102.012401,
              0.586387
            ],
            [
              102.01241,
              0.586382
            ],
            [
              102.012415,
              0.586379
            ],
            [
              102.012793,
              0.5861177
            ],
            [
              102.0130182,
              0.5859621
            ],
            [
              102.0130397,
              0.5859472
            ],
            [
              102.01304,
              0.585947
            ],
            [
              102.0130922,
              0.585916
            ],
            [
              102.0130521,
              0.5858284
            ],
            [
              102.0129468,
              0.5855985
            ],
            [
              102.0129467,
              0.5855982
            ],
            [
              102.0126149,
              0.5848645
            ],
            [
              102.012553,
              0.5849031
            ],
            [
              102.0120819,
              0.5852015
            ],
            [
              102.011222,
              0.5857413
            ],
            [
              102.0109823,
              0.5858963
            ],
            [
              102.0109823,
              0.5858963
            ],
            [
              102.0109639,
              0.5859083
            ],
            [
              102.0108459,
              0.5859805
            ],
            [
              102.0105822,
              0.5861467
            ],
            [
              102.0100335,
              0.5864821
            ],
            [
              102.0097912,
              0.586654
            ]
          ],
          [
            [
              102.0112649,
              0.5865393
            ],
            [
              102.0113288,
              0.5866836
            ],
            [
              102.0113407,
              0.5867105
            ],
            [
              102.011373,
              0.5867836
            ],
            [
              102.0113864,
              0.586814
            ],
            [
              102.0114772,
              0.587019
            ],
            [
              102.0112649,
              0.5865393
            ]
          ],
          [
            [
              102.0110192,
              0.5860364
            ],
            [
              102.0110185,
              0.5860348
            ],
            [
              102.0109639,
              0.5859083
            ],
            [
              102.0110192,
              0.5860364
            ]
          ],
          [
            [
              102.0102811,
              0.5876738
            ],
            [
              102.0102948,
              0.5876798
            ],
            [
              102.0103136,
              0.5876882
            ],
            [
              102.0102811,
              0.5876738
            ]
          ],
          [
            [
              102.0110498,
              0.5860533
            ],
            [
              102.0111,
              0.5861666
            ],
            [
              102.0111131,
              0.5861963
            ],
            [
              102.0111908,
              0.5863718
            ],
            [
              102.0112054,
              0.5864049
            ],
            [
              102.011252,
              0.58651
            ],
            [
              102.0112581,
              0.5865239
            ],
            [
              102.0110498,
              0.5860533
            ]
          ],
          [
            [
              102.011024,
              0.5859931
            ],
            [
              102.0110347,
              0.586018
            ],
            [
              102.0110387,
              0.5860274
            ],
            [
              102.011024,
              0.5859931
            ]
          ],
          [
            [
              102.0097626,
              0.5868554
            ],
            [
              102.0098105,
              0.5869875
            ],
            [
              102.0097299,
              0.5867652
            ],
            [
              102.0097555,
              0.5868358
            ],
            [
              102.0097626,
              0.5868554
            ]
          ],
          [
            [
              102.0098335,
              0.5870244
            ],
            [
              102.0098864,
              0.5871095
            ],
            [
              102.0098105,
              0.5869875
            ],
            [
              102.0098335,
              0.5870244
            ]
          ],
          [
            [
              102.009943,
              0.5871755
            ],
            [
              102.0099743,
              0.5872121
            ],
            [
              102.0099909,
              0.5872315
            ],
            [
              102.0098864,
              0.5871095
            ],
            [
              102.009943,
              0.5871755
            ]
          ],
          [
            [
              102.0100364,
              0.5873529
            ],
            [
              102.0100403,
              0.5873632
            ],
            [
              102.0100573,
              0.5874084
            ],
            [
              102.0099909,
              0.5872315
            ],
            [
              102.0100364,
              0.5873529
            ]
          ],
          [
            [
              102.0100846,
              0.5874773
            ],
            [
              102.0100973,
              0.5875092
            ],
            [
              102.0101142,
              0.5875518
            ],
            [
              102.0100573,
              0.5874084
            ],
            [
              102.0100846,
              0.5874773
            ]
          ],
          [
            [
              102.0113082,
              0.5866971
            ],
            [
              102.0112376,
              0.5865388
            ],
            [
              102.0112373,
              0.5865381
            ],
            [
              102.0113121,
              0.5867058
            ],
            [
              102.0113082,
              0.5866971
            ]
          ],
          [
            [
              102.0113467,
              0.5867833
            ],
            [
              102.0113542,
              0.5868002
            ],
            [
              102.0113533,
              0.5867981
            ],
            [
              102.0113467,
              0.5867833
            ]
          ],
          [
            [
              102.012684,
              0.5852001
            ],
            [
              102.0126808,
              0.5851928
            ],
            [
              102.0127775,
              0.585412
            ],
            [
              102.0127625,
              0.5853781
            ],
            [
              102.0127524,
              0.5853551
            ],
            [
              102.012684,
              0.5852001
            ]
          ],
          [
            [
              102.0128334,
              0.5855755
            ],
            [
              102.0127945,
              0.5854619
            ],
            [
              102.0127923,
              0.5854553
            ],
            [
              102.0128334,
              0.5855755
            ]
          ]
        ]
      }
    }
  ]
}
