{"type":"FeatureCollection","name":"desa_intervensi","features":[{"type":"Feature","properties":{"NAMA_PROP":"RIAU","NAMOBJ":"Temiang","REMARK":null,"UUPP":"Hasil Delineasi Tahun 2018","SRS_ID":"SRGI 2013","WADMKD":"Temiang","WADMKC":"Bandar Laksamana","WIADKC":null,"WADMKK":"Bengkalis","WIADKK":"Bengkalis","WADMPR":"Riau","Intervention_Source_Name":"Temiang","Intervention_Aliases":[]},"geometry":{"type":"Polygon","coordinates":[[[101.9684901452001,1.4653937202200193],[101.96799014520009,1.4622937202200177],[101.9642901452001,1.4627937202200183],[101.96029014520009,1.463993720220019],[101.95759014520009,1.4642937202200184],[101.95419014520009,1.4634937202200184],[101.95079014520009,1.463293720220019],[101.94869014520009,1.4638937202200193],[101.9483901452001,1.466293720220019],[101.94599014520008,1.4683937202200177],[101.94249014520008,1.4688937202200183],[101.93969014520009,1.4686937202200188],[101.93699014520008,1.468293720220018],[101.93419014520009,1.4673937202200182],[101.93199014520009,1.4660937202200177],[101.93199014520009,1.4625937202200188],[101.93199014520009,1.4589937202200183],[101.93099014520008,1.4550937202200185],[101.93189014520009,1.4515937202200178],[101.93289014520009,1.4481937202200186],[101.93209014520009,1.4443937202200186],[101.93209014520009,1.4408937202200178],[101.93029014520009,1.4376937202200182],[101.92859014520009,1.4343937202200188],[101.92689014520009,1.432393720220018],[101.9252901452001,1.4299937202200184],[101.92359014520008,1.427093720220018],[101.92429014520009,1.4248937202200178],[101.9252901452001,1.4223937202200183],[101.92589014520009,1.419493720220018],[101.92299014520009,1.416793720220019],[101.9209901452001,1.414893720220018],[101.91859014520008,1.4116937202200184],[101.91689014520009,1.410293720220018],[101.9154901452001,1.4092937202200186],[101.91319014520009,1.4079937202200181],[101.91059014520009,1.407293720220018],[101.90849014520009,1.406093720220019],[101.90679014520009,1.4036937202200193],[101.90639014520009,1.4002937202200183],[101.9059901452001,1.3981937202200179],[101.9038901452001,1.3967937202200194],[101.9012901452001,1.396193720220019],[101.89909014520009,1.395893720220018],[101.89509014520009,1.397393720220018],[101.89109014520008,1.3963937202200185],[101.89009014520009,1.3916937202200188],[101.88749014520009,1.3891937202200193],[101.88329014520009,1.390093720220019],[101.8798901452001,1.388593720220019],[101.87619014520008,1.3899937202200192],[101.87429014520009,1.392393720220019],[101.87119014520009,1.3932937202200186],[101.86819014520009,1.3925937202200185],[101.86569014520009,1.3922937202200192],[101.86259014520009,1.3921937202200176],[101.85829014520009,1.3913937202200177],[101.85489014520009,1.3901937202200187],[101.85259014520008,1.3864937202200185],[101.85099014520009,1.3827937202200182],[101.84739014520008,1.3804937202200183],[101.8426901452001,1.379393720220019],[101.83869014520009,1.3795937202200186],[101.83559014520009,1.3807937202200193],[101.8327901452001,1.382093720220018],[101.82979014520009,1.381693720220019],[101.8272901452001,1.3800937202200192],[101.82459014520009,1.377093720220019],[101.82279014520009,1.3749937202200186],[101.82259014520008,1.3726937202200187],[101.82359014520009,1.3701937202200192],[101.82629014520009,1.3682937202200183],[101.8306901452001,1.3674937202200184],[101.83199014520008,1.365393720220018],[101.83219014520009,1.3624937202200194],[101.83139014520009,1.3583937202200183],[101.82969014520009,1.3547937202200178],[101.82629014520009,1.3539937202200178],[101.82329014520009,1.3539937202200178],[101.81939014520009,1.355493720220018],[101.81669014520008,1.358493720220018],[101.81609014520009,1.361093720220019],[101.81639014520009,1.3638937202200179],[101.81319014520008,1.3663937202200191],[101.81009014520009,1.3662937202200194],[101.8075901452001,1.3647937202200193],[101.80719014520008,1.3620937202200185],[101.80809014520008,1.358793720220019],[101.80519014520009,1.3562937202200178],[101.80179014520009,1.3560937202200183],[101.79969014520009,1.358093720220019],[101.79799014520009,1.3609937202200193],[101.7942901452001,1.3617937202200192],[101.79069014520009,1.361093720220019],[101.78819014520009,1.3591937202200182],[101.78859014520009,1.356193720220018],[101.79169014520009,1.3515937202200181],[101.79249014520009,1.3480937202200192],[101.78979014520009,1.3457937202200192],[101.7869901452001,1.3440937202200178],[101.78599014520009,1.3408937202200182],[101.7887901452001,1.338293720220019],[101.79209014520009,1.3379937202200178],[101.79479014520008,1.335993720220019],[101.79589014520009,1.3330937202200186],[101.79479014520008,1.3306937202200189],[101.79249014520009,1.3293937202200183],[101.7899901452001,1.3284937202200187],[101.78689014520009,1.3274937202200192],[101.78459014520008,1.324993720220018],[101.78489014520008,1.3220937202200194],[101.78539014520008,1.319193720220019],[101.78649014520009,1.3158937202200178],[101.78899014520009,1.314293720220018],[101.79149014520009,1.312793720220018],[101.7925901452001,1.3095937202200183],[101.78979014520009,1.3064937202200184],[101.7869901452001,1.303593720220018],[101.78469014520009,1.301293720220018],[101.78269014520009,1.3003937202200184],[101.7805901452001,1.298293720220018],[101.77599014520008,1.2968937202200177],[101.74289014520009,1.296793720220018],[101.68709014520009,1.296793720220018],[101.6418901452001,1.2966937202200182],[101.66489014520009,1.3112937202200179],[101.72039014520008,1.346593720220019],[101.78129014520009,1.3853937202200193],[101.82789014520009,1.4149937202200178],[101.89719014520008,1.459093720220018],[101.92139014520009,1.474393720220018],[101.94689014520009,1.4897937202200193],[101.95039014520009,1.4841937202200182],[101.95259014520009,1.4814937202200191],[101.95539014520008,1.4778937202200186],[101.95789014520008,1.4760937202200193],[101.95979014520009,1.474693720220019],[101.96689014520008,1.467793720220019],[101.9684901452001,1.4653937202200193]]]}},{"type":"Feature","properties":{"NAMA_PROP":"RIAU","NAMOBJ":"Sepahat","REMARK":null,"UUPP":"Hasil Delineasi Tahun 2018","SRS_ID":"SRGI 2013","WADMKD":"Sepahat","WADMKC":"Bandar Laksamana","WIADKC":null,"WADMKK":"Bengkalis","WIADKK":"Bengkalis","WADMPR":"Riau","Intervention_Source_Name":"Sepahat","Intervention_Aliases":[]},"geometry":{"type":"Polygon","coordinates":[[[101.89539014520008,1.5471937202200188],[101.8948901452001,1.5454937202200192],[101.89199014520008,1.5438937202200194],[101.84379014520009,1.515893720220019],[101.7274901452001,1.4485937202200176],[101.7274901452001,1.4607937202200176],[101.72739014520009,1.4779937202200184],[101.7279901452001,1.496493720220018],[101.72869014520009,1.4988937202200177],[101.72869014520009,1.516593720220019],[101.72869014520009,1.5372937202200188],[101.7287901452001,1.5509937202200188],[101.7287901452001,1.574993720220018],[101.7287901452001,1.5873937202200192],[101.75519014520009,1.6015937202200181],[101.75999014520009,1.6067937202200184],[101.7655901452001,1.6129937202200182],[101.76929014520009,1.6170937202200193],[101.77369014520009,1.6219937202200185],[101.77689014520008,1.6254937202200193],[101.78089014520009,1.630593720220018],[101.78419014520009,1.6355937202200188],[101.7865901452001,1.638593720220019],[101.78909014520009,1.6352937202200177],[101.79199014520009,1.6346937202200191],[101.79459014520009,1.6325937202200187],[101.79779014520008,1.6300937202200192],[101.80059014520009,1.6274937202200181],[101.80359014520009,1.624793720220019],[101.80659014520009,1.6218937202200188],[101.80879014520009,1.6190937202200182],[101.81059014520008,1.616893720220018],[101.81259014520009,1.6151937202200184],[101.8152901452001,1.6125937202200191],[101.8152901452001,1.6102937202200192],[101.81759014520009,1.6097937202200185],[101.8195901452001,1.607693720220018],[101.82149014520009,1.6056937202200192],[101.82369014520009,1.6033937202200192],[101.82589014520009,1.6012937202200188],[101.82799014520009,1.5992937202200181],[101.82999014520009,1.5974937202200188],[101.83219014520009,1.5953937202200184],[101.83459014520008,1.593293720220018],[101.8370901452001,1.5910937202200177],[101.83939014520008,1.5888937202200193],[101.8417901452001,1.5869937202200184],[101.84409014520008,1.5849937202200177],[101.84629014520009,1.5831937202200184],[101.8477901452001,1.5818937202200178],[101.85099014520009,1.5800937202200185],[101.8529901452001,1.5774937202200192],[101.8554901452001,1.5755937202200183],[101.85869014520009,1.574193720220018],[101.86099014520009,1.571893720220018],[101.86379014520008,1.5702937202200182],[101.86549014520008,1.5685937202200186],[101.86779014520009,1.5673937202200179],[101.86949014520009,1.565093720220018],[101.8721901452001,1.5629937202200193],[101.87489014520008,1.560493720220018],[101.87839014520009,1.5588937202200182],[101.88169014520008,1.5567937202200177],[101.88479014520009,1.5549937202200184],[101.88819014520008,1.5515937202200192],[101.89239014520008,1.5488937202200184],[101.89539014520008,1.5471937202200188]]]}},{"type":"Feature","properties":{"NAMA_PROP":"RIAU","NAMOBJ":"Pedekik","REMARK":null,"UUPP":"Hasil Delineasi Tahun 2018","SRS_ID":"SRGI 2013","WADMKD":"Pedekik","WADMKC":"Bengkalis","WIADKC":null,"WADMKK":"Bengkalis","WIADKK":"Bengkalis","WADMPR":"Riau","Intervention_Source_Name":"Pedekik","Intervention_Aliases":[]},"geometry":{"type":"Polygon","coordinates":[[[102.10449014520009,1.484593720220019],[102.10189014520009,1.4871937202200183],[102.09919014520008,1.487693720220019],[102.09089014520009,1.4920937202200193],[102.08489014520009,1.4908937202200185],[102.08479014520009,1.494893720220018],[102.08649014520009,1.4981937202200193],[102.08789014520009,1.5012937202200192],[102.08899014520009,1.5031937202200183],[102.08959014520009,1.5114937202200185],[102.09129014520009,1.5205937202200186],[102.09459014520009,1.523093720220018],[102.09659014520008,1.525793720220019],[102.11039014520009,1.547893720220019],[102.13229014520009,1.5734937202200179],[102.13229014520009,1.5411937202200185],[102.11959014520009,1.521193720220019],[102.11339014520009,1.5079937202200178],[102.10969014520009,1.500293720220018],[102.1097901452001,1.4972937202200178],[102.10999014520009,1.4940937202200182],[102.10449014520009,1.484593720220019]]]}},{"type":"Feature","properties":{"NAMA_PROP":"RIAU","NAMOBJ":"Pematang Duku","REMARK":null,"UUPP":"Hasil Delineasi Tahun 2018","SRS_ID":"SRGI 2013","WADMKD":"Pematang Duku","WADMKC":"Bengkalis","WIADKC":null,"WADMKK":"Bengkalis","WIADKK":"Bengkalis","WADMPR":"Riau","Intervention_Source_Name":"Pematang Duku","Intervention_Aliases":[]},"geometry":{"type":"Polygon","coordinates":[[[102.33699014520009,1.4819937202200226],[102.34309014520008,1.4816937202200333],[102.34549014520009,1.4809937202200139],[102.34279014520008,1.4759937202200437],[102.33449014520009,1.4596937202200462],[102.3345901452001,1.4576937202200202],[102.33819014520009,1.4540937202200377],[102.3277901452001,1.4463937202200028],[102.32689014520008,1.4427937202200405],[102.33249014520008,1.4382937202200325],[102.32909014520008,1.4353937202200189],[102.32449014520009,1.4312937202200136],[102.3233901452001,1.4250937202200156],[102.31909014520011,1.424293720220014],[102.31589014520009,1.4230937202200193],[102.3135901452001,1.421093720220041],[102.3105901452001,1.4184937202200183],[102.3091901452001,1.4149937202200213],[102.30619014520009,1.417193720220034],[102.30359014520009,1.4201937202200297],[102.3017901452001,1.4221937202200476],[102.29999014520008,1.424393720220038],[102.29799014520009,1.4265937202200192],[102.29509014520009,1.4279937202200121],[102.29437924767097,1.4286723039097766],[102.29413766800008,1.428762896000022],[102.29371139200005,1.4289227500000492],[102.29359736986139,1.4290438983135612],[102.2934272080001,1.4292246950000764],[102.29317854700008,1.4292602180000369],[102.29310750100007,1.4293845490000268],[102.29307197800011,1.4295266410000758],[102.29305013700008,1.4295345830000223],[102.29291927000011,1.4295821710000542],[102.29285884000008,1.4295444020000432],[102.29308684154307,1.4299059645026684],[102.29289014520009,1.430093720220021],[102.2945901452001,1.4332937202199976],[102.2983901452001,1.4457937202200382],[102.29929014520009,1.448893720220011],[102.3004901452001,1.4532937202200198],[102.30149014520009,1.4598937202200328],[102.3049901452001,1.47989372022002],[102.31609014520008,1.482193720220005],[102.3252901452001,1.4819937202200142],[102.32909014520008,1.4820937202200104],[102.3338901452001,1.4821937202200304],[102.33699014520009,1.4819937202200226]]]}},{"type":"Feature","properties":{"NAMA_PROP":"RIAU","NAMOBJ":"Buruk Bakul","REMARK":null,"UUPP":"Hasil Delineasi Tahun 2018","SRS_ID":"SRGI 2013","WADMKD":"Buruk Bakul","WADMKC":"Bukit Batu","WIADKC":null,"WADMKK":"Bengkalis","WIADKK":"Bengkalis","WADMPR":"Riau","Intervention_Source_Name":"Buruk Bakul","Intervention_Aliases":[]},"geometry":{"type":"Polygon","coordinates":[[[102.08349014520009,1.406493720220018],[102.08189014520009,1.4046937202200187],[102.08099014520009,1.4025937202200183],[102.07929014520009,1.3994937202200184],[102.07759014520009,1.3945937202200192],[102.07629014520009,1.3902937202200185],[102.07369014520009,1.3840937202200188],[102.0656901452001,1.3699937202200179],[102.0601901452001,1.3594937202200192],[102.0515901452001,1.3594937202200192],[102.04979014520009,1.3601937202200194],[102.03899014520009,1.3602937202200192],[102.03199014520008,1.3601937202200194],[102.02609014520009,1.3601937202200194],[102.01999014520008,1.3602937202200192],[102.01129014520009,1.3600937202200178],[102.00389014520009,1.3600937202200178],[101.99159014520009,1.3602937202200192],[101.9856901452001,1.360393720220019],[101.98379014520009,1.360393720220019],[101.98359014520008,1.3700937202200176],[101.98339014520009,1.380193720220019],[101.99359014520009,1.3975937202200193],[102.0078901452001,1.4215937202200184],[102.01459014520009,1.432793720220019],[102.01569014520008,1.434693720220018],[102.0185901452001,1.4362937202200179],[102.02209014520008,1.4379937202200193],[102.02609014520009,1.4396937202200188],[102.03079014520009,1.4428937202200185],[102.03379014520009,1.4423937202200179],[102.03469014520009,1.440093720220018],[102.0395901452001,1.437793720220018],[102.04099014520008,1.4362937202200179],[102.04239014520009,1.4345937202200183],[102.04509014520009,1.432393720220018],[102.04829014520008,1.429693720220019],[102.0506901452001,1.428193720220019],[102.05269014520009,1.4268937202200185],[102.05389014520009,1.4253937202200184],[102.0566901452001,1.4239937202200181],[102.06039014520009,1.4216937202200182],[102.06429014520009,1.4196937202200193],[102.06629014520009,1.4184937202200185],[102.0690901452001,1.4166937202200192],[102.07229014520009,1.4141937202200179],[102.0750901452001,1.411893720220018],[102.0789901452001,1.4097937202200193],[102.08189014520009,1.4079937202200181],[102.08349014520009,1.406493720220018]]]}},{"type":"Feature","properties":{"NAMA_PROP":"RIAU","NAMOBJ":"Simpang Ayam","REMARK":null,"UUPP":"Hasil Delineasi Tahun 2018","SRS_ID":"SRGI 2013","WADMKD":"Simpang Ayam","WADMKC":"Bengkalis","WIADKC":null,"WADMKK":"Bengkalis","WIADKK":"Bengkalis","WADMPR":"Riau","Intervention_Source_Name":"Simpang Ayam","Intervention_Aliases":[]},"geometry":{"type":"Polygon","coordinates":[[[102.07019014520009,1.6028937202200186],[102.06499014520008,1.5876937202200185],[102.05909014520009,1.5818937202200178],[102.04849014520009,1.572993720220019],[102.0446901452001,1.5701937202200185],[102.04139014520008,1.5715937202200188],[102.03409014520008,1.5684937202200189],[102.03199014520008,1.5682937202200193],[102.0241901452001,1.574193720220018],[102.02309014520009,1.5782937202200191],[102.0224901452001,1.580593720220019],[102.00999014520009,1.601993720220019],[102.01329014520009,1.603493720220019],[102.01669014520009,1.6037937202200183],[102.0198901452001,1.604293720220019],[102.02339014520008,1.6056937202200192],[102.02739014520009,1.6062937202200178],[102.03079014520009,1.6066937202200187],[102.03349014520009,1.606993720220018],[102.03749014520008,1.6068937202200182],[102.04019014520009,1.606993720220018],[102.0429901452001,1.6068937202200182],[102.04579014520009,1.606593720220019],[102.0481901452001,1.606193720220018],[102.05099014520009,1.6056937202200192],[102.05389014520009,1.6052937202200184],[102.05609014520009,1.6051937202200186],[102.05809014520008,1.6051937202200186],[102.05989014520009,1.6048937202200193],[102.06199014520008,1.6044937202200185],[102.06509014520009,1.6040937202200194],[102.07019014520009,1.6028937202200186]]]}},{"type":"Feature","properties":{"NAMA_PROP":"RIAU","NAMOBJ":"Kelapa Pati","REMARK":null,"UUPP":"Hasil Delineasi Tahun 2018","SRS_ID":"SRGI 2013","WADMKD":"Kelapa Pati","WADMKC":"Bengkalis","WIADKC":null,"WADMKK":"Bengkalis","WIADKK":"Bengkalis","WADMPR":"Riau","Intervention_Source_Name":"Kelapapati","Intervention_Aliases":[]},"geometry":{"type":"Polygon","coordinates":[[[102.10449014520009,1.484593720220019],[102.10819014520008,1.4818937202200182],[102.10609014520008,1.478193720220018],[102.10449014520009,1.476193720220019],[102.10289014520009,1.4736937202200178],[102.10169014520008,1.472093720220018],[102.09939014520009,1.472793720220018],[102.09709014520008,1.4740937202200186],[102.09419014520009,1.475893720220018],[102.09149014520008,1.477693720220019],[102.08939014520008,1.4790937202200194],[102.08769014520009,1.480493720220018],[102.0857901452001,1.4821937202200193],[102.08359014520009,1.4838937202200189],[102.08129014520009,1.485393720220019],[102.07989014520008,1.4874937202200194],[102.0815901452001,1.4894937202200182],[102.08489014520009,1.4908937202200185],[102.09089014520009,1.4920937202200193],[102.09919014520008,1.487693720220019],[102.10189014520009,1.4871937202200183],[102.10449014520009,1.484593720220019]]]}},{"type":"Feature","properties":{"NAMA_PROP":"RIAU","NAMOBJ":"Penampi","REMARK":null,"UUPP":"Hasil Delineasi Tahun 2018","SRS_ID":"SRGI 2013","WADMKD":"Penampi","WADMKC":"Bengkalis","WIADKC":null,"WADMKK":"Bengkalis","WIADKK":"Bengkalis","WADMPR":"Riau","Intervention_Source_Name":"Penampi","Intervention_Aliases":[]},"geometry":{"type":"Polygon","coordinates":[[[102.18619014520009,1.4458937202200235],[102.18619014520011,1.4421937202201085],[102.18734552375402,1.4382539323474899],[102.18699822320906,1.4371539968730613],[102.18692037700015,1.437208489000098],[102.18660067000008,1.437101920000113],[102.18603230200013,1.4371019200000963],[102.18537512600012,1.43724401200015],[102.1837854720002,1.4375726000001223],[102.18348352700013,1.437679169000146],[102.18279082800014,1.4378745450002115],[102.18245336000012,1.4379100680001715],[102.18202708400021,1.4380876830000506],[102.18179618400006,1.438194252000094],[102.181547523,1.438194252000072],[102.18112124700008,1.4382652980001105],[102.18067721000006,1.4384073900001193],[102.18019764900009,1.4386027670000396],[102.17996675000006,1.438620528000166],[102.1794871890001,1.4387093360000425],[102.1790431520002,1.4387448590000453],[102.17842149900021,1.4390468040001412],[102.17762223200003,1.4392066580001641],[102.17624571600005,1.4397128610000542],[102.1760681010002,1.4398016680002155],[102.1756773480001,1.4398904760000821],[102.17521554900014,1.4399082370000706],[102.17489584200008,1.440032568000114],[102.17464718100018,1.4401746600001446],[102.17432747400011,1.4402989900001537],[102.1739367210002,1.4403522750001834],[102.17345716000005,1.4404766050002018],[102.17303088400013,1.4406542200000798],[102.17262237000007,1.440796312000099],[102.17228490100013,1.4410449730001424],[102.1722493780001,1.4409028810001299],[102.17196832800018,1.440945465000095],[102.17166324900002,1.4409916890001562],[102.17145011100018,1.4410094500001502],[102.17107711900003,1.4410094500001411],[102.1707751740002,1.4411515420001693],[102.17061532000008,1.441204827000217],[102.17022456699999,1.4412581109999751],[102.17004695200012,1.4414002030000206],[102.16858162900014,1.44171102900017],[102.16826192200007,1.4418175980001924],[102.16790669200014,1.441924167000027],[102.16762250800008,1.4419596900000444],[102.16744489300004,1.4421550670001533],[102.16719623199998,1.4422261130001748],[102.16696533200007,1.4421550670001517],[102.16653905600015,1.4421728280001096],[102.16621934900007,1.442226113000169],[102.16586411899999,1.4423326819999864],[102.16543784300008,1.4423682049999795],[102.16502932900006,1.4425458200000396],[102.16451424500002,1.442599104000199],[102.16428646100002,1.4427509600001385],[102.16424782300004,1.4427767190000726],[102.16449014520016,1.448893720220067],[102.16739014520009,1.4510937202200238],[102.17159014520008,1.452993720220041],[102.17499014520008,1.458793720220018],[102.18319014520009,1.471993720220023],[102.1860901452001,1.4770937202200207],[102.18789014520009,1.4799937202200204],[102.19389014520009,1.49349372022002],[102.19739014520009,1.4909937202200025],[102.1932901452001,1.476293720220025],[102.19179014520009,1.4707937202200436],[102.1902901452001,1.466293720220017],[102.1883901452001,1.461893720220031],[102.18679014520009,1.4598937202200004],[102.18699014520008,1.4538937202200175],[102.1867901452001,1.4501937202200332],[102.18619014520009,1.4458937202200235]]]}},{"type":"Feature","properties":{"NAMA_PROP":"RIAU","NAMOBJ":"Tanjung Kuras","REMARK":null,"UUPP":"Hasil Delineasi Tahun 2018","SRS_ID":"SRGI 2013","WADMKD":"Tanjung Kuras","WADMKC":"Sungai Apit","WIADKC":"Sungai Apit","WADMKK":"Siak","WIADKK":"Siak","WADMPR":"Riau","Intervention_Source_Name":"Tanjung Kuras","Intervention_Aliases":[]},"geometry":{"type":"Polygon","coordinates":[[[102.17389014520009,1.227693720220019],[102.17849014520009,1.220893720220019],[102.18149014520009,1.2152937202200178],[102.18459014520009,1.2056937202200189],[102.1868901452001,1.1986937202200192],[102.18799014520009,1.1908937202200178],[102.18949014520008,1.1797937202200188],[102.19049014520009,1.1730937202200185],[102.19109014520009,1.1684937202200185],[102.19259014520009,1.1574937202200193],[102.19329014520008,1.1500937202200188],[102.18119014520009,1.1487937202200182],[102.17079014520009,1.1478937202200186],[102.16769014520008,1.148493720220019],[102.16449014520009,1.1509937202200184],[102.15939014520009,1.151493720220019],[102.1568901452001,1.1551937202200193],[102.15569014520008,1.1582937202200192],[102.15379014520009,1.163393720220018],[102.15439014520008,1.166793720220019],[102.15639014520009,1.1710937202200178],[102.16399014520009,1.1752937202200187],[102.16739014520009,1.1774937202200189],[102.1688901452001,1.1802937202200177],[102.16859014520008,1.1843937202200188],[102.16739014520009,1.1881937202200188],[102.16509014520008,1.1913937202200184],[102.16339014520008,1.1959937202200184],[102.16399014520009,1.2005937202200183],[102.16529014520009,1.2023937202200177],[102.16599014520008,1.2046937202200176],[102.16699014520009,1.2081937202200184],[102.16839014520009,1.211393720220018],[102.16859014520008,1.213993720220019],[102.16869014520009,1.216693720220018],[102.16839014520009,1.2194937202200187],[102.16839014520009,1.2237937202200193],[102.16849014520008,1.2280937202200182],[102.17389014520009,1.227693720220019]]]}},{"type":"Feature","properties":{"NAMA_PROP":"RIAU","NAMOBJ":"Pencing Bekuto","REMARK":null,"UUPP":"Hasil Delineasi Tahun 2018","SRS_ID":"SRGI 2013","WADMKD":"Pencing Bekuto","WADMKC":"Kandis","WIADKC":"Kandis","WADMKK":"Siak","WIADKK":"Siak","WADMPR":"Riau","Intervention_Source_Name":"Pencing Bekuto","Intervention_Aliases":["Pencing Bekulo"]},"geometry":{"type":"Polygon","coordinates":[[[101.41749014520009,1.0221937202200184],[101.41919014520009,1.018893720220019],[101.42179014520009,1.014793720220018],[101.42639014520009,1.0141937202200193],[101.43009014520008,1.015493720220018],[101.43229014520008,1.0161937202200182],[101.43499014520009,1.014793720220018],[101.43709014520009,1.0113937202200187],[101.43839014520009,1.008993720220019],[101.44149014520009,1.0067937202200188],[101.44519014520009,1.0060937202200186],[101.44809014520008,1.0062937202200182],[101.45079014520009,1.0062937202200182],[101.4539901452001,1.0050937202200192],[101.45599014520009,1.0034937202200194],[101.45809014520009,0.9997937202200191],[101.45799014520009,0.9964937202200179],[101.4573901452001,0.9938937202200187],[101.45679014520009,0.9910937202200181],[101.45589014520009,0.9884937202200188],[101.4530901452001,0.9896937202200178],[101.44929014520008,0.9896937202200178],[101.4453901452001,0.9878937202200184],[101.4428901452001,0.9869937202200187],[101.43979014520009,0.9865937202200179],[101.43699014520008,0.9846937202200188],[101.43399014520008,0.9825937202200183],[101.43059014520009,0.9814937202200191],[101.4265901452001,0.9817937202200184],[101.42209014520009,0.9800937202200188],[101.41779014520009,0.9787937202200183],[101.41389014520009,0.9793937202200187],[101.41039014520008,0.9779937202200184],[101.40769014520009,0.9772937202200183],[101.40439014520008,0.9767937202200176],[101.40209014520009,0.9753937202200191],[101.39979014520009,0.9740937202200186],[101.39809014520009,0.9726937202200183],[101.39629014520008,0.971293720220018],[101.39539014520008,0.9686937202200188],[101.3931901452001,0.9646937202200192],[101.39009014520009,0.9612937202200182],[101.38799014520009,0.9589937202200183],[101.3858901452001,0.9564937202200188],[101.38319014520009,0.9530937202200178],[101.38139014520009,0.9511937202200187],[101.37969014520009,0.9497937202200184],[101.37739014520008,0.9477937202200177],[101.37489014520008,0.9458937202200186],[101.36549014520008,0.9492937202200178],[101.3494901452001,0.9494937202200191],[101.32839014520009,0.9492937202200178],[101.32969014520009,0.9606937202200179],[101.33959014520009,0.9597937202200182],[101.34159014520009,0.9640937202200188],[101.35109014520009,0.9876937202200189],[101.36129014520009,0.9999937202200186],[101.36479014520009,1.0085937202200181],[101.36739014520009,1.0130937202200183],[101.37169014520009,1.0219937202200189],[101.37599014520009,1.0244937202200184],[101.37979014520009,1.0232937202200176],[101.38299014520008,1.0228937202200186],[101.38529014520009,1.0224937202200177],[101.3875901452001,1.0217937202200194],[101.3901901452001,1.021193720220019],[101.39309014520009,1.0205937202200186],[101.39669014520008,1.021193720220019],[101.40019014520009,1.0228937202200186],[101.40569014520008,1.0228937202200186],[101.40939014520009,1.0220937202200187],[101.41339014520008,1.022393720220018],[101.41749014520009,1.0221937202200184]]]}},{"type":"Feature","properties":{"NAMA_PROP":"RIAU","NAMOBJ":"Dayun","REMARK":null,"UUPP":"Hasil Delineasi Tahun 2018","SRS_ID":"SRGI 2013","WADMKD":"Dayun","WADMKC":"Siak","WIADKC":null,"WADMKK":"Siak","WIADKK":null,"WADMPR":"Riau","Intervention_Source_Name":"Dayun","Intervention_Aliases":[]},"geometry":{"type":"Polygon","coordinates":[[[102.23979014520009,0.7838937202200178],[102.23929014520009,0.7794937202200192],[102.23859014520009,0.7660937202200184],[102.23829014520008,0.7575937202200187],[102.23789014520008,0.7504937202200193],[102.23729014520009,0.7378937202200184],[102.24139014520009,0.7353937202200189],[102.26499014520009,0.7206937202200177],[102.28559014520009,0.7089937202200183],[102.29309014520008,0.697993720220019],[102.29549014520009,0.6949937202200189],[102.29749014520009,0.6925937202200192],[102.30599014520008,0.6818937202200193],[102.30979014520008,0.677093720220018],[102.32109014520009,0.6630937202200187],[102.32859014520008,0.6536937202200193],[102.33309014520009,0.6480937202200181],[102.33899014520009,0.6407937202200191],[102.34489014520008,0.6333937202200186],[102.35459014520009,0.6213937202200182],[102.36049014520009,0.6137937202200181],[102.36539014520008,0.6073937202200188],[102.36169014520009,0.607293720220019],[102.34939014520009,0.6071937202200193],[102.34519014520009,0.606193720220018],[102.33859014520009,0.6038937202200181],[102.32539014520009,0.5992937202200181],[102.30709014520009,0.5907937202200184],[102.26959014520008,0.5861937202200185],[102.26019014520008,0.5849937202200177],[102.25609014520009,0.5844937202200189],[102.2501901452001,0.5837937202200187],[102.23879014520008,0.582593720220018],[102.22599014520009,0.5812937202200192],[102.1726901452001,0.5759937202200192],[102.16829014520009,0.5755937202200183],[102.16319014520009,0.5750937202200177],[102.1448901452001,0.5731937202200186],[102.13319014520009,0.5720937202200194],[102.09019014520008,0.5677937202200187],[102.05719014520008,0.5644937202200193],[102.04229014520008,0.5629937202200193],[102.02099014520009,0.5608937202200188],[102.01639014520009,0.5603937202200182],[102.00829014520009,0.5595937202200183],[101.97459014520008,0.5561937202200191],[101.97339014520009,0.5501937202200189],[101.95769014520009,0.5418937202200187],[101.93969014520009,0.532293720220018],[101.93229014520008,0.5291937202200181],[101.93009014520008,0.5340937202200191],[101.92989014520009,0.5392937202200176],[101.9299901452001,0.5425937202200188],[101.93199014520009,0.5506937202200177],[101.93189014520009,0.5542937202200182],[101.93009014520008,0.5557937202200183],[101.92739014520009,0.556993720220019],[101.92239014520008,0.5595937202200183],[101.91989014520009,0.5610937202200184],[101.91569014520009,0.5610937202200184],[101.91179014520009,0.5602937202200184],[101.90829014520008,0.5600937202200189],[101.90549014520009,0.5622937202200191],[101.90319014520009,0.5664937202200182],[101.89909014520009,0.5688937202200179],[101.89769014520009,0.5721937202200191],[101.8957901452001,0.5749937202200179],[101.89429014520009,0.5767937202200191],[101.8914901452001,0.5788937202200177],[101.88839014520009,0.5814937202200188],[101.88499014520009,0.5819937202200194],[101.8815901452001,0.5828937202200191],[101.8726901452001,0.5835937202200192],[101.84639014520009,0.5847937202200182],[101.84449014520008,0.5881937202200191],[101.83869014520009,0.588693720220018],[101.83869014520009,0.5939937202200181],[101.83869014520009,0.5965937202200191],[101.8387901452001,0.5988937202200191],[101.83859014520009,0.6009937202200177],[101.8383901452001,0.6074937202200186],[101.8383901452001,0.6126937202200189],[101.84889014520009,0.6135937202200186],[101.86059014520009,0.6121937202200183],[101.86089014520009,0.6082937202200185],[101.86269014520009,0.6048937202200193],[101.86649014520009,0.6049937202200191],[101.8781901452001,0.6033937202200192],[101.88219014520008,0.6033937202200192],[101.8858901452001,0.6038937202200181],[101.89099014520009,0.6043937202200187],[101.89429014520009,0.6044937202200185],[101.89859014520009,0.604693720220018],[101.8991901452001,0.6002937202200194],[101.9000901452001,0.5981937202200189],[101.90249014520009,0.5957937202200192],[101.90639014520009,0.5955937202200179],[101.91139014520009,0.5955937202200179],[101.91179014520009,0.5871937202200179],[101.91209014520008,0.5773937202200177],[101.91679014520008,0.5767937202200191],[101.91779014520009,0.5734937202200179],[101.92249014520009,0.5728937202200193],[101.92239014520008,0.5692937202200188],[101.92959014520008,0.5693937202200186],[101.93369014520009,0.5693937202200186],[101.9325901452001,0.5818937202200178],[101.9325901452001,0.5883937202200187],[101.9325901452001,0.5921937202200187],[101.93229014520008,0.6065937202200189],[101.94039014520008,0.6085937202200178],[101.94419014520008,0.6088937202200189],[101.94429014520009,0.612293720220018],[101.94689014520009,0.6129937202200182],[101.94909014520009,0.6147937202200193],[101.95109014520008,0.6172937202200188],[101.95419014520009,0.6180937202200187],[101.95669014520008,0.6202937202200189],[101.95879014520008,0.6220937202200183],[101.96049014520008,0.6236937202200181],[101.96239014520009,0.625593720220019],[101.9642901452001,0.6283937202200178],[101.96419014520009,0.6357937202200183],[101.96139014520008,0.6364937202200185],[101.95629014520009,0.6364937202200185],[101.95339014520009,0.6382937202200178],[101.96829014520009,0.638993720220018],[101.97429014520009,0.6462937202200187],[101.9740901452001,0.653793720220019],[101.97169014520009,0.6612937202200193],[101.96899014520008,0.664893720220018],[101.96889014520009,0.669493720220018],[101.97139014520009,0.6679937202200179],[101.97679014520008,0.6734937202200193],[101.97849014520008,0.6813937202200187],[101.98099014520008,0.6931937202200178],[101.98099014520008,0.6990937202200183],[101.98109014520008,0.703793720220018],[101.98089014520009,0.706393720220019],[101.97669014520008,0.7064937202200188],[101.97679014520008,0.713693720220018],[101.97979014520008,0.7149937202200185],[101.98029014520009,0.7245937202200192],[101.96689014520008,0.7244937202200177],[101.96369014520009,0.7244937202200177],[101.95679014520009,0.7244937202200177],[101.94919014520009,0.7244937202200177],[101.94519014520009,0.7244937202200177],[101.94299014520008,0.7242937202200181],[101.94309014520009,0.7450937202200176],[101.94689014520009,0.7450937202200176],[101.95479014520009,0.7450937202200176],[101.95749014520008,0.7450937202200176],[101.96319014520009,0.7450937202200176],[101.96719014520009,0.7450937202200176],[101.97219014520009,0.7450937202200176],[101.97779014520009,0.7450937202200176],[101.98169014520009,0.7450937202200176],[101.98699014520008,0.7449937202200179],[101.99599014520008,0.7450937202200176],[102.0001901452001,0.744493720220019],[101.99979014520008,0.7411937202200178],[101.99949014520008,0.7373937202200178],[101.9988901452001,0.7321937202200193],[101.99869014520009,0.7270937202200187],[102.00089014520009,0.7268937202200192],[102.00569014520009,0.7274937202200178],[102.01109014520009,0.7280937202200182],[102.0151901452001,0.7285937202200188],[102.01969014520009,0.7300937202200188],[102.02209014520008,0.7300937202200188],[102.02409014520009,0.7290937202200194],[102.02709014520009,0.7272937202200183],[102.03109014520008,0.7249937202200183],[102.03479014520009,0.7228937202200179],[102.03849014520009,0.7206937202200177],[102.04439014520008,0.7172937202200185],[102.0502901452001,0.7238937202200191],[102.06079014520009,0.7224937202200188],[102.06719014520009,0.7219937202200182],[102.07429014520008,0.7213937202200178],[102.10759014520009,0.720093720220019],[102.11399014520009,0.719793720220018],[102.10769014520008,0.7281937202200179],[102.11459014520008,0.7280937202200182],[102.12289014520009,0.7287937202200183],[102.12639014520009,0.7336937202200193],[102.13089014520008,0.7399937202200189],[102.13509014520008,0.7460937202200189],[102.1375901452001,0.7525937202200179],[102.1397901452001,0.757893720220018],[102.14089014520009,0.7613937202200187],[102.14119014520008,0.7652937202200185],[102.14179014520009,0.7714937202200183],[102.1414901452001,0.7768937202200181],[102.14439014520009,0.7794937202200192],[102.14779014520009,0.7835937202200185],[102.1517901452001,0.7836937202200183],[102.15549014520009,0.7836937202200183],[102.16249014520008,0.7836937202200183],[102.16659014520009,0.7836937202200183],[102.17179014520009,0.7836937202200183],[102.17539014520008,0.7836937202200183],[102.18589014520009,0.7836937202200183],[102.19589014520008,0.7836937202200183],[102.19829014520009,0.783793720220018],[102.2000901452001,0.7819937202200187],[102.2022901452001,0.7797937202200185],[102.20419014520009,0.7785937202200177],[102.2065901452001,0.7775937202200183],[102.20929014520009,0.7755937202200194],[102.21329014520009,0.7753937202200181],[102.21569014520009,0.7758937202200187],[102.21779014520008,0.7770937202200177],[102.2193901452001,0.7795937202200189],[102.22169014520009,0.7807937202200179],[102.22459014520008,0.7812937202200185],[102.22789014520009,0.7798937202200182],[102.23129014520009,0.7800937202200178],[102.23279014520008,0.7829937202200181],[102.23579014520008,0.7846937202200177],[102.23979014520009,0.7838937202200178]]]}},{"type":"Feature","properties":{"NAMA_PROP":"RIAU","NAMOBJ":"Merempan","REMARK":null,"UUPP":"Hasil Delineasi Tahun 2018","SRS_ID":"SRGI 2013","WADMKD":"Merempan","WADMKC":"Siak","WIADKC":"Siak","WADMKK":"Siak","WIADKK":"Siak","WADMPR":"Riau","Intervention_Source_Name":"Merempan Hulu","Intervention_Aliases":[]},"geometry":{"type":"Polygon","coordinates":[[[101.93499014520009,0.8670937202200193],[101.93549014520009,0.8581937202200187],[101.94429014520009,0.8537937202200183],[101.94719014520008,0.852393720220018],[101.9556901452001,0.8475937202200186],[101.95689014520009,0.844793720220018],[101.9573901452001,0.8422937202200185],[101.9577901452001,0.8399937202200185],[101.9577901452001,0.8375937202200188],[101.95819014520009,0.834093720220018],[101.95889014520009,0.8312937202200192],[101.95919014520008,0.8274937202200192],[101.95949014520009,0.8239937202200185],[101.9599901452001,0.8209937202200184],[101.95939014520009,0.8182937202200193],[101.95859014520009,0.814293720220018],[101.96019014520009,0.8110937202200184],[101.96279014520009,0.8095937202200183],[101.96099014520009,0.8086937202200186],[101.95859014520009,0.8067937202200177],[101.9556901452001,0.8039937202200189],[101.95319014520008,0.8006937202200177],[101.9505901452001,0.7983937202200178],[101.9466901452001,0.797093720220019],[101.94299014520008,0.7974937202200181],[101.93829014520009,0.7978937202200189],[101.93179014520008,0.7983937202200178],[101.92739014520009,0.7978937202200189],[101.92329014520008,0.7963937202200189],[101.92069014520008,0.7948937202200188],[101.91639014520008,0.7922937202200178],[101.91269014520009,0.789493720220019],[101.91059014520009,0.7884937202200177],[101.9077901452001,0.7913937202200181],[101.90439014520008,0.7933937202200187],[101.9017901452001,0.7948937202200188],[101.8982901452001,0.7968937202200177],[101.89589014520008,0.7986937202200188],[101.8948901452001,0.8012937202200181],[101.89369014520008,0.8041937202200184],[101.89169014520009,0.806993720220019],[101.89029014520008,0.8085937202200189],[101.88819014520008,0.8106937202200193],[101.88669014520009,0.8141937202200182],[101.88449014520009,0.8174937202200177],[101.88229014520009,0.8201937202200185],[101.88049014520008,0.822693720220018],[101.87869014520008,0.827593720220019],[101.87499014520009,0.8349937202200177],[101.87679014520009,0.8391937202200186],[101.87799014520009,0.8415937202200183],[101.88079014520008,0.8467937202200186],[101.88239014520009,0.8498937202200185],[101.88469014520008,0.8544937202200185],[101.88489014520009,0.8605937202200185],[101.88489014520009,0.8673937202200186],[101.88489014520009,0.870693720220018],[101.88489014520009,0.8749937202200186],[101.88839014520009,0.8763937202200189],[101.89169014520009,0.8763937202200189],[101.89569014520009,0.8763937202200189],[101.90059014520008,0.8763937202200189],[101.90549014520009,0.8763937202200189],[101.91209014520008,0.8763937202200189],[101.9162901452001,0.8763937202200189],[101.91669014520009,0.8669937202200177],[101.9256901452001,0.8672937202200188],[101.93029014520009,0.8672937202200188],[101.93499014520009,0.8670937202200193]]]}},{"type":"Feature","properties":{"NAMA_PROP":"RIAU","NAMOBJ":"Petapahan","REMARK":null,"UUPP":"Hasil Delineasi Tahun 2018","SRS_ID":"SRGI 2013","WADMKD":"Petapahan","WADMKC":"Tapung","WIADKC":null,"WADMKK":"Kampar","WIADKK":"Kampar","WADMPR":"Riau","Intervention_Source_Name":"Petapahan","Intervention_Aliases":[]},"geometry":{"type":"Polygon","coordinates":[[[101.11189014520009,0.6624937202200183],[101.10949014520008,0.6628937202200191],[101.10699014520009,0.6619937202200177],[101.10369014520009,0.6629937202200189],[101.09959014520008,0.6640937202200181],[101.09759014520009,0.664493720220019],[101.09549014520009,0.6641937202200179],[101.0926901452001,0.6635937202200193],[101.08859014520009,0.6631937202200184],[101.08469014520008,0.6622937202200188],[101.0806901452001,0.6622937202200188],[101.08059014520009,0.6640937202200181],[101.07779014520008,0.6662937202200183],[101.07419014520009,0.6674937202200191],[101.06939014520009,0.668693720220018],[101.06509014520009,0.6693937202200182],[101.05959014520009,0.6670937202200182],[101.06259014520009,0.6620937202200192],[101.06239014520008,0.6588937202200178],[101.0579901452001,0.658793720220018],[101.05289014520008,0.6589937202200193],[101.05019014520009,0.6523937202200187],[101.05169014520008,0.6311937202200184],[101.05229014520009,0.6221937202200181],[101.05599014520008,0.6230937202200177],[101.05909014520009,0.6205937202200182],[101.05279014520009,0.6167937202200182],[101.0446901452001,0.6128937202200184],[101.03549014520009,0.6091937202200182],[101.02709014520009,0.6054937202200179],[101.03039014520009,0.5977937202200181],[101.03349014520009,0.5961937202200183],[101.04179014520008,0.587493720220019],[101.05109014520009,0.5814937202200188],[101.06779014520009,0.5817937202200181],[101.09069014520009,0.5819937202200194],[101.09449014520008,0.5818937202200178],[101.09899014520009,0.5816937202200183],[101.10239014520009,0.5796937202200176],[101.10629014520009,0.5804937202200193],[101.1101901452001,0.5809937202200182],[101.1123901452001,0.5823937202200185],[101.11509014520009,0.5830937202200186],[101.11529014520009,0.5945937202200184],[101.11519014520009,0.6030937202200182],[101.12869014520008,0.6042937202200189],[101.13359014520009,0.5450937202200183],[101.13959014520009,0.516293720220018],[101.13849014520008,0.5024937202200181],[101.1328901452001,0.507893720220018],[101.1294901452001,0.5107937202200183],[101.13009014520009,0.5216937202200178],[101.13129014520008,0.524993720220019],[101.12899014520009,0.5295937202200189],[101.1080901452001,0.5298937202200182],[101.0746901452001,0.5296937202200187],[101.0733901452001,0.5244937202200184],[101.07239014520009,0.5110937202200176],[101.0618901452001,0.5110937202200176],[101.05989014520009,0.5084937202200184],[101.05909014520009,0.5156937202200194],[101.05909014520009,0.5196937202200189],[101.05779014520009,0.5222937202200182],[101.05489014520009,0.5233937202200192],[101.04879014520009,0.5230937202200181],[101.04139014520008,0.5198937202200185],[101.03509014520009,0.5140937202200178],[101.03109014520008,0.5119937202200191],[101.02739014520009,0.5098937202200187],[101.02399014520009,0.5061937202200184],[101.01769014520009,0.4989937202200192],[101.01589014520009,0.4964937202200179],[101.01369014520009,0.49339372022001804],[101.00929014520008,0.48919372022001895],[101.00579014520008,0.48809372022001796],[101.00069014520008,0.4871937202200183],[100.9971901452001,0.4846937202200188],[100.99019014520009,0.48229372022001904],[100.98529014520008,0.4798937202200193],[100.97359014520009,0.47599372022001774],[100.96449014520009,0.4740937202200186],[100.9590901452001,0.4741937202200184],[100.94389014520009,0.4745937202200192],[100.93609014520008,0.4754937202200189],[100.9286901452001,0.4754937202200189],[100.94149014520009,0.4953937202200187],[100.9642901452001,0.5292937202200179],[100.9466901452001,0.5751937202200192],[100.94489014520009,0.5728937202200193],[100.94089014520009,0.5732937202200183],[100.93759014520009,0.5696937202200179],[100.9363901452001,0.575293720220019],[100.93449014520009,0.5783937202200189],[100.93039014520009,0.5727937202200177],[100.92839014520008,0.5739937202200185],[100.92449014520008,0.5770937202200184],[100.92069014520008,0.5816937202200183],[100.9145901452001,0.5860937202200187],[100.8687901452001,0.5563937202200187],[100.86059014520009,0.6263937202200189],[100.8743901452001,0.6220937202200183],[100.87919014520008,0.6205937202200182],[100.89109014520008,0.6226937202200187],[100.89379014520009,0.6180937202200187],[100.89739014520009,0.6195937202200188],[100.90539014520009,0.6203937202200187],[100.90829014520008,0.6238937202200177],[100.91419014520008,0.6239937202200192],[100.91829014520009,0.6226937202200187],[100.92029014520008,0.6187937202200189],[100.9248901452001,0.6146937202200178],[100.92719014520009,0.6154937202200177],[100.93009014520008,0.6105937202200185],[100.93279014520009,0.608093720220019],[100.93489014520009,0.604693720220018],[100.93979014520009,0.5976937202200183],[100.94259014520009,0.5967937202200186],[100.95299014520009,0.595893720220019],[100.95989014520009,0.5969937202200182],[100.9633901452001,0.5969937202200182],[100.96309014520008,0.5916937202200181],[100.96899014520008,0.5918937202200176],[100.97639014520009,0.5920937202200189],[100.98359014520008,0.593593720220019],[100.9834901452001,0.5984937202200182],[100.99329014520009,0.5988937202200191],[100.99439014520009,0.6070937202200177],[100.99539014520009,0.6112937202200186],[100.99609014520009,0.6132937202200193],[100.99779014520009,0.6154937202200177],[100.99859014520008,0.6178937202200192],[100.99709014520009,0.6201937202200192],[100.99369014520009,0.6254937202200193],[100.99049014520008,0.6284937202200194],[100.98659014520008,0.630593720220018],[100.98319014520008,0.6325937202200187],[100.97929014520008,0.6326937202200185],[100.97569014520009,0.6324937202200189],[100.97139014520009,0.6323937202200192],[100.96839014520009,0.6322937202200194],[100.96459014520009,0.6322937202200194],[100.96199014520009,0.6012937202200188],[100.95809014520009,0.6050937202200188],[100.95199014520009,0.6111937202200188],[100.95019014520008,0.6126937202200189],[100.94989014520009,0.6318937202200186],[100.94989014520009,0.6381937202200181],[100.9500901452001,0.6480937202200181],[100.94819014520009,0.6521937202200192],[100.94739014520009,0.6592937202200186],[100.9496901452001,0.6608937202200185],[100.9565901452001,0.6616937202200184],[100.96279014520009,0.6623937202200185],[100.96709014520009,0.6639937202200183],[100.97209014520008,0.6649937202200178],[100.97829014520009,0.6646937202200185],[100.98719014520009,0.663693720220019],[100.99579014520009,0.6639937202200183],[101.00329014520008,0.6646937202200185],[101.01029014520009,0.6672937202200178],[101.01549014520009,0.6722937202200185],[101.01869014520008,0.6800937202200181],[101.01849014520009,0.7096937202200184],[101.02339014520008,0.7089937202200183],[101.03739014520009,0.692693720220019],[101.05109014520009,0.6768937202200185],[101.07309014520008,0.691593720220018],[101.07399014520009,0.7028937202200183],[101.07379014520009,0.7131937202200191],[101.0789901452001,0.7132937202200189],[101.08389014520009,0.7132937202200189],[101.0853901452001,0.703793720220018],[101.10229014520009,0.7041937202200188],[101.1054901452001,0.6936937202200184],[101.10879014520009,0.6900937202200179],[101.11679014520008,0.6872937202200191],[101.11299014520009,0.6810937202200193],[101.11189014520009,0.6624937202200183]]]}},{"type":"Feature","properties":{"NAMA_PROP":"RIAU","NAMOBJ":"Siarang-Arang","REMARK":null,"UUPP":"Hasil Delineasi Tahun 2018","SRS_ID":"SRGI 2013","WADMKD":"Siarang-Arang","WADMKC":"Pujud","WIADKC":null,"WADMKK":"Rokan Hilir","WIADKK":null,"WADMPR":"Riau","Intervention_Source_Name":"Siarang-Arang","Intervention_Aliases":[]},"geometry":{"type":"Polygon","coordinates":[[[100.77829014520009,1.535693720220019],[100.77609014520009,1.5330937202200179],[100.77479014520009,1.5229937202200183],[100.77139014520009,1.5190937202200185],[100.76229014520008,1.5171937202200176],[100.75749014520008,1.518893720220019],[100.75689014520009,1.514793720220018],[100.75669014520008,1.511293720220019],[100.75649014520009,1.5065937202200193],[100.75599014520009,1.4937937202200189],[100.75589014520008,1.4912937202200194],[100.75519014520009,1.4763937202200186],[100.75509014520009,1.4739937202200188],[100.75499014520008,1.4625937202200188],[100.75529014520009,1.4557937202200186],[100.7625901452001,1.4603937202200186],[100.7651901452001,1.4620937202200182],[100.77149014520009,1.4660937202200177],[100.77349014520009,1.4681937202200182],[100.7762901452001,1.4710937202200185],[100.7792901452001,1.474393720220018],[100.78369014520008,1.4765937202200181],[100.7835901452001,1.4673937202200182],[100.7835901452001,1.4576937202200178],[100.78369014520008,1.4230937202200185],[100.78609014520009,1.4221937202200188],[100.78729014520009,1.419793720220019],[100.78799014520008,1.415993720220019],[100.78949014520009,1.4123937202200185],[100.78989014520009,1.408393720220019],[100.79149014520009,1.406493720220018],[100.7946901452001,1.4069937202200187],[100.79779014520008,1.4089937202200193],[100.79959014520009,1.4104937202200176],[100.8024901452001,1.4124937202200183],[100.80569014520009,1.4096937202200177],[100.80489014520009,1.4054937202200186],[100.8002901452001,1.4021937202200192],[100.79679014520009,1.399193720220019],[100.79309014520008,1.399693720220018],[100.79019014520009,1.4000937202200188],[100.78889014520009,1.3975937202200193],[100.78809014520009,1.3955937202200186],[100.78919014520008,1.3920937202200179],[100.79339014520009,1.3907937202200191],[100.79539014520009,1.389293720220019],[100.79749014520009,1.386693720220018],[100.80079014520008,1.3871937202200186],[100.80439014520009,1.3882937202200178],[100.80639014520008,1.3856937202200186],[100.80659014520009,1.3826937202200185],[100.80409014520009,1.380593720220018],[100.80099014520009,1.381693720220019],[100.79829014520008,1.3815937202200193],[100.80129014520008,1.379093720220018],[100.80579014520009,1.378293720220018],[100.80119014520008,1.3517937202200176],[100.80099014520009,1.3449937202200193],[100.80089014520009,1.3415937202200183],[100.80079014520008,1.3362937202200182],[100.80079014520008,1.3304937202200193],[100.80079014520008,1.3248937202200182],[100.80169014520008,1.3217937202200183],[100.80279014520009,1.3013937202200179],[100.8041901452001,1.2765937202200188],[100.80299014520008,1.2691937202200183],[100.76619014520008,1.3194937202200183],[100.7274901452001,1.370993720220019],[100.71409014520009,1.3876937202200192],[100.71109014520009,1.3911937202200182],[100.70979014520009,1.394293720220018],[100.71089014520008,1.3963937202200185],[100.71369014520009,1.3978937202200186],[100.7159901452001,1.3982937202200176],[100.71789014520009,1.3939937202200188],[100.71789014520009,1.3910937202200184],[100.71799014520009,1.388993720220018],[100.72059014520009,1.387793720220019],[100.72299014520009,1.3882937202200178],[100.72399014520009,1.3913937202200177],[100.72489014520009,1.3934937202200182],[100.7244901452001,1.395893720220018],[100.72089014520009,1.3978937202200186],[100.72319014520009,1.4001937202200185],[100.72259014520009,1.4080937202200179],[100.71779014520008,1.4246937202200183],[100.71449014520009,1.4252937202200187],[100.71149014520009,1.4265937202200192],[100.70989014520009,1.4282937202200188],[100.70879014520008,1.4303937202200192],[100.70749014520008,1.4326937202200192],[100.70679014520009,1.4345937202200183],[100.7065901452001,1.4370937202200178],[100.70689014520009,1.440093720220018],[100.70789014520008,1.4444937202200183],[100.70749014520008,1.4475937202200182],[100.70949014520009,1.4509937202200192],[100.71219014520008,1.453393720220019],[100.71539014520009,1.454493720220018],[100.71829014520009,1.4556937202200189],[100.71929014520009,1.4589937202200183],[100.72059014520009,1.4612937202200182],[100.7210901452001,1.4645937202200177],[100.72189014520009,1.468593720220019],[100.72359014520009,1.4721937202200177],[100.72689014520009,1.4734937202200182],[100.7300901452001,1.474693720220019],[100.73239014520009,1.4768937202200192],[100.73229014520008,1.4867937202200192],[100.7321901452001,1.491493720220019],[100.73199014520009,1.4946937202200186],[100.73199014520009,1.499493720220018],[100.73209014520009,1.502593720220018],[100.73029014520009,1.5064937202200177],[100.73159014520009,1.5105937202200188],[100.73259014520009,1.5145937202200184],[100.72919014520009,1.5156937202200194],[100.72919014520009,1.519293720220018],[100.72909014520009,1.521593720220018],[100.72899014520009,1.5256937202200191],[100.72889014520008,1.5301937202200193],[100.72889014520008,1.5332937202200192],[100.73449014520008,1.534093720220019],[100.73789014520008,1.5342937202200186],[100.74559014520008,1.5344937202200182],[100.7484901452001,1.534593720220018],[100.75139014520009,1.536093720220018],[100.77829014520009,1.535693720220019]]]}}]}
