{"type":"FeatureCollection","features":[{"type":"Feature","properties":{"NAMA_PROP":"RIAU","NAMOBJ":"Merempan Hulu","REMARK":null,"UUPP":"Hasil Delineasi Tahun 2018","SRS_ID":"SRGI 2013","WADMKD":"Merempan Hulu","WADMKC":"Siak","WIADKC":"Siak","WADMKK":"Siak","WIADKK":"Siak","WADMPR":"Riau"},"geometry":{"type":"Polygon","coordinates":[[[101.93499014520009,0.8670937202200193],[101.93549014520009,0.8581937202200187],[101.94429014520009,0.8537937202200183],[101.94719014520008,0.852393720220018],[101.9556901452001,0.8475937202200186],[101.95689014520009,0.844793720220018],[101.9573901452001,0.8422937202200185],[101.9577901452001,0.8399937202200185],[101.9577901452001,0.8375937202200188],[101.95819014520009,0.834093720220018],[101.95889014520009,0.8312937202200192],[101.95919014520008,0.8274937202200192],[101.95949014520009,0.8239937202200185],[101.9599901452001,0.8209937202200184],[101.95939014520009,0.8182937202200193],[101.95859014520009,0.814293720220018],[101.96019014520009,0.8110937202200184],[101.96279014520009,0.8095937202200183],[101.96099014520009,0.8086937202200186],[101.95859014520009,0.8067937202200177],[101.9556901452001,0.8039937202200189],[101.95319014520008,0.8006937202200177],[101.9505901452001,0.7983937202200178],[101.9466901452001,0.797093720220019],[101.94299014520008,0.7974937202200181],[101.93829014520009,0.7978937202200189],[101.93179014520008,0.7983937202200178],[101.92739014520009,0.7978937202200189],[101.92329014520008,0.7963937202200189],[101.92069014520008,0.7948937202200188],[101.91639014520008,0.7922937202200178],[101.91269014520009,0.789493720220019],[101.91059014520009,0.7884937202200177],[101.9077901452001,0.7913937202200181],[101.90439014520008,0.7933937202200187],[101.9017901452001,0.7948937202200188],[101.8982901452001,0.7968937202200177],[101.89589014520008,0.7986937202200188],[101.8948901452001,0.8012937202200181],[101.89369014520008,0.8041937202200184],[101.89169014520009,0.806993720220019],[101.89029014520008,0.8085937202200189],[101.88819014520008,0.8106937202200193],[101.88669014520009,0.8141937202200182],[101.88449014520009,0.8174937202200177],[101.88229014520009,0.8201937202200185],[101.88049014520008,0.822693720220018],[101.87869014520008,0.827593720220019],[101.87499014520009,0.8349937202200177],[101.87679014520009,0.8391937202200186],[101.87799014520009,0.8415937202200183],[101.88079014520008,0.8467937202200186],[101.88239014520009,0.8498937202200185],[101.88469014520008,0.8544937202200185],[101.88489014520009,0.8605937202200185],[101.88489014520009,0.8673937202200186],[101.88489014520009,0.870693720220018],[101.88489014520009,0.8749937202200186],[101.88839014520009,0.8763937202200189],[101.89169014520009,0.8763937202200189],[101.89569014520009,0.8763937202200189],[101.90059014520008,0.8763937202200189],[101.90549014520009,0.8763937202200189],[101.91209014520008,0.8763937202200189],[101.9162901452001,0.8763937202200189],[101.91669014520009,0.8669937202200177],[101.9256901452001,0.8672937202200188],[101.93029014520009,0.8672937202200188],[101.93499014520009,0.8670937202200193]]]}}]}