{"type":"FeatureCollection","name":"nursery_mangrove","crs":{"type":"name","properties":{"name":"urn:ogc:def:crs:OGC:1.3:CRS84"}},"features":[{"type":"Feature","properties":{"Id":5,"Kabupaten":"Siak","Kecamatan":"Sungai Apit","Desa":"Tanjung Kuras","X":102.167861,"Y":1.197278,"Ket":null,"Tahun":2026,"Object_ID":"NURSERY-TANJUNG-KURAS-NA-001","Nama_Objek":"Rumah Pembibitan Mangrove – Tanjung Kuras","Kategori":"Pembibitan Mangrove","Source_Layer":"nursery_mangrove","Status_Objek":"Aktif","Donor":"Aramco Asia Singapore","Foto":"https://drive.google.com/file/d/1O3i6D__XrYTwn-5QKM6MTruZaK4Ic6pz/view?usp=drivesdk","Foto_2":"https://drive.google.com/file/d/1gy6O-dKMVJTgP_hS3YwO9xOL9NscM9dI/view?usp=drivesdk","photos":["https://drive.google.com/file/d/1O3i6D__XrYTwn-5QKM6MTruZaK4Ic6pz/view?usp=drivesdk","https://drive.google.com/file/d/1gy6O-dKMVJTgP_hS3YwO9xOL9NscM9dI/view?usp=drivesdk","https://drive.google.com/file/d/1TewxNTWZh4_4-3aEBYdemqlS9jJ4n0z0/view?usp=drivesdk","https://drive.google.com/file/d/1AwCJgmrvegRsQiaZIHPx_rc82Y4mFvAa/view?usp=drivesdk"],"Tanggal_Foto":"29/01/2026","Keterangan_Foto":"Galeri rumah bibit mangrove Tanjung Kuras dari arsip dokumentasi tim"},"geometry":{"type":"Point","coordinates":[102.16786111111112,1.197277778570933]}}]}
