{
  "type": "FeatureCollection",
  "name": "PERHUTANAN_SOSIAL_RIAU_PUBLIC_GEOMETRY_WITHHELD",
  "source": "Kementerian Kehutanan / referensi Perhutanan Sosial",
  "visibility": "internal",
  "rawRedistribution": "not-enabled",
  "publicDisplay": "metadata-documents-and-derived-analysis-only",
  "note": "Geometri mentah Perhutanan Sosial tidak dipublikasikan ulang melalui repository publik. Direktori publik menggunakan metadata, dokumen, ringkasan, dan hasil analisis yang telah disiapkan untuk publik.",
  "updated": "2026-09-16",
  "features": []
}
