{
  "type": "FeatureCollection",
  "name": "RSPO_RIAU_PUBLIC_GEOMETRY_WITHHELD",
  "source": "GeoRSPO / RSPO",
  "visibility": "internal",
  "rawRedistribution": "not-enabled",
  "publicDisplay": "metadata-and-derived-analysis-only",
  "note": "Geometri rinci area perkebunan anggota RSPO di Indonesia tidak dipublikasikan ulang oleh YG GeoPortal. Metadata publik tersedia melalui data/rspo-area-portfolios.json; staf yang berwenang menggunakan modul internal dan layanan sumber resmi.",
  "updated": "2026-09-16",
  "features": []
}
