{"type":"FeatureCollection","name":"sekat_kanal","crs":{"type":"name","properties":{"name":"urn:ogc:def:crs:OGC:1.3:CRS84"}},"features":[{"type":"Feature","properties":{"No":1,"Kabupaten":"Bengkalis","Kecamatan":"Bandar Laksamana","Desa":"Sepahat","X":101.8076,"Y":1.5716,"Tahun":2021,"Ket":"GEC","Foto":"https://drive.google.com/file/d/1OzFSxSwbg9BtKyOAK8-WpmaqsWCw4MO6/view?usp=sharing","Foto_2":"https://drive.google.com/file/d/1HrLguE_B-JRYOLLraUhJNjbhlTBnoDGc/view?usp=sharing","Object_ID":"SEKAT-SEPAHAT-2021-001","Nama_Objek":"Sekat Kanal – Sepahat – 2021","Kategori":"Sekat Kanal","Source_Layer":"sekat_kanal","Status_Objek":"Aktif"},"geometry":{"type":"Point","coordinates":[101.8076,1.5716]}},{"type":"Feature","properties":{"No":2,"Kabupaten":"Bengkalis","Kecamatan":"Bandar Laksamana","Desa":"Sepahat","X":101.81161,"Y":1.568655,"Tahun":2023,"Ket":"GEC","Foto":"https://drive.google.com/file/d/1XgTqj5A7cJzuR6uGWQhNc6ZxQXaEmboC/view?usp=sharing","Foto_2":null,"Object_ID":"SEKAT-SEPAHAT-2023-001","Nama_Objek":"Sekat Kanal – Sepahat – 2023","Kategori":"Sekat Kanal","Source_Layer":"sekat_kanal","Status_Objek":"Aktif"},"geometry":{"type":"Point","coordinates":[101.81161,1.568655]}},{"type":"Feature","properties":{"No":3,"Kabupaten":"Bengkalis","Kecamatan":"Bandar Laksamana","Desa":"Temiang","X":101.922295,"Y":1.478675,"Tahun":2022,"Ket":"GEC","Foto":"https://drive.google.com/file/d/1qWPvmzVNZs8YnVdAw_eQxoXaTAkDuKGO/view?usp=sharing","Foto_2":"https://drive.google.com/file/d/1AxWybDIXfbzP75AtWDOP8sLqlCrKob4X/view?usp=sharing","Perawatan_Terakhir":"3–6 Agustus 2026","Donor_Perawatan":"Yayasan Penabulu","Pelaksana_Perawatan":"Kelompok Tani Wanita Makmur Jaya","Kondisi_Setelah_Perawatan":"Baik","Fungsi_Setelah_Perawatan":"Tidak berfungsi (sesuai laporan)","Laporan_Perawatan_ID":"YG-20260823-001222-487","_ygPhotos":["https://drive.google.com/file/d/1rAq5XTADwc4PpERI_K6LVAMDKIAr0m55/view?usp=drivesdk","https://drive.google.com/file/d/1CfEkpc4lGHNLQndo6Cn73rRkv1_fP8BC/view?usp=drivesdk"],"Object_ID":"SEKAT-TEMIANG-2022-001","Nama_Objek":"Sekat Kanal – Temiang – 2022","Kategori":"Sekat Kanal","Source_Layer":"sekat_kanal","Status_Objek":"Aktif"},"geometry":{"type":"Point","coordinates":[101.92229535378728,1.47867464621274]}},{"type":"Feature","properties":{"No":4,"Kabupaten":"Bengkalis","Kecamatan":"Bandar Laksamana","Desa":"Temiang","X":101.928592,"Y":1.479234,"Tahun":2023,"Ket":"GEC","Foto":"https://drive.google.com/file/d/1OVuhfVfc7edw6Q4_QnZpjk73r6Jxdh7S/view?usp=sharing","Foto_2":null,"Perawatan_Terakhir":"7–11 Agustus 2026","Donor_Perawatan":"Yayasan Penabulu","Pelaksana_Perawatan":"Kelompok Tani Wanita Makmur Jaya","Kondisi_Setelah_Perawatan":"Baik","Fungsi_Setelah_Perawatan":"Berfungsi baik","Laporan_Perawatan_ID":"YG-20260823-002945-756","_ygPhotos":["https://drive.google.com/file/d/1KHsl79Fo_Xg1GBM-HO8ZQo6Q1Ze0irsR/view?usp=drivesdk","https://drive.google.com/file/d/1S4VJAY-iL4cuq-H5xQ8MXCojPR4Wq50r/view?usp=drivesdk"],"Object_ID":"SEKAT-TEMIANG-2023-001","Nama_Objek":"Sekat Kanal – Temiang – 2023","Kategori":"Sekat Kanal","Source_Layer":"sekat_kanal","Status_Objek":"Aktif"},"geometry":{"type":"Point","coordinates":[101.92859166666668,1.479234444444445]}},{"type":"Feature","properties":{"No":5,"Kabupaten":"Bengkalis","Kecamatan":"Bandar Laksamana","Desa":"Temiang","X":101.92487,"Y":1.47571,"Tahun":2024,"Ket":"GEC","Foto":"https://drive.google.com/file/d/1-eROKFo2iT8GY5FBR7-dD0QI1i8g4FI_/view?usp=sharing","Foto_2":null,"Object_ID":"SEKAT-TEMIANG-2024-001","Nama_Objek":"Sekat Kanal – Temiang – 2024","Kategori":"Sekat Kanal","Source_Layer":"sekat_kanal","Status_Objek":"Aktif"},"geometry":{"type":"Point","coordinates":[101.92487,1.47571]}},{"type":"Feature","properties":{"No":6,"Kabupaten":"Bengkalis","Kecamatan":"Bengkalis","Desa":"Pematang Duku","X":102.294667,"Y":1.455018,"Tahun":2025,"Ket":"PPCF","Foto":"https://drive.google.com/file/d/1KtlnQGFQza1eSUSMo61Un-hNjtTS_na0/view?usp=sharing","Foto_2":null,"Object_ID":"SEKAT-PEMATANG-DUKU-2025-001","Nama_Objek":"Sekat Kanal – Pematang Duku – 2025","Kategori":"Sekat Kanal","Source_Layer":"sekat_kanal","Status_Objek":"Aktif"},"geometry":{"type":"Point","coordinates":[102.294667,1.455018]}},{"type":"Feature","properties":{"No":7,"Kabupaten":"Bengkalis","Kecamatan":"Bengkalis","Desa":"Pematang Duku","X":102.294373,"Y":1.460889,"Tahun":2025,"Ket":"PPCF","Foto":"https://drive.google.com/file/d/1BjTpNkVMaebzZocSXUMs8btD5jxH6MN2/view?usp=sharing","Foto_2":null,"Object_ID":"SEKAT-PEMATANG-DUKU-2025-002","Nama_Objek":"Sekat Kanal – Pematang Duku – 2025 – Plot 2","Kategori":"Sekat Kanal","Source_Layer":"sekat_kanal","Status_Objek":"Aktif"},"geometry":{"type":"Point","coordinates":[102.29437267424791,1.460889443911205]}},{"type":"Feature","properties":{"No":8,"Kabupaten":"Bengkalis","Kecamatan":"Bengkalis","Desa":"Pematang Duku","X":102.300522,"Y":1.455571,"Tahun":2025,"Ket":"PPCF","Foto":"https://drive.google.com/file/d/1MCiWUV6FMIaDkHuFCzlvCSk0F3pYfA9G/view?usp=sharing","Foto_2":null,"Object_ID":"SEKAT-PEMATANG-DUKU-2025-003","Nama_Objek":"Sekat Kanal – Pematang Duku – 2025 – Plot 3","Kategori":"Sekat Kanal","Source_Layer":"sekat_kanal","Status_Objek":"Aktif"},"geometry":{"type":"Point","coordinates":[102.300522,1.455571]}},{"type":"Feature","properties":{"No":9,"Kabupaten":"Bengkalis","Kecamatan":"Bengkalis","Desa":"Pematang Duku","X":102.30033,"Y":1.458222,"Tahun":2025,"Ket":"PPCF","Foto":"https://drive.google.com/file/d/19bVUYMta-S6xaXnJPIRdSIYJelPlsgH-/view?usp=sharing","Foto_2":null,"Object_ID":"SEKAT-PEMATANG-DUKU-2025-004","Nama_Objek":"Sekat Kanal – Pematang Duku – 2025 – Plot 4","Kategori":"Sekat Kanal","Source_Layer":"sekat_kanal","Status_Objek":"Aktif"},"geometry":{"type":"Point","coordinates":[102.30033,1.458222]}},{"type":"Feature","properties":{"No":11,"Kabupaten":"Siak","Kecamatan":"Sungai Apit","Desa":"Tanjung Kuras","X":102.17396,"Y":1.16694,"Tahun":2024,"Ket":"GEC","Foto":"https://drive.google.com/file/d/1CMY1heynm-cmeItXOuy-jzvZUreT0ZlA/view?usp=sharing","Foto_2":null,"Object_ID":"SEKAT-TANJUNG-KURAS-2024-001","Nama_Objek":"Sekat Kanal – Tanjung Kuras – 2024","Kategori":"Sekat Kanal","Source_Layer":"sekat_kanal","Status_Objek":"Aktif"},"geometry":{"type":"Point","coordinates":[102.17396,1.16694]}},{"type":"Feature","properties":{"No":10,"Kabupaten":"Bengkalis","Kecamatan":"Bukit Batu","Desa":"Buruk Bakul","X":102.038444,"Y":1.419,"Tahun":2025,"Ket":"GEC","Foto":"https://drive.google.com/file/d/1zfroxnu3kQHy0tYkNBQRtgcIao-2fpxj/view?usp=sharing","Foto_2":"https://drive.google.com/file/d/1e6zqWafG-Uf1mDCrppqeLlrNZXjbwg9O/view?usp=sharing","Object_ID":"SEKAT-BURUK-BAKUL-2025-001","Nama_Objek":"Sekat Kanal – Buruk Bakul – 2025","Kategori":"Sekat Kanal","Source_Layer":"sekat_kanal","Status_Objek":"Aktif"},"geometry":{"type":"Point","coordinates":[102.03844444444444,1.419]}}]}