{"type":"FeatureCollection","name":"PKK_SAMJ_DUMAI","source":"https://geoportal.planologi.kehutanan.go.id/server/rest/services/Peta_Interaktif_2026/PKK_AR_50K/MapServer/0","features":[{"type":"Feature","properties":{"OBJECTID":"PKK-466","NAMA_PROV":"Riau","NAMA_KAB":"Dumai","NAMA_KEC":"Sungai Sembilan","NAMA_DESA":"Batu Teritip","NAMA_HKM":"GAPOKTAN SUMBER ALAM MAKMUR JAYA","NO_IUPHKM":"SK.4921/MENLHK-PSKL/PKPS/PSL.0/9/2017","TGL_IUPHKM":"2017-09-26","L_IUPHKM":4000,"LUAS_POLI":null,"Ket":"Kemitraan Kehutanan","PROFILE_KEY":"drive-audit:dumai-gapoktan-sumber-alam-makmur-jaya","NAMA_PEMEGANG":"PT. DIAMOND RAYA TIMBER","AREAL_KERJA":"PBPH","SUMBER":"Peta Interaktif SIGAP Kementerian Kehutanan","STATUS_SPASIAL":"Sumber resmi Kementerian Kehutanan","GEOMETRY_SOURCE":"https://geoportal.planologi.kehutanan.go.id/server/rest/services/Peta_Interaktif_2026/PKK_AR_50K/MapServer/0","ACCURACY_NOTE":"Geometri diambil langsung dari layer Persetujuan Kemitraan Kehutanan dan dicocokkan dengan nomor SK, nama kelompok, luas, serta lokasi administratif.","IMPORTED_AT":"2026-08-31"},"geometry":{"type":"MultiPolygon","coordinates":[[[[101.11789433400008,2.1781497090000244],[101.11715870800003,2.1791088310000646],[101.11614176600006,2.180203208000023],[101.11525564000004,2.180786542000021],[101.11312769400007,2.1816361510000206],[101.11110563600005,2.1820322180000744],[101.11003536100009,2.181976622000036],[101.10879860600005,2.1818361560000312],[101.10741357700005,2.1812921810000603],[101.10590116700007,2.1806386780000366],[101.10765142200006,2.179563895000058],[101.10944042200003,2.178465319000054],[101.10933685400005,2.176846266000041],[101.10962677000003,2.175880672000062],[101.10993957600004,2.1771578780000596],[101.11042823100007,2.177483190000032],[101.11139562200003,2.176370316000032],[101.11236034100006,2.1751446040000246],[101.11330332400007,2.1737567560000457],[101.11410106900007,2.1723155430000247],[101.11477183500006,2.171050975000071],[101.11514960500006,2.1688173260000667],[101.11443925100008,2.1669106540000485],[101.11441042000007,2.165130465000061],[101.11448894200004,2.1638103700000215],[101.11477484900007,2.1630276070000605],[101.11491936300007,2.1618651140000225],[101.11594609300005,2.1618230180000637],[101.11744006900005,2.1619158790000483],[101.11735686600008,2.1615810640000745],[101.11856234500004,2.1599135600000636],[101.11961714200004,2.157791279000037],[101.12037056800006,2.1564269540000396],[101.12082262100006,2.1547594440000353],[101.12056986000005,2.154505160000042],[101.12021988200007,2.154153076000057],[101.11841166100004,2.1540014850000375],[101.11630207000007,2.155214221000051],[101.11569932900005,2.1564269540000396],[101.11569932900005,2.1585492380000346],[101.11494590600006,2.1596103770000354],[101.11389110900006,2.158852421000063],[101.11268563000004,2.157336505000046],[101.11178151900003,2.1558205870000506],[101.11253494400006,2.1543046680000657],[101.11524727500006,2.1527887480000345],[101.11675412500006,2.150969643000053],[101.11739647400003,2.1504619010000283],[101.11845176500003,2.149627750000036],[101.11803597500005,2.1487499720000756],[101.11684624600008,2.146013592000031],[101.11494267600006,2.142325428000049],[101.11351500200004,2.1386372640000673],[101.11289042800007,2.1373881180000467],[101.11302185100004,2.1371603020000407],[101.11405514400008,2.1365703130000497],[101.11434781300005,2.137090613000055],[101.11553754300007,2.139113155000075],[101.11589446100004,2.1410167240000533],[101.11684624600008,2.1424444020000237],[101.11732214000006,2.1441100220000635],[101.11863084300006,2.146251538000058],[101.11960737700008,2.1488260380000384],[101.11998594600004,2.1485836780000227],[101.12052125300005,2.1482409780000467],[101.12243169700008,2.146685112000057],[101.12368563700005,2.145663902000024],[101.12669933900008,2.14475434600007],[101.12880893000005,2.145512310000072],[101.12986372500006,2.1468766450000203],[101.13024627400006,2.1470865640000625],[101.13030325900007,2.147117834000028],[101.13024783500003,2.147142850000023],[101.13015297800007,2.147192687000029],[101.13006124000003,2.147248111000067],[101.12997294200005,2.1473089310000546],[101.12988839600007,2.147374932000048],[101.12939830700009,2.147781604000045],[101.12874038800004,2.1483275400000252],[101.12865990100005,2.148398481000072],[101.12858375400003,2.148474115000056],[101.12851221400007,2.148554177000051],[101.12844553600007,2.148638379000033],[101.12838395900008,2.148726421000049],[101.12832769800008,2.1488179950000585],[101.12796398400008,2.149451427000031],[101.12795127400005,2.149473563000072],[101.12791646600004,2.14947707500005],[101.12759837500005,2.150031049000063],[101.12749466700006,2.150242371000047],[101.12737851300005,2.1505239240000265],[101.12727921300007,2.1508217280000395],[101.12706989300005,2.151329113000031],[101.12696936900005,2.1515727770000694],[101.12666692500005,2.15230589600003],[101.12653960500006,2.1526145140000494],[101.12648906100009,2.152752656000075],[101.12609229200007,2.1539903770000706],[101.12579780400006,2.1549090270000306],[101.12578032100004,2.1549064520000343],[101.12529227500005,2.1565090510000573],[101.12508667400004,2.1572975520000455],[101.12495023900004,2.157823820000033],[101.12469350600009,2.158871255000065],[101.12428863700006,2.1603014900000517],[101.12411550600007,2.1609767900000634],[101.12401299700008,2.161350561000063],[101.12344552500008,2.1633918010000457],[101.12322645900008,2.16424924100005],[101.12293077900006,2.1654065510000464],[101.12239237100005,2.1674106110000366],[101.12113446900008,2.1708526130000223],[101.12032046700006,2.173322370000051],[101.11957463700008,2.175588228000038],[101.11789433400008,2.1781497090000244]]],[[[101.07437325600006,2.2022485720000304],[101.07243964600008,2.2034652790000564],[101.07065654300004,2.2045872830000235],[101.06866168400006,2.205842530000041],[101.06647065100003,2.2072289090000368],[101.06461369500005,2.2083418570000504],[101.06288463600004,2.2093781530000456],[101.06264513100007,2.20952169800006],[101.06244370700006,2.209651572000041],[101.06181553700009,2.210058691000029],[101.06132324200007,2.210374022000053],[101.06065838000006,2.2108027090000633],[101.06000573000006,2.2112235220000684],[101.05982250700004,2.2113416610000627],[101.05954646700008,2.2115216870000722],[101.05933514600008,2.2116569780000646],[101.05909856600005,2.2118084410000733],[101.05883729900006,2.2119864930000404],[101.05862668100008,2.2121228250000513],[101.05844209100007,2.2122321390000366],[101.05829169400005,2.2123286930000745],[101.05745230900004,2.2128699100000517],[101.05331280300004,2.2155389650000643],[101.05192432800004,2.2162697800000615],[101.04837300700007,2.21854859900003],[101.04506594900005,2.2206706790000226],[101.04351523800005,2.2216657420000274],[101.04077544700004,2.2234238170000253],[101.04050626800006,2.2229286850000562],[101.04048433600008,2.222888345000058],[101.04028051600005,2.2225134310000385],[101.03993960400004,2.2218863520000696],[101.03955078500007,2.221171150000032],[101.03935510800005,2.220731350000051],[101.03927940400007,2.2205611980000413],[101.03915302600006,2.220277157000055],[101.03907749200005,2.220107386000052],[101.03863751200004,2.219118490000028],[101.03831141500007,2.218385561000048],[101.03826463200005,2.2182971920000227],[101.03821281300009,2.2181639450000716],[101.03801478900004,2.2176547380000216],[101.03787981000005,2.2173576720000483],[101.03787011900005,2.2173363440000458],[101.03785795000005,2.2173026060000325],[101.03767864800005,2.2168054940000275],[101.03750735100004,2.21627512200007],[101.03742939800009,2.2160337640000307],[101.03717111300006,2.2152340630000253],[101.03710959900008,2.215043602000037],[101.03706978800005,2.214920340000049],[101.03682284200005,2.2141557390000344],[101.03668061900004,2.2137153900000612],[101.03650945000004,2.213185415000055],[101.03641793400004,2.2129020660000265],[101.03634693900005,2.2126822510000466],[101.03630157800006,2.2125864860000206],[101.03608742500006,2.21197972300007],[101.03590896700007,2.211372961000052],[101.03573050700004,2.2107661980000444],[101.03562245700004,2.210355610000022],[101.03536862400006,2.209512878000055],[101.03527660000003,2.209207356000036],[101.03514828700008,2.2087813520000736],[101.03511185400004,2.2086603930000592],[101.03501666800008,2.208410531000027],[101.03493852800005,2.208084951000046],[101.03493166400006,2.208062160000054],[101.03482963300007,2.2077234160000216],[101.03468529600008,2.207244213000024],[101.03455172700006,2.2068007550000743],[101.03446917000008,2.206526669000027],[101.03439320200005,2.20627445100007],[101.03433639100007,2.206085839000025],[101.03428592100005,2.205918276000034],[101.03421283400007,2.2056756250000262],[101.03412502200007,2.205384087000027],[101.03402745600005,2.205060167000056],[101.03396121000009,2.204840225000055],[101.03389968000005,2.2046359490000214],[101.03381661800006,2.204360182000073],[101.03377711200005,2.2042290150000667],[101.03373561600006,2.2040912460000754],[101.03363728900007,2.2037648030000696],[101.03359416000006,2.2036216100000274],[101.03355103000007,2.203478417000042],[101.03347585200004,2.2032288280000216],[101.03343330200005,2.203087559000039],[101.03348160400009,2.2030169330000717],[101.03330638400007,2.202722366000046],[101.03312643500004,2.202370556000062],[101.03323981800008,2.202211499000043],[101.03318209900004,2.2022535590000416],[101.03292126900004,2.201387597000064],[101.03279877300008,2.2009809060000407],[101.03260851200008,2.2005108300000416],[101.03188570400005,2.198724994000031],[101.03181084900007,2.198540051000066],[101.03126495500004,2.1971913150000546],[101.03119660200008,2.1970224340000755],[101.02918243200008,2.192811733000042],[101.02809510600008,2.189556466000056],[101.02805419500004,2.18943398600004],[101.02793692300008,2.189082896000059],[101.02789829100004,2.1889672400000677],[101.02783203000007,2.188768861000028],[101.02674817700006,2.1863462930000424],[101.02686110300004,2.186199400000021],[101.02705737100007,2.1859246260000305],[101.02753326300007,2.1861625720000575],[101.02800915600005,2.1866384630000653],[101.02800915600005,2.1868764090000354],[101.02812812800005,2.187649734000047],[101.02878248000007,2.187828194000076],[101.02973426500006,2.1884825460000457],[101.03038861600004,2.1894938170000273],[101.03080502200004,2.190862007000021],[101.03113218700008,2.1914345450000496],[101.03128091500008,2.1916948180000304],[101.03205424000004,2.1928250630000434],[101.03205424000004,2.1935389000000214],[101.03247064400006,2.194312225000033],[101.03264910400009,2.194847603000028],[101.03360088900007,2.1944311990000642],[101.03437421400008,2.1937173600000506],[101.03538548500006,2.1933604410000385],[101.03681316100005,2.1933604410000385],[101.03812186400006,2.1922896830000695],[101.03945484000008,2.188752854000029],[101.03956007900007,2.1884736220000605],[101.03990646000005,2.1875545550000197],[101.04085824500004,2.1867217440000672],[101.04228592200008,2.185650987000031],[101.04365411200007,2.1830930670000726],[101.04383257200004,2.1824982020000334],[101.04418949000006,2.181962823000049],[101.04520076100005,2.181427445000054],[101.04841303300009,2.179642849000061],[101.05019762900008,2.1783936310000627],[101.05150633400007,2.177263387000039],[101.05233837700007,2.176477567000063],[101.05260849500007,2.1762224570000512],[101.05364784800008,2.1752408450000758],[101.05493275600008,2.174562698000045],[101.05685486600004,2.1738878930000283],[101.05775184500004,2.17269280000005],[101.05897739100004,2.171059941000067],[101.05956872900003,2.1702720720000457],[101.06058920300006,2.168912442000021],[101.06188615400004,2.1671844440000427],[101.06285099900003,2.165898931000072],[101.06398091700004,2.164393477000033],[101.06491361000008,2.16315079900005],[101.06585759100005,2.1619433410000397],[101.06738328100005,2.1599174160000416],[101.06890267100005,2.157835938000062],[101.06986826500008,2.1565494190000436],[101.07027394400006,2.156008909000036],[101.07096931700005,2.1550824210000314],[101.07212208200008,2.1536041350000232],[101.07297293300007,2.1525281050000444],[101.07356783200004,2.1516202630000407],[101.07496602900005,2.149757358000045],[101.07575124900006,2.1487111590000723],[101.07643675000008,2.14779782100004],[101.07703955900007,2.146994659000029],[101.07764236800006,2.146191495000039],[101.07833250100003,2.1452719860000684],[101.07973060200004,2.143486152000037],[101.08029682600005,2.143440854000062],[101.08120449200004,2.1433682410000756],[101.08211006300007,2.1432957950000286],[101.08268113400004,2.142344010000045],[101.08153899200005,2.1421536530000367],[101.08063608500004,2.1422598780000612],[101.08173636300006,2.14079390400002],[101.08306184800006,2.140440442000056],[101.08391845100005,2.1395838360000425],[101.08467988200005,2.1385368720000315],[101.08572684400008,2.1386320510000587],[101.08696416300006,2.1384416940000506],[101.08705934100004,2.1369188380000423],[101.08749691800006,2.1358248980000667],[101.08746099800004,2.135788977000061],[101.08674716100006,2.1351941110000325],[101.08686613300006,2.134123354000053],[101.08662818500005,2.133171569000069],[101.08710407800004,2.1324577320000344],[101.08829380900005,2.133409517000075],[101.08900764700007,2.1336474630000453],[101.08936456700008,2.1324577320000344],[101.09031635100007,2.1317438930000208],[101.09162505400008,2.1324577320000344],[101.09179626600007,2.1325604590000466],[101.09230153400006,2.131691404000037],[101.09181826400004,2.131208134000076],[101.09210379800004,2.130351527000073],[101.09124719300007,2.129209385000024],[101.09134237100005,2.127781708000043],[101.09238933300009,2.126925103000076],[101.09362665300006,2.1265443890000597],[101.09486397400008,2.125497426000038],[101.09572418000005,2.125361604000034],[101.09600972400006,2.1253165170000443],[101.09583978100005,2.1250885600000515],[101.09802363700004,2.1248612820000403],[101.09832416200004,2.1258892360000345],[101.09982320700004,2.125090834000048],[101.09999271200007,2.1252462010000386],[101.10058124500006,2.1280784130000256],[101.09970781300007,2.1297407580000254],[101.09794822300006,2.133089670000061],[101.09737483300006,2.134264508000058],[101.09714467300006,2.1347360920000256],[101.09432872300005,2.1373736480000503],[101.09471376400006,2.1394557100000497],[101.09391630100004,2.1404295850000494],[101.09200637900005,2.1421258220000254],[101.09131457500007,2.142740224000022],[101.09200779400004,2.1431680780000306],[101.09224207000005,2.1433126710000465],[101.09414177400004,2.14448515600003],[101.09544909900006,2.145292030000064],[101.09650506100007,2.1459437640000374],[101.09812116500007,2.1469412120000584],[101.09917951800008,2.147594421000065],[101.09935928300007,2.1477053690000503],[101.10099724600008,2.1450005770000757],[101.10202756800004,2.1432991910000396],[101.10275229200005,2.1421024450000345],[101.10460336600005,2.1393007760000273],[101.10489464800008,2.1387746990000664],[101.10513690700009,2.138337161000038],[101.10685645700005,2.1395838360000425],[101.11004413000006,2.142691816000024],[101.11007360900004,2.1426111300000343],[101.11285269700005,2.145675256000061],[101.11018770400005,2.1488161440000226],[101.10771306300006,2.1506245340000305],[101.10771306300006,2.1519570330000306],[101.10818895500006,2.153003996000052],[101.10885520500005,2.1525281050000444],[101.10885520500005,2.151290783000036],[101.10971181000008,2.150719714000047],[101.11066359500006,2.1511004280000634],[101.11018770400005,2.152432925000028],[101.10942627400004,2.1531943530000603],[101.10856966900008,2.154050959000074],[101.10714199200004,2.1534798880000494],[101.10661293500004,2.153573250000022],[101.10666554300008,2.1533633990000567],[101.10580949300004,2.1519570330000306],[101.10343003400004,2.1535750670000198],[101.10428663900007,2.1555738130000464],[101.10636332000007,2.154568968000035],[101.10613250800009,2.1554896830000416],[101.10579821700009,2.155992377000075],[101.10685645700005,2.1569063120000465],[101.10771306300006,2.1580484540000384],[101.10771306300006,2.1593809510000597],[101.10847448900006,2.159809254000038],[101.10923591600005,2.1602375580000626],[101.10918624300007,2.1606349480000517],[101.10904556000008,2.161760412000035],[101.10846886300004,2.163325738000026],[101.10778254300004,2.1639628170000265],[101.10673916200005,2.1649313350000625],[101.10555891100006,2.166026903000045],[101.10392128000007,2.167547038000066],[101.10293578800008,2.1684618220000402],[101.10171994200005,2.169590431000074],[101.10125010800004,2.170026556000039],[101.09995978300009,2.1712243020000415],[101.09882447600006,2.1722781520000467],[101.09782127500006,2.1732093740000664],[101.09687378400008,2.1740888840000707],[101.09598729800007,2.174911765000047],[101.09466789300006,2.1743842570000425],[101.09369570900009,2.1741702020000275],[101.09204991800004,2.173894801000074],[101.09076568400008,2.1737637220000465],[101.08962169500006,2.1738198270000453],[101.08848714200008,2.1739285990000212],[101.08706480100005,2.17428239700007],[101.08572041200006,2.174616803000049],[101.08510445800005,2.1747816270000726],[101.08437734200004,2.17520724000002],[101.08353696100005,2.175764018000052],[101.08287682500008,2.1762621400000626],[101.08224287400009,2.177008294000075],[101.08174182700009,2.1777193540000326],[101.08102290600004,2.1787428640000712],[101.08069750000004,2.1792310220000672],[101.08009658400005,2.1805958120000355],[101.07989759600008,2.1814675310000666],[101.07969033900008,2.182460709000054],[101.07955267400007,2.1839529510000375],[101.07962013000008,2.1849356070000567],[101.07978736700005,2.1860015200000475],[101.08025316200008,2.187267984000073],[101.08044127700003,2.187779456000044],[101.08071895700004,2.1885344480000413],[101.08098797500008,2.189265886000044],[101.08134555500004,2.190316519000021],[101.08164095000006,2.191184442000065],[101.08208481300005,2.1924885870000708],[101.08241094100003,2.1934467990000712],[101.08273279900004,2.194392460000074],[101.08291328300004,2.1954365220000227],[101.07945437200004,2.198589102000028],[101.07803641000004,2.199943564000023],[101.07721791200004,2.200493234000021],[101.07437325600006,2.2022485720000304]],[[101.05307285000004,2.177728939000076],[101.05320485700008,2.177601146000029],[101.05325674100004,2.177409762000025],[101.05307285000004,2.177728939000076]],[[101.05449506900004,2.176352125000051],[101.05393629700006,2.1768930580000756],[101.05526551500009,2.175694098000065],[101.05449506900004,2.176352125000051]]]]}}]}
