{
  "type": "FeatureCollection",
  "name": "social-forestry-derived-2025",
  "source": "Digitasi lampiran peta keputusan PS tahun 2025",
  "features": [
    {
      "type": "Feature",
      "properties": {
        "PROFILE_KEY": "drive-audit:kampar-kth-mitra-bumi",
        "NAMA_PROV": "Riau",
        "NAMA_KAB": "Kampar",
        "NAMA_KEC": "XIII Koto Kampar",
        "NAMA_DESA": "Balung",
        "NAMA_HKM": "KTH MITRA BUMI",
        "NO_IUPHKM": "9637 TAHUN 2025",
        "TGL_IUPHKM": "2025-09-26",
        "L_IUPHKM": 918,
        "LUAS_POLI": 891.65,
        "Ket": "HKm",
        "SPATIAL_SOURCE": "Digitasi lampiran peta keputusan",
        "SPATIAL_CONFIDENCE": "derived-from-georeferenced-map"
      },
      "geometry": {
        "type": "Polygon",
        "coordinates": [[
          [101.02712329, 0.18823797], [101.02082192, 0.18206176],
          [101.01260274, 0.18415077], [101.00255708, 0.18369664],
          [100.99981735, 0.17960945], [101.00054795, 0.17152589],
          [101.00630137, 0.17061762], [101.00977169, 0.16771117],
          [101.00931507, 0.15526794], [101.01278539, 0.15272480],
          [101.01625571, 0.15408719], [101.01863014, 0.15644868],
          [101.03141553, 0.16135332], [101.03881279, 0.16562216],
          [101.03589041, 0.16952770], [101.03369863, 0.16916440],
          [101.03232877, 0.17007266], [101.02812785, 0.17915531],
          [101.02675799, 0.18024523], [101.02803653, 0.18623978],
          [101.02712329, 0.18823797]
        ]]
      }
    },
    {
      "type": "Feature",
      "properties": {
        "PROFILE_KEY": "8617 tahun 2025",
        "NAMA_PROV": "Riau",
        "NAMA_KAB": "Rokan Hulu",
        "NAMA_KEC": "Rokan IV Koto",
        "NAMA_DESA": "Sikebau Jaya",
        "NAMA_HKM": "LPHD SIKEBAU JAYA",
        "NO_IUPHKM": "8617 TAHUN 2025",
        "TGL_IUPHKM": "2025-09-22",
        "L_IUPHKM": 7.52,
        "LUAS_POLI": 6.18,
        "Ket": "HD",
        "SPATIAL_SOURCE": "Digitasi lampiran peta keputusan",
        "SPATIAL_CONFIDENCE": "derived-from-georeferenced-map"
      },
      "geometry": {
        "type": "Polygon",
        "coordinates": [[
          [100.49031250, 0.58152778], [100.48972222, 0.58138889],
          [100.48947917, 0.58114583], [100.48934028, 0.58121528],
          [100.48906250, 0.58083333], [100.48902778, 0.57958333],
          [100.48927083, 0.57881944], [100.48812500, 0.57819444],
          [100.48802083, 0.57670139], [100.48822917, 0.57642361],
          [100.48857639, 0.57677083], [100.48916667, 0.57701389],
          [100.48906250, 0.57736111], [100.48916667, 0.57784722],
          [100.48937500, 0.57819444], [100.48944444, 0.57809028],
          [100.49010417, 0.57871528], [100.49006944, 0.58024306],
          [100.49041667, 0.58104167], [100.49031250, 0.58152778]
        ]]
      }
    },
    {
      "type": "Feature",
      "properties": {
        "PROFILE_KEY": "8606 tahun 2025",
        "NAMA_PROV": "Riau",
        "NAMA_KAB": "Bengkalis",
        "NAMA_KEC": "Rupat Utara",
        "NAMA_DESA": "Suka Damai",
        "NAMA_HKM": "KELOMPOK SADAR WISATA DESA SUKA DAMAI",
        "NO_IUPHKM": "8606 TAHUN 2025",
        "TGL_IUPHKM": "2025-09-19",
        "L_IUPHKM": 120,
        "LUAS_POLI": 99.16,
        "Ket": "HKm",
        "SPATIAL_SOURCE": "Digitasi lampiran peta keputusan",
        "SPATIAL_CONFIDENCE": "derived-from-georeferenced-map"
      },
      "geometry": {
        "type": "MultiPolygon",
        "coordinates": [
          [[
            [101.58001202, 2.07309783], [101.57975455, 2.07336957],
            [101.57932544, 2.07273551], [101.57846722, 2.07273551],
            [101.57760899, 2.07327899], [101.57597837, 2.07219203],
            [101.57597837, 2.07192029], [101.57486268, 2.07092391],
            [101.57597837, 2.07056159], [101.57709406, 2.07137681],
            [101.57735153, 2.07182971], [101.57846722, 2.07182971],
            [101.57915379, 2.07264493], [101.57984037, 2.07264493],
            [101.58001202, 2.07309783]
          ]],
          [[
            [101.58275832, 2.07264493], [101.58198593, 2.07273551],
            [101.58001202, 2.07065217], [101.57692242, 2.06902174],
            [101.57632166, 2.06766304], [101.57589255, 2.06748188],
            [101.57546344, 2.06612319], [101.58095606, 2.07001812],
            [101.58267250, 2.07192029], [101.58275832, 2.07264493]
          ]],
          [[
            [101.58447477, 2.06576087], [101.58129935, 2.06748188],
            [101.57649331, 2.06449275], [101.57494851, 2.05797101],
            [101.57177309, 2.05525362], [101.57108651, 2.05081522],
            [101.57237384, 2.05063406], [101.57245966, 2.05190217],
            [101.57812393, 2.05380435], [101.57795228, 2.05525362],
            [101.57958290, 2.05842391], [101.57778064, 2.05996377],
            [101.57726571, 2.06213768], [101.58035530, 2.06286232],
            [101.58112770, 2.06485507], [101.58464641, 2.06503623],
            [101.58447477, 2.06576087]
          ]]
        ]
      }
    }
  ]
}
