{
  "type": "FeatureCollection",
  "name": "Perhutanan_Sosial_Intervensi_YG",
  "updated": "2026-09-20",
  "visibility": "public",
  "description": "Empat wilayah Perhutanan Sosial yang menjadi lokasi intervensi Yayasan Gambut. Geometri wilayah kelola dipisahkan dari geometri kegiatan program.",
  "features": [
    {
      "type": "Feature",
      "properties": {
        "YG_PS_ID": "YG-PS-DAYUN",
        "NAMA_HKM": "KTH Mandiri Sejahtera",
        "Ket": "Hutan Kemasyarakatan (HKm)",
        "NAMA_DESA": "Dayun",
        "NAMA_KEC": "Dayun",
        "NAMA_KAB": "Siak",
        "NAMA_PROV": "Riau",
        "L_IUPHKM": 980,
        "NO_IUPHKM": "SK.5760/Menlhk-PSKL/PKPS/PSL.0/9/2021",
        "PROFILE_KEY": "sk.5760/menlhk-pskl/pkps/psl.0/9/2021",
        "Intervensi_YG": "Penguatan KTH dan KUPS Rimba Sejahtera, agroforestri gambut, kebun nanas, pengembangan usaha dan monitoring WebGIS.",
        "Status_Program": "Aktif"
      },
      "geometry": {
        "type": "Polygon",
        "coordinates": [
          [
            [
              102.013291,
              0.585797
            ],
            [
              102.001839,
              0.561204
            ],
            [
              101.980435,
              0.559236
            ],
            [
              101.973758,
              0.55867
            ],
            [
              101.971594,
              0.558402
            ],
            [
              101.971663,
              0.559657
            ],
            [
              101.971649,
              0.560742
            ],
            [
              101.971478,
              0.561556
            ],
            [
              101.971292,
              0.562198
            ],
            [
              101.971192,
              0.563026
            ],
            [
              101.971149,
              0.56324
            ],
            [
              101.971368,
              0.563476
            ],
            [
              101.971468,
              0.563818
            ],
            [
              101.971454,
              0.564275
            ],
            [
              101.971354,
              0.564618
            ],
            [
              101.971268,
              0.565032
            ],
            [
              101.971454,
              0.565346
            ],
            [
              101.971696,
              0.565574
            ],
            [
              101.972025,
              0.565589
            ],
            [
              101.972453,
              0.565689
            ],
            [
              101.972867,
              0.565689
            ],
            [
              101.97321,
              0.565803
            ],
            [
              101.973495,
              0.565817
            ],
            [
              101.973938,
              0.565689
            ],
            [
              101.974152,
              0.565789
            ],
            [
              101.974266,
              0.566131
            ],
            [
              101.974309,
              0.566631
            ],
            [
              101.974452,
              0.567316
            ],
            [
              101.974495,
              0.567944
            ],
            [
              101.974582,
              0.56932
            ],
            [
              101.974582,
              0.570093
            ],
            [
              101.974701,
              0.570777
            ],
            [
              101.97476,
              0.571402
            ],
            [
              101.974819,
              0.571997
            ],
            [
              101.974968,
              0.572591
            ],
            [
              101.974968,
              0.573216
            ],
            [
              101.974968,
              0.573722
            ],
            [
              101.974671,
              0.574079
            ],
            [
              101.974373,
              0.574376
            ],
            [
              101.974701,
              0.574852
            ],
            [
              101.974701,
              0.575209
            ],
            [
              101.974879,
              0.575506
            ],
            [
              101.974998,
              0.575952
            ],
            [
              101.974998,
              0.576339
            ],
            [
              101.975266,
              0.576607
            ],
            [
              101.975385,
              0.576666
            ],
            [
              101.975414,
              0.577112
            ],
            [
              101.975563,
              0.577469
            ],
            [
              101.975801,
              0.577826
            ],
            [
              101.976426,
              0.579046
            ],
            [
              101.976277,
              0.579403
            ],
            [
              101.976009,
              0.580057
            ],
            [
              101.97592,
              0.580414
            ],
            [
              101.976069,
              0.581425
            ],
            [
              101.976336,
              0.582734
            ],
            [
              101.976485,
              0.583715
            ],
            [
              101.976604,
              0.584429
            ],
            [
              101.976693,
              0.585292
            ],
            [
              101.976574,
              0.585708
            ],
            [
              101.976693,
              0.586125
            ],
            [
              101.976902,
              0.586482
            ],
            [
              101.97702,
              0.587582
            ],
            [
              101.97711,
              0.588117
            ],
            [
              101.977169,
              0.588772
            ],
            [
              101.977288,
              0.589515
            ],
            [
              101.977407,
              0.590229
            ],
            [
              101.977556,
              0.590527
            ],
            [
              101.980322,
              0.58898
            ],
            [
              101.980738,
              0.588653
            ],
            [
              101.980798,
              0.588474
            ],
            [
              101.980857,
              0.588058
            ],
            [
              101.980976,
              0.587761
            ],
            [
              101.981452,
              0.587523
            ],
            [
              101.982404,
              0.587106
            ],
            [
              101.984337,
              0.586273
            ],
            [
              101.986271,
              0.585054
            ],
            [
              101.988144,
              0.583656
            ],
            [
              101.988412,
              0.583418
            ],
            [
              101.992963,
              0.583537
            ],
            [
              101.993231,
              0.583269
            ],
            [
              101.993718,
              0.583278
            ],
            [
              101.994951,
              0.581919
            ],
            [
              101.995208,
              0.581719
            ],
            [
              101.995608,
              0.581662
            ],
            [
              101.998977,
              0.579192
            ],
            [
              102.000676,
              0.581691
            ],
            [
              102.003231,
              0.580006
            ],
            [
              102.006201,
              0.584503
            ],
            [
              102.007443,
              0.583418
            ],
            [
              102.0081,
              0.584546
            ],
            [
              102.008685,
              0.584474
            ],
            [
              102.009156,
              0.585174
            ],
            [
              102.009328,
              0.585759
            ],
            [
              102.009685,
              0.586488
            ],
            [
              102.009956,
              0.586944
            ],
            [
              102.010156,
              0.587258
            ],
            [
              102.010241,
              0.587544
            ],
            [
              102.010455,
              0.587758
            ],
            [
              102.01057,
              0.587701
            ],
            [
              102.013291,
              0.585797
            ]
          ]
        ]
      }
    },
    {
      "type": "Feature",
      "properties": {
        "YG_PS_ID": "YG-PS-SIARANG-ARANG",
        "NAMA_HKM": "KTH Siarang-Arang Lestari",
        "Ket": "Hutan Kemasyarakatan (HKm)",
        "NAMA_DESA": "Siarang-Arang",
        "NAMA_KEC": "Pujud",
        "NAMA_KAB": "Rokan Hilir",
        "NAMA_PROV": "Riau",
        "L_IUPHKM": 617,
        "NO_IUPHKM": "SK.7398/MENLHK-PSKL/PKPS/PSL.0/7/2023",
        "PROFILE_KEY": "sk.7398/menlhk-pskl/pkps/psl.0/7/2023",
        "Intervensi_YG": "Penguatan kelembagaan Perhutanan Sosial, pengamanan kawasan dan pengembangan usaha kelompok.",
        "Status_Program": "Aktif"
      },
      "geometry": {
        "type": "Polygon",
        "coordinates": [
          [
            [
              100.734746,
              1.406197
            ],
            [
              100.735781,
              1.405769
            ],
            [
              100.740314,
              1.405341
            ],
            [
              100.742277,
              1.404948
            ],
            [
              100.743026,
              1.404627
            ],
            [
              100.743883,
              1.404199
            ],
            [
              100.743954,
              1.402985
            ],
            [
              100.742848,
              1.4022
            ],
            [
              100.74192,
              1.400415
            ],
            [
              100.741777,
              1.399773
            ],
            [
              100.741884,
              1.398916
            ],
            [
              100.742312,
              1.398417
            ],
            [
              100.74242,
              1.398024
            ],
            [
              100.742241,
              1.397846
            ],
            [
              100.741706,
              1.39731
            ],
            [
              100.740992,
              1.39499
            ],
            [
              100.738244,
              1.388958
            ],
            [
              100.735817,
              1.385353
            ],
            [
              100.734746,
              1.38339
            ],
            [
              100.733461,
              1.381285
            ],
            [
              100.731998,
              1.378857
            ],
            [
              100.731569,
              1.377929
            ],
            [
              100.731034,
              1.375681
            ],
            [
              100.730891,
              1.373896
            ],
            [
              100.730962,
              1.372576
            ],
            [
              100.731105,
              1.371612
            ],
            [
              100.731641,
              1.370827
            ],
            [
              100.732426,
              1.37022
            ],
            [
              100.732926,
              1.370042
            ],
            [
              100.733318,
              1.369506
            ],
            [
              100.733282,
              1.368435
            ],
            [
              100.732319,
              1.366651
            ],
            [
              100.729963,
              1.362903
            ],
            [
              100.728821,
              1.361083
            ],
            [
              100.726822,
              1.357407
            ],
            [
              100.717864,
              1.362903
            ],
            [
              100.721004,
              1.369934
            ],
            [
              100.721361,
              1.373718
            ],
            [
              100.72361,
              1.379
            ],
            [
              100.724145,
              1.384068
            ],
            [
              100.727179,
              1.390493
            ],
            [
              100.727036,
              1.390921
            ],
            [
              100.726751,
              1.391314
            ],
            [
              100.726822,
              1.391992
            ],
            [
              100.727143,
              1.392813
            ],
            [
              100.727607,
              1.393634
            ],
            [
              100.730034,
              1.396382
            ],
            [
              100.731426,
              1.398916
            ],
            [
              100.732497,
              1.400951
            ],
            [
              100.734032,
              1.401343
            ],
            [
              100.735174,
              1.402343
            ],
            [
              100.734924,
              1.403735
            ],
            [
              100.734317,
              1.405198
            ],
            [
              100.734246,
              1.405662
            ],
            [
              100.734282,
              1.405912
            ],
            [
              100.734746,
              1.406197
            ]
          ]
        ]
      }
    },
    {
      "type": "Feature",
      "properties": {
        "YG_PS_ID": "YG-PS-TELUK-PIYAI-PESISIR",
        "NAMA_HKM": "KTH Makmur Pesisir",
        "Ket": "Hutan Kemasyarakatan (HKm)",
        "NAMA_DESA": "Teluk Piyai Pesisir",
        "NAMA_KEC": "Kubu",
        "NAMA_KAB": "Rokan Hilir",
        "NAMA_PROV": "Riau",
        "L_IUPHKM": 143,
        "NO_IUPHKM": "SK.9863/MENLHK-PSKL/PKPS/PSL.0/9/2023",
        "PROFILE_KEY": "sk.9863/menlhk-pskl/pkps/psl.0/9/2023",
        "Intervensi_YG": "Restorasi pesisir dan penanaman 1.000 bibit mangrove melalui kegiatan Ma Earth.",
        "Status_Program": "Aktif"
      },
      "geometry": {
        "type": "Polygon",
        "coordinates": [
          [
            [
              100.544306,
              2.168978
            ],
            [
              100.542767,
              2.170293
            ],
            [
              100.539489,
              2.173498
            ],
            [
              100.538262,
              2.174698
            ],
            [
              100.538196,
              2.174761
            ],
            [
              100.535001,
              2.17781
            ],
            [
              100.532477,
              2.180218
            ],
            [
              100.531927,
              2.180743
            ],
            [
              100.529861,
              2.182724
            ],
            [
              100.527394,
              2.185066
            ],
            [
              100.528966,
              2.186911
            ],
            [
              100.529136,
              2.186807
            ],
            [
              100.529319,
              2.186706
            ],
            [
              100.52948,
              2.186595
            ],
            [
              100.529635,
              2.186465
            ],
            [
              100.529784,
              2.186325
            ],
            [
              100.529919,
              2.186196
            ],
            [
              100.530048,
              2.186068
            ],
            [
              100.530172,
              2.185932
            ],
            [
              100.530328,
              2.185776
            ],
            [
              100.530464,
              2.185634
            ],
            [
              100.530604,
              2.185479
            ],
            [
              100.53076,
              2.185337
            ],
            [
              100.530928,
              2.185199
            ],
            [
              100.531083,
              2.185084
            ],
            [
              100.531227,
              2.184974
            ],
            [
              100.531275,
              2.18493
            ],
            [
              100.531292,
              2.184906
            ],
            [
              100.531349,
              2.184762
            ],
            [
              100.531359,
              2.18471
            ],
            [
              100.53137,
              2.184684
            ],
            [
              100.531482,
              2.184531
            ],
            [
              100.531493,
              2.18452
            ],
            [
              100.531501,
              2.184515
            ],
            [
              100.531502,
              2.184515
            ],
            [
              100.531502,
              2.184515
            ],
            [
              100.531504,
              2.184512
            ],
            [
              100.531512,
              2.184507
            ],
            [
              100.531645,
              2.184373
            ],
            [
              100.531652,
              2.184366
            ],
            [
              100.531814,
              2.184274
            ],
            [
              100.531978,
              2.18419
            ],
            [
              100.531994,
              2.18418
            ],
            [
              100.532129,
              2.184058
            ],
            [
              100.532279,
              2.183906
            ],
            [
              100.532459,
              2.183767
            ],
            [
              100.532618,
              2.18366
            ],
            [
              100.532679,
              2.183623
            ],
            [
              100.532707,
              2.183612
            ],
            [
              100.532848,
              2.183523
            ],
            [
              100.533016,
              2.183372
            ],
            [
              100.533177,
              2.183228
            ],
            [
              100.533328,
              2.183099
            ],
            [
              100.53348,
              2.182979
            ],
            [
              100.533629,
              2.182859
            ],
            [
              100.533777,
              2.182719
            ],
            [
              100.533921,
              2.182603
            ],
            [
              100.53409,
              2.182485
            ],
            [
              100.534237,
              2.182378
            ],
            [
              100.534373,
              2.18226
            ],
            [
              100.534534,
              2.182114
            ],
            [
              100.534635,
              2.182032
            ],
            [
              100.534644,
              2.182027
            ],
            [
              100.534644,
              2.182027
            ],
            [
              100.534785,
              2.181911
            ],
            [
              100.53493,
              2.181767
            ],
            [
              100.535073,
              2.18162
            ],
            [
              100.535237,
              2.181482
            ],
            [
              100.535421,
              2.181348
            ],
            [
              100.535577,
              2.181233
            ],
            [
              100.535729,
              2.18111
            ],
            [
              100.535786,
              2.181063
            ],
            [
              100.535919,
              2.180905
            ],
            [
              100.536015,
              2.180747
            ],
            [
              100.536132,
              2.180577
            ],
            [
              100.536192,
              2.180504
            ],
            [
              100.536325,
              2.180395
            ],
            [
              100.536485,
              2.180308
            ],
            [
              100.536579,
              2.180244
            ],
            [
              100.536707,
              2.180115
            ],
            [
              100.536767,
              2.180065
            ],
            [
              100.536855,
              2.179991
            ],
            [
              100.537032,
              2.179858
            ],
            [
              100.537184,
              2.179755
            ],
            [
              100.537354,
              2.179645
            ],
            [
              100.537387,
              2.179626
            ],
            [
              100.537512,
              2.179518
            ],
            [
              100.537627,
              2.179376
            ],
            [
              100.537649,
              2.179353
            ],
            [
              100.537816,
              2.179239
            ],
            [
              100.537845,
              2.179226
            ],
            [
              100.537909,
              2.179183
            ],
            [
              100.538043,
              2.179052
            ],
            [
              100.538191,
              2.178892
            ],
            [
              100.538359,
              2.178763
            ],
            [
              100.538517,
              2.178636
            ],
            [
              100.53869,
              2.178526
            ],
            [
              100.53882,
              2.178437
            ],
            [
              100.538971,
              2.178285
            ],
            [
              100.539115,
              2.178137
            ],
            [
              100.53926,
              2.178008
            ],
            [
              100.53942,
              2.177888
            ],
            [
              100.539613,
              2.177766
            ],
            [
              100.539768,
              2.177643
            ],
            [
              100.539904,
              2.177509
            ],
            [
              100.540034,
              2.177377
            ],
            [
              100.540178,
              2.177235
            ],
            [
              100.540259,
              2.177156
            ],
            [
              100.540314,
              2.177101
            ],
            [
              100.540341,
              2.177078
            ],
            [
              100.540533,
              2.176984
            ],
            [
              100.540624,
              2.176949
            ],
            [
              100.540664,
              2.176926
            ],
            [
              100.540818,
              2.176791
            ],
            [
              100.540948,
              2.176643
            ],
            [
              100.54111,
              2.176495
            ],
            [
              100.541271,
              2.176387
            ],
            [
              100.541451,
              2.176284
            ],
            [
              100.541599,
              2.176168
            ],
            [
              100.541757,
              2.176022
            ],
            [
              100.541899,
              2.175884
            ],
            [
              100.542064,
              2.175737
            ],
            [
              100.542197,
              2.175614
            ],
            [
              100.542352,
              2.175474
            ],
            [
              100.542496,
              2.175341
            ],
            [
              100.542643,
              2.175228
            ],
            [
              100.542823,
              2.175124
            ],
            [
              100.543011,
              2.175009
            ],
            [
              100.543054,
              2.174981
            ],
            [
              100.543212,
              2.174829
            ],
            [
              100.543274,
              2.174754
            ],
            [
              100.543416,
              2.174633
            ],
            [
              100.543597,
              2.174511
            ],
            [
              100.543772,
              2.174386
            ],
            [
              100.543937,
              2.174269
            ],
            [
              100.544115,
              2.174124
            ],
            [
              100.544253,
              2.174006
            ],
            [
              100.544414,
              2.173867
            ],
            [
              100.544591,
              2.173713
            ],
            [
              100.544763,
              2.173562
            ],
            [
              100.544925,
              2.173434
            ],
            [
              100.545098,
              2.173303
            ],
            [
              100.545271,
              2.173181
            ],
            [
              100.545431,
              2.173057
            ],
            [
              100.545573,
              2.172938
            ],
            [
              100.545717,
              2.172817
            ],
            [
              100.545855,
              2.172692
            ],
            [
              100.546003,
              2.17257
            ],
            [
              100.546156,
              2.172449
            ],
            [
              100.546322,
              2.172319
            ],
            [
              100.546344,
              2.172302
            ],
            [
              100.546472,
              2.172201
            ],
            [
              100.54664,
              2.172076
            ],
            [
              100.546821,
              2.171961
            ],
            [
              100.546972,
              2.171852
            ],
            [
              100.547141,
              2.171715
            ],
            [
              100.547271,
              2.171573
            ],
            [
              100.547371,
              2.17142
            ],
            [
              100.547458,
              2.171245
            ],
            [
              100.547508,
              2.17116
            ],
            [
              100.547572,
              2.171086
            ],
            [
              100.547592,
              2.171071
            ],
            [
              100.547632,
              2.171051
            ],
            [
              100.547646,
              2.171047
            ],
            [
              100.547647,
              2.171048
            ],
            [
              100.547705,
              2.171034
            ],
            [
              100.547757,
              2.171035
            ],
            [
              100.547808,
              2.171036
            ],
            [
              100.547866,
              2.171036
            ],
            [
              100.547911,
              2.171032
            ],
            [
              100.547941,
              2.171014
            ],
            [
              100.547982,
              2.17096
            ],
            [
              100.548012,
              2.170913
            ],
            [
              100.548042,
              2.170864
            ],
            [
              100.548071,
              2.170808
            ],
            [
              100.54811,
              2.170764
            ],
            [
              100.548149,
              2.170729
            ],
            [
              100.548185,
              2.170693
            ],
            [
              100.548198,
              2.170676
            ],
            [
              100.548225,
              2.170645
            ],
            [
              100.54824,
              2.170616
            ],
            [
              100.548242,
              2.170592
            ],
            [
              100.548236,
              2.170559
            ],
            [
              100.548228,
              2.170536
            ],
            [
              100.548219,
              2.170522
            ],
            [
              100.548198,
              2.170514
            ],
            [
              100.548178,
              2.170512
            ],
            [
              100.548159,
              2.170513
            ],
            [
              100.548109,
              2.170552
            ],
            [
              100.548057,
              2.170608
            ],
            [
              100.548021,
              2.170646
            ],
            [
              100.548012,
              2.170653
            ],
            [
              100.54792,
              2.170718
            ],
            [
              100.5479,
              2.170727
            ],
            [
              100.547742,
              2.170759
            ],
            [
              100.547626,
              2.170761
            ],
            [
              100.5476,
              2.170759
            ],
            [
              100.547419,
              2.170682
            ],
            [
              100.547391,
              2.170663
            ],
            [
              100.547344,
              2.170614
            ],
            [
              100.547317,
              2.170567
            ],
            [
              100.547309,
              2.170546
            ],
            [
              100.547309,
              2.170508
            ],
            [
              100.547313,
              2.170485
            ],
            [
              100.547349,
              2.17043
            ],
            [
              100.547363,
              2.170408
            ],
            [
              100.547375,
              2.170397
            ],
            [
              100.547401,
              2.170384
            ],
            [
              100.54742,
              2.170378
            ],
            [
              100.547436,
              2.170377
            ],
            [
              100.547549,
              2.170407
            ],
            [
              100.547636,
              2.170419
            ],
            [
              100.547678,
              2.170422
            ],
            [
              100.54775,
              2.170417
            ],
            [
              100.547837,
              2.170399
            ],
            [
              100.547913,
              2.170376
            ],
            [
              100.547961,
              2.170354
            ],
            [
              100.548004,
              2.170333
            ],
            [
              100.548106,
              2.170261
            ],
            [
              100.54813,
              2.170237
            ],
            [
              100.548206,
              2.170068
            ],
            [
              100.54821,
              2.170058
            ],
            [
              100.548229,
              2.17003
            ],
            [
              100.548239,
              2.170021
            ],
            [
              100.548242,
              2.170018
            ],
            [
              100.54831,
              2.169976
            ],
            [
              100.548486,
              2.169909
            ],
            [
              100.548668,
              2.169819
            ],
            [
              100.54885,
              2.169716
            ],
            [
              100.549038,
              2.169601
            ],
            [
              100.549213,
              2.169498
            ],
            [
              100.549389,
              2.169396
            ],
            [
              100.549543,
              2.169279
            ],
            [
              100.549694,
              2.169156
            ],
            [
              100.549827,
              2.169031
            ],
            [
              100.549948,
              2.168937
            ],
            [
              100.55011,
              2.168855
            ],
            [
              100.550272,
              2.168743
            ],
            [
              100.55044,
              2.168599
            ],
            [
              100.550601,
              2.168475
            ],
            [
              100.550764,
              2.16836
            ],
            [
              100.550931,
              2.168265
            ],
            [
              100.551082,
              2.168154
            ],
            [
              100.551222,
              2.168018
            ],
            [
              100.551369,
              2.16791
            ],
            [
              100.55152,
              2.167772
            ],
            [
              100.551551,
              2.167742
            ],
            [
              100.551673,
              2.167576
            ],
            [
              100.551681,
              2.167561
            ],
            [
              100.551686,
              2.167543
            ],
            [
              100.551687,
              2.167543
            ],
            [
              100.551726,
              2.167466
            ],
            [
              100.55175,
              2.167437
            ],
            [
              100.551923,
              2.167346
            ],
            [
              100.552106,
              2.167253
            ],
            [
              100.552285,
              2.16716
            ],
            [
              100.552455,
              2.167044
            ],
            [
              100.552611,
              2.166915
            ],
            [
              100.552761,
              2.16679
            ],
            [
              100.552922,
              2.166635
            ],
            [
              100.553068,
              2.166468
            ],
            [
              100.553208,
              2.16634
            ],
            [
              100.553372,
              2.16621
            ],
            [
              100.553532,
              2.166095
            ],
            [
              100.553677,
              2.165986
            ],
            [
              100.553833,
              2.165863
            ],
            [
              100.553962,
              2.165736
            ],
            [
              100.554094,
              2.165594
            ],
            [
              100.554243,
              2.165447
            ],
            [
              100.554382,
              2.165301
            ],
            [
              100.554523,
              2.165179
            ],
            [
              100.554681,
              2.165062
            ],
            [
              100.554844,
              2.164954
            ],
            [
              100.555007,
              2.164856
            ],
            [
              100.555171,
              2.164727
            ],
            [
              100.555316,
              2.164591
            ],
            [
              100.555464,
              2.164452
            ],
            [
              100.55561,
              2.164332
            ],
            [
              100.555776,
              2.16422
            ],
            [
              100.55594,
              2.164121
            ],
            [
              100.556092,
              2.16401
            ],
            [
              100.556228,
              2.163888
            ],
            [
              100.556368,
              2.163745
            ],
            [
              100.556504,
              2.163608
            ],
            [
              100.556642,
              2.163454
            ],
            [
              100.556696,
              2.163395
            ],
            [
              100.556857,
              2.163274
            ],
            [
              100.557007,
              2.163167
            ],
            [
              100.557147,
              2.163036
            ],
            [
              100.557288,
              2.162921
            ],
            [
              100.557432,
              2.162808
            ],
            [
              100.557577,
              2.162687
            ],
            [
              100.55773,
              2.16257
            ],
            [
              100.557904,
              2.162455
            ],
            [
              100.558082,
              2.162323
            ],
            [
              100.55824,
              2.162218
            ],
            [
              100.558405,
              2.1621
            ],
            [
              100.558576,
              2.161977
            ],
            [
              100.558602,
              2.161959
            ],
            [
              100.558731,
              2.161803
            ],
            [
              100.558825,
              2.161697
            ],
            [
              100.55884,
              2.161686
            ],
            [
              100.558951,
              2.161649
            ],
            [
              100.559003,
              2.161643
            ],
            [
              100.559085,
              2.161617
            ],
            [
              100.55925,
              2.161523
            ],
            [
              100.559422,
              2.161426
            ],
            [
              100.559597,
              2.161313
            ],
            [
              100.559759,
              2.161171
            ],
            [
              100.559911,
              2.161059
            ],
            [
              100.560071,
              2.160955
            ],
            [
              100.560254,
              2.160861
            ],
            [
              100.560414,
              2.160765
            ],
            [
              100.560594,
              2.16066
            ],
            [
              100.560762,
              2.160564
            ],
            [
              100.560942,
              2.16047
            ],
            [
              100.561132,
              2.160363
            ],
            [
              100.561298,
              2.160258
            ],
            [
              100.561477,
              2.160127
            ],
            [
              100.561642,
              2.159988
            ],
            [
              100.561689,
              2.159937
            ],
            [
              100.561759,
              2.15981
            ],
            [
              100.561768,
              2.159782
            ],
            [
              100.561848,
              2.159642
            ],
            [
              100.561863,
              2.159624
            ],
            [
              100.561889,
              2.159608
            ],
            [
              100.562047,
              2.159555
            ],
            [
              100.562233,
              2.159529
            ],
            [
              100.562436,
              2.159519
            ],
            [
              100.562451,
              2.159519
            ],
            [
              100.56263,
              2.159449
            ],
            [
              100.562802,
              2.159342
            ],
            [
              100.562824,
              2.159328
            ],
            [
              100.562966,
              2.159191
            ],
            [
              100.562984,
              2.159175
            ],
            [
              100.563075,
              2.159123
            ],
            [
              100.563244,
              2.159062
            ],
            [
              100.56343,
              2.158962
            ],
            [
              100.563614,
              2.158867
            ],
            [
              100.563783,
              2.158805
            ],
            [
              100.563956,
              2.158737
            ],
            [
              100.564139,
              2.158647
            ],
            [
              100.564217,
              2.158601
            ],
            [
              100.564371,
              2.158458
            ],
            [
              100.564401,
              2.15843
            ],
            [
              100.564566,
              2.158323
            ],
            [
              100.564761,
              2.158247
            ],
            [
              100.564943,
              2.158148
            ],
            [
              100.565107,
              2.158069
            ],
            [
              100.565277,
              2.158004
            ],
            [
              100.56546,
              2.157942
            ],
            [
              100.56565,
              2.157863
            ],
            [
              100.565838,
              2.157759
            ],
            [
              100.566015,
              2.15765
            ],
            [
              100.566169,
              2.157535
            ],
            [
              100.566357,
              2.157439
            ],
            [
              100.566551,
              2.157353
            ],
            [
              100.56675,
              2.157266
            ],
            [
              100.566949,
              2.157185
            ],
            [
              100.567123,
              2.157081
            ],
            [
              100.567258,
              2.156959
            ],
            [
              100.567279,
              2.156944
            ],
            [
              100.567459,
              2.156884
            ],
            [
              100.567648,
              2.156813
            ],
            [
              100.567785,
              2.156738
            ],
            [
              100.567801,
              2.156725
            ],
            [
              100.567826,
              2.156688
            ],
            [
              100.567831,
              2.156676
            ],
            [
              100.567706,
              2.156535
            ],
            [
              100.567684,
              2.156513
            ],
            [
              100.567655,
              2.156468
            ],
            [
              100.567374,
              2.156038
            ],
            [
              100.567355,
              2.155676
            ],
            [
              100.56726,
              2.155391
            ],
            [
              100.567089,
              2.155086
            ],
            [
              100.566917,
              2.154839
            ],
            [
              100.566727,
              2.154705
            ],
            [
              100.566556,
              2.154629
            ],
            [
              100.566289,
              2.154629
            ],
            [
              100.566099,
              2.15461
            ],
            [
              100.565947,
              2.154496
            ],
            [
              100.565794,
              2.154249
            ],
            [
              100.565528,
              2.154211
            ],
            [
              100.565185,
              2.154191
            ],
            [
              100.564976,
              2.154191
            ],
            [
              100.564862,
              2.15442
            ],
            [
              100.564881,
              2.154724
            ],
            [
              100.564995,
              2.155143
            ],
            [
              100.565147,
              2.155486
            ],
            [
              100.56528,
              2.155752
            ],
            [
              100.565414,
              2.156057
            ],
            [
              100.565452,
              2.156323
            ],
            [
              100.565356,
              2.156533
            ],
            [
              100.565071,
              2.156704
            ],
            [
              100.560598,
              2.158513
            ],
            [
              100.560236,
              2.158494
            ],
            [
              100.559722,
              2.158494
            ],
            [
              100.559474,
              2.158532
            ],
            [
              100.557133,
              2.160835
            ],
            [
              100.555039,
              2.162548
            ],
            [
              100.55207,
              2.164395
            ],
            [
              100.551518,
              2.164623
            ],
            [
              100.551308,
              2.16468
            ],
            [
              100.54891,
              2.167402
            ],
            [
              100.546987,
              2.16902
            ],
            [
              100.54653,
              2.169115
            ],
            [
              100.546473,
              2.169039
            ],
            [
              100.546794,
              2.166955
            ],
            [
              100.546167,
              2.167451
            ],
            [
              100.545616,
              2.168963
            ],
            [
              100.544306,
              2.168978
            ]
          ]
        ]
      }
    },
    {
      "type": "Feature",
      "properties": {
        "YG_PS_ID": "YG-PS-IMBO-PUTUIH",
        "NAMA_HKM": "MHA Kenegerian Petapahan",
        "Nama_Lokal": "Hutan Adat Imbo Putuih",
        "Ket": "Hutan Adat",
        "NAMA_DESA": "Petapahan",
        "NAMA_KEC": "Tapung",
        "NAMA_KAB": "Kampar",
        "NAMA_PROV": "Riau",
        "L_IUPHKM": 251,
        "NO_IUPHKM": "SK.7503/MENLHK-PSKL/PKTHA/KUM.1/9/2019",
        "PROFILE_KEY": "sk.7503/menlhk-pskl/pktha/kum.1/9/2019",
        "Intervensi_YG": "Restorasi hutan dan lahan, penanaman 1.200 bibit, menara air, plang restorasi dan petak ukur permanen.",
        "Status_Program": "Aktif"
      },
      "geometry": {
        "type": "Polygon",
        "coordinates": [
          [
            [
              101.060092,
              0.548667
            ],
            [
              101.060086,
              0.548316
            ],
            [
              101.06008,
              0.547965
            ],
            [
              101.06005,
              0.547615
            ],
            [
              101.060044,
              0.547299
            ],
            [
              101.060014,
              0.546966
            ],
            [
              101.059907,
              0.546698
            ],
            [
              101.059836,
              0.546526
            ],
            [
              101.05983,
              0.546306
            ],
            [
              101.059818,
              0.546062
            ],
            [
              101.059848,
              0.54583
            ],
            [
              101.059901,
              0.545491
            ],
            [
              101.059884,
              0.545384
            ],
            [
              101.059866,
              0.545158
            ],
            [
              101.05986,
              0.544902
            ],
            [
              101.05986,
              0.544605
            ],
            [
              101.059854,
              0.544152
            ],
            [
              101.05986,
              0.543998
            ],
            [
              101.059658,
              0.543849
            ],
            [
              101.059503,
              0.543712
            ],
            [
              101.059437,
              0.543421
            ],
            [
              101.059426,
              0.543355
            ],
            [
              101.05892,
              0.543415
            ],
            [
              101.058795,
              0.543224
            ],
            [
              101.058628,
              0.542963
            ],
            [
              101.058343,
              0.542534
            ],
            [
              101.058277,
              0.542415
            ],
            [
              101.058117,
              0.542219
            ],
            [
              101.057938,
              0.541981
            ],
            [
              101.057677,
              0.541654
            ],
            [
              101.057611,
              0.541571
            ],
            [
              101.057659,
              0.541452
            ],
            [
              101.057718,
              0.541315
            ],
            [
              101.05779,
              0.541166
            ],
            [
              101.057813,
              0.541053
            ],
            [
              101.057837,
              0.540952
            ],
            [
              101.057831,
              0.540768
            ],
            [
              101.057819,
              0.540542
            ],
            [
              101.05798,
              0.540316
            ],
            [
              101.05823,
              0.54028
            ],
            [
              101.058492,
              0.540268
            ],
            [
              101.058503,
              0.540214
            ],
            [
              101.058515,
              0.539976
            ],
            [
              101.058973,
              0.540143
            ],
            [
              101.05936,
              0.540173
            ],
            [
              101.059687,
              0.540089
            ],
            [
              101.059878,
              0.540066
            ],
            [
              101.060104,
              0.540137
            ],
            [
              101.060229,
              0.540203
            ],
            [
              101.060282,
              0.540429
            ],
            [
              101.060312,
              0.540583
            ],
            [
              101.060574,
              0.540797
            ],
            [
              101.060818,
              0.540803
            ],
            [
              101.060919,
              0.541006
            ],
            [
              101.061073,
              0.541351
            ],
            [
              101.061091,
              0.541696
            ],
            [
              101.061644,
              0.541725
            ],
            [
              101.061906,
              0.541963
            ],
            [
              101.062275,
              0.541969
            ],
            [
              101.062513,
              0.541898
            ],
            [
              101.062894,
              0.541749
            ],
            [
              101.063078,
              0.541654
            ],
            [
              101.063161,
              0.541315
            ],
            [
              101.063179,
              0.541196
            ],
            [
              101.063334,
              0.541071
            ],
            [
              101.063536,
              0.541136
            ],
            [
              101.06353,
              0.541309
            ],
            [
              101.063804,
              0.541315
            ],
            [
              101.063881,
              0.541589
            ],
            [
              101.063804,
              0.54169
            ],
            [
              101.063613,
              0.541838
            ],
            [
              101.063364,
              0.541981
            ],
            [
              101.063358,
              0.542148
            ],
            [
              101.063625,
              0.542409
            ],
            [
              101.064083,
              0.542511
            ],
            [
              101.06419,
              0.542653
            ],
            [
              101.064131,
              0.542749
            ],
            [
              101.063988,
              0.542933
            ],
            [
              101.063952,
              0.542975
            ],
            [
              101.063923,
              0.543141
            ],
            [
              101.064232,
              0.543462
            ],
            [
              101.064518,
              0.543462
            ],
            [
              101.064613,
              0.542975
            ],
            [
              101.064791,
              0.543004
            ],
            [
              101.064964,
              0.543242
            ],
            [
              101.065023,
              0.543706
            ],
            [
              101.065035,
              0.543801
            ],
            [
              101.065166,
              0.544033
            ],
            [
              101.065452,
              0.544188
            ],
            [
              101.065499,
              0.544212
            ],
            [
              101.065541,
              0.544194
            ],
            [
              101.065547,
              0.544135
            ],
            [
              101.065642,
              0.544051
            ],
            [
              101.065701,
              0.543974
            ],
            [
              101.065779,
              0.543819
            ],
            [
              101.065927,
              0.543558
            ],
            [
              101.066046,
              0.543355
            ],
            [
              101.066118,
              0.543248
            ],
            [
              101.066261,
              0.543123
            ],
            [
              101.06673,
              0.543331
            ],
            [
              101.067141,
              0.543421
            ],
            [
              101.067421,
              0.543272
            ],
            [
              101.067539,
              0.542992
            ],
            [
              101.067278,
              0.542743
            ],
            [
              101.067111,
              0.542713
            ],
            [
              101.067028,
              0.542713
            ],
            [
              101.066808,
              0.542701
            ],
            [
              101.066665,
              0.542725
            ],
            [
              101.066522,
              0.54257
            ],
            [
              101.066671,
              0.54238
            ],
            [
              101.06635,
              0.541618
            ],
            [
              101.066255,
              0.541386
            ],
            [
              101.065898,
              0.541345
            ],
            [
              101.065779,
              0.541327
            ],
            [
              101.065707,
              0.541255
            ],
            [
              101.065648,
              0.541172
            ],
            [
              101.065576,
              0.54113
            ],
            [
              101.065475,
              0.541059
            ],
            [
              101.065398,
              0.541012
            ],
            [
              101.065303,
              0.540946
            ],
            [
              101.065273,
              0.54091
            ],
            [
              101.065255,
              0.540845
            ],
            [
              101.06522,
              0.540542
            ],
            [
              101.065225,
              0.540405
            ],
            [
              101.064999,
              0.540191
            ],
            [
              101.06472,
              0.539965
            ],
            [
              101.064535,
              0.53978
            ],
            [
              101.064464,
              0.539721
            ],
            [
              101.064393,
              0.539625
            ],
            [
              101.064309,
              0.539399
            ],
            [
              101.064559,
              0.539013
            ],
            [
              101.064625,
              0.538912
            ],
            [
              101.064613,
              0.538858
            ],
            [
              101.064631,
              0.538769
            ],
            [
              101.064654,
              0.538709
            ],
            [
              101.064642,
              0.53862
            ],
            [
              101.064494,
              0.538614
            ],
            [
              101.064363,
              0.538602
            ],
            [
              101.064232,
              0.538602
            ],
            [
              101.064208,
              0.538537
            ],
            [
              101.064143,
              0.538424
            ],
            [
              101.064107,
              0.538317
            ],
            [
              101.06397,
              0.538192
            ],
            [
              101.06372,
              0.537966
            ],
            [
              101.063316,
              0.538162
            ],
            [
              101.063268,
              0.538085
            ],
            [
              101.063215,
              0.537972
            ],
            [
              101.063137,
              0.537835
            ],
            [
              101.063114,
              0.537668
            ],
            [
              101.063072,
              0.537538
            ],
            [
              101.0629,
              0.537466
            ],
            [
              101.062798,
              0.53724
            ],
            [
              101.062679,
              0.537204
            ],
            [
              101.062572,
              0.537204
            ],
            [
              101.062364,
              0.537169
            ],
            [
              101.062209,
              0.537157
            ],
            [
              101.062031,
              0.537157
            ],
            [
              101.061918,
              0.537192
            ],
            [
              101.061829,
              0.537157
            ],
            [
              101.061757,
              0.537139
            ],
            [
              101.06171,
              0.537097
            ],
            [
              101.061698,
              0.537008
            ],
            [
              101.061662,
              0.536877
            ],
            [
              101.061656,
              0.536824
            ],
            [
              101.061656,
              0.536717
            ],
            [
              101.061496,
              0.536705
            ],
            [
              101.061448,
              0.53661
            ],
            [
              101.061389,
              0.536479
            ],
            [
              101.06127,
              0.536217
            ],
            [
              101.061186,
              0.536199
            ],
            [
              101.061091,
              0.536157
            ],
            [
              101.060966,
              0.536086
            ],
            [
              101.060883,
              0.536021
            ],
            [
              101.060764,
              0.535937
            ],
            [
              101.060603,
              0.535866
            ],
            [
              101.06027,
              0.535902
            ],
            [
              101.060139,
              0.535872
            ],
            [
              101.059943,
              0.535836
            ],
            [
              101.059675,
              0.535795
            ],
            [
              101.059604,
              0.535777
            ],
            [
              101.059574,
              0.535711
            ],
            [
              101.059533,
              0.535592
            ],
            [
              101.059497,
              0.535455
            ],
            [
              101.059336,
              0.535348
            ],
            [
              101.059205,
              0.535164
            ],
            [
              101.058878,
              0.535194
            ],
            [
              101.058956,
              0.53473
            ],
            [
              101.058932,
              0.534575
            ],
            [
              101.05889,
              0.534343
            ],
            [
              101.059045,
              0.534266
            ],
            [
              101.059211,
              0.534218
            ],
            [
              101.059342,
              0.533945
            ],
            [
              101.059283,
              0.533861
            ],
            [
              101.059188,
              0.533784
            ],
            [
              101.059081,
              0.533766
            ],
            [
              101.058956,
              0.53376
            ],
            [
              101.058896,
              0.533748
            ],
            [
              101.05886,
              0.533611
            ],
            [
              101.058825,
              0.533528
            ],
            [
              101.058795,
              0.533409
            ],
            [
              101.058777,
              0.533272
            ],
            [
              101.058498,
              0.532999
            ],
            [
              101.058325,
              0.532844
            ],
            [
              101.05801,
              0.532915
            ],
            [
              101.057754,
              0.532927
            ],
            [
              101.057778,
              0.532707
            ],
            [
              101.057819,
              0.532463
            ],
            [
              101.057843,
              0.532237
            ],
            [
              101.057552,
              0.532083
            ],
            [
              101.057546,
              0.531749
            ],
            [
              101.057236,
              0.531541
            ],
            [
              101.056998,
              0.531339
            ],
            [
              101.056784,
              0.531018
            ],
            [
              101.056582,
              0.53094
            ],
            [
              101.056338,
              0.530869
            ],
            [
              101.056261,
              0.530816
            ],
            [
              101.05613,
              0.530667
            ],
            [
              101.055999,
              0.530697
            ],
            [
              101.055624,
              0.530816
            ],
            [
              101.055488,
              0.530708
            ],
            [
              101.055416,
              0.530625
            ],
            [
              101.054964,
              0.530619
            ],
            [
              101.054441,
              0.530613
            ],
            [
              101.054286,
              0.530476
            ],
            [
              101.054167,
              0.530375
            ],
            [
              101.053905,
              0.530375
            ],
            [
              101.053768,
              0.530381
            ],
            [
              101.053483,
              0.530518
            ],
            [
              101.053132,
              0.530708
            ],
            [
              101.053043,
              0.530929
            ],
            [
              101.052781,
              0.530905
            ],
            [
              101.05265,
              0.530572
            ],
            [
              101.052495,
              0.530542
            ],
            [
              101.052335,
              0.530482
            ],
            [
              101.052204,
              0.530429
            ],
            [
              101.051912,
              0.530476
            ],
            [
              101.051823,
              0.530417
            ],
            [
              101.051734,
              0.530387
            ],
            [
              101.051657,
              0.530357
            ],
            [
              101.051538,
              0.530286
            ],
            [
              101.051282,
              0.530274
            ],
            [
              101.051163,
              0.53028
            ],
            [
              101.050943,
              0.530197
            ],
            [
              101.050699,
              0.530108
            ],
            [
              101.050473,
              0.53003
            ],
            [
              101.050312,
              0.529953
            ],
            [
              101.050146,
              0.529929
            ],
            [
              101.049836,
              0.529911
            ],
            [
              101.049622,
              0.529852
            ],
            [
              101.049319,
              0.529763
            ],
            [
              101.04923,
              0.529727
            ],
            [
              101.048914,
              0.529715
            ],
            [
              101.048492,
              0.529703
            ],
            [
              101.048355,
              0.529697
            ],
            [
              101.047849,
              0.529923
            ],
            [
              101.047641,
              0.530357
            ],
            [
              101.047677,
              0.530762
            ],
            [
              101.047701,
              0.53122
            ],
            [
              101.047695,
              0.531696
            ],
            [
              101.047671,
              0.532493
            ],
            [
              101.047772,
              0.532963
            ],
            [
              101.047855,
              0.533546
            ],
            [
              101.047582,
              0.53395
            ],
            [
              101.047546,
              0.534194
            ],
            [
              101.047677,
              0.534456
            ],
            [
              101.047719,
              0.534902
            ],
            [
              101.047772,
              0.535188
            ],
            [
              101.04779,
              0.535319
            ],
            [
              101.047801,
              0.535747
            ],
            [
              101.047831,
              0.536146
            ],
            [
              101.047843,
              0.536378
            ],
            [
              101.047855,
              0.53655
            ],
            [
              101.047837,
              0.536812
            ],
            [
              101.048271,
              0.536919
            ],
            [
              101.04839,
              0.536949
            ],
            [
              101.048807,
              0.536955
            ],
            [
              101.048956,
              0.536943
            ],
            [
              101.049241,
              0.537008
            ],
            [
              101.04955,
              0.53708
            ],
            [
              101.049747,
              0.53711
            ],
            [
              101.05008,
              0.537205
            ],
            [
              101.050258,
              0.537246
            ],
            [
              101.050466,
              0.537443
            ],
            [
              101.050556,
              0.53796
            ],
            [
              101.050639,
              0.538418
            ],
            [
              101.050657,
              0.538894
            ],
            [
              101.050675,
              0.539311
            ],
            [
              101.050687,
              0.539685
            ],
            [
              101.050681,
              0.54006
            ],
            [
              101.050633,
              0.540631
            ],
            [
              101.050627,
              0.540982
            ],
            [
              101.050609,
              0.541512
            ],
            [
              101.050621,
              0.542422
            ],
            [
              101.050645,
              0.543243
            ],
            [
              101.050645,
              0.543659
            ],
            [
              101.050954,
              0.543665
            ],
            [
              101.051448,
              0.543487
            ],
            [
              101.051704,
              0.543611
            ],
            [
              101.051912,
              0.543939
            ],
            [
              101.052025,
              0.544236
            ],
            [
              101.052114,
              0.544545
            ],
            [
              101.052281,
              0.544831
            ],
            [
              101.052382,
              0.545158
            ],
            [
              101.052471,
              0.545753
            ],
            [
              101.052584,
              0.546336
            ],
            [
              101.052721,
              0.547139
            ],
            [
              101.052769,
              0.547538
            ],
            [
              101.053268,
              0.547544
            ],
            [
              101.053595,
              0.547906
            ],
            [
              101.053726,
              0.548317
            ],
            [
              101.053756,
              0.5484
            ],
            [
              101.053756,
              0.5484
            ],
            [
              101.05384,
              0.548471
            ],
            [
              101.053923,
              0.548537
            ],
            [
              101.054012,
              0.548614
            ],
            [
              101.054119,
              0.548667
            ],
            [
              101.054191,
              0.548751
            ],
            [
              101.054322,
              0.548846
            ],
            [
              101.054435,
              0.548935
            ],
            [
              101.054595,
              0.549048
            ],
            [
              101.054714,
              0.549209
            ],
            [
              101.054893,
              0.549459
            ],
            [
              101.055214,
              0.549905
            ],
            [
              101.055428,
              0.550161
            ],
            [
              101.055553,
              0.550214
            ],
            [
              101.055642,
              0.550244
            ],
            [
              101.055702,
              0.55025
            ],
            [
              101.055833,
              0.550512
            ],
            [
              101.055892,
              0.550613
            ],
            [
              101.056017,
              0.550773
            ],
            [
              101.05613,
              0.550904
            ],
            [
              101.056201,
              0.550987
            ],
            [
              101.056243,
              0.551077
            ],
            [
              101.056285,
              0.551154
            ],
            [
              101.056362,
              0.551267
            ],
            [
              101.056398,
              0.551392
            ],
            [
              101.056451,
              0.551558
            ],
            [
              101.056493,
              0.551695
            ],
            [
              101.056558,
              0.551832
            ],
            [
              101.056642,
              0.551939
            ],
            [
              101.056796,
              0.552147
            ],
            [
              101.056891,
              0.552278
            ],
            [
              101.057106,
              0.552582
            ],
            [
              101.057177,
              0.552588
            ],
            [
              101.057338,
              0.552653
            ],
            [
              101.057528,
              0.552599
            ],
            [
              101.057689,
              0.552558
            ],
            [
              101.057885,
              0.552284
            ],
            [
              101.058028,
              0.552076
            ],
            [
              101.058182,
              0.551808
            ],
            [
              101.058295,
              0.551594
            ],
            [
              101.058414,
              0.551523
            ],
            [
              101.058587,
              0.551416
            ],
            [
              101.058783,
              0.551297
            ],
            [
              101.058896,
              0.551196
            ],
            [
              101.059033,
              0.551106
            ],
            [
              101.059152,
              0.551005
            ],
            [
              101.059313,
              0.550815
            ],
            [
              101.059443,
              0.550672
            ],
            [
              101.059485,
              0.550577
            ],
            [
              101.059544,
              0.55047
            ],
            [
              101.059634,
              0.550291
            ],
            [
              101.059717,
              0.550202
            ],
            [
              101.059836,
              0.550065
            ],
            [
              101.059884,
              0.550018
            ],
            [
              101.059943,
              0.549851
            ],
            [
              101.059997,
              0.549679
            ],
            [
              101.060014,
              0.549625
            ],
            [
              101.06005,
              0.54928
            ],
            [
              101.060068,
              0.549042
            ],
            [
              101.060092,
              0.548667
            ]
          ]
        ]
      }
    }
  ]
}
