{
  "type": "FeatureCollection",
  "name": "PERHUTANAN_SOSIAL_OFFICIAL_2026_PUBLIC_GEOMETRY_WITHHELD",
  "source": "Peta Interaktif 2026 Kementerian Kehutanan",
  "geometrySource": "https://geoportal.planologi.kehutanan.go.id/server/rest/services/Peta_Interaktif_2026/PKK_AR_50K/MapServer/0",
  "visibility": "internal",
  "rawRedistribution": "not-enabled",
  "publicDisplay": "metadata-documents-and-derived-analysis-only",
  "note": "Snapshot geometri dari layanan peta Kementerian tidak dipublikasikan ulang sebagai GeoJSON. Untuk tampilan publik gunakan metadata, dokumen, hasil analisis YG, atau layanan resmi sesuai ketentuan sumber.",
  "updated": "2026-09-16",
  "features": []
}
