{"type":"FeatureCollection","schemaVersion":1,"month":"2026-09","status":"partial","generatedAt":"2026-09-12T07:07:21.622823+00:00","sourceGeneratedAt":"2026-09-11T20:28:33.236104+00:00","province":"Riau","assignment":"firstDetectionAsiaJakarta","estimatedAreaHa":108.32,"eventCount":3,"features":[{"type":"Feature","properties":{"eventId":"RIAU-20260905-028","firstDetection":"2026-09-05T05:53:00+00:00","lastDetection":"2026-09-05T06:29:00+00:00","estimatedAreaHa":65.36,"confidence":"sedang","hotspotCount":2,"detectionDays":1,"villages":["Koto Baru","Koto Baru/Sungai Paku","Sungaipaku"],"districts":["Singingi Hilir"],"regencies":["Kuantan Singingi"],"method":"Sentinel-2 dNBR/NBR indication","resolutionM":20,"clearCoveragePct":98.0,"preSceneDates":["2026-07-08","2026-07-31","2026-08-05","2026-08-15"],"postSceneDates":["2026-09-09"],"status":"estimate","disclaimer":"Estimasi berbasis citra satelit; bukan hasil verifikasi lapangan.","province":"Riau","villageAreas":[{"village":"Koto Baru","district":"Singingi Hilir","regency":"Kuantan Singingi","areaHa":25.201848},{"village":"Koto Baru/Sungai Paku","district":"Singingi Hilir","regency":"Kuantan Singingi","areaHa":17.631766},{"village":"Sungaipaku","district":"Singingi Hilir","regency":"Kuantan Singingi","areaHa":22.526386}],"unassignedAreaHa":0.0,"archiveEventId":"BA-8e1debe8ebf7ebdb","reportMonth":"2026-09"},"geometry":{"type":"MultiPolygon","coordinates":[[[[101.20894759386094,-0.2251095704544313],[101.20858839008137,-0.22510962525334194],[101.20858841730633,-0.22529043617724703],[101.20822921343489,-0.22529049101127208],[101.20822915901566,-0.22492886907539658],[101.2084087609579,-0.2249288417035035],[101.20840873377884,-0.22474803075749666],[101.20858833569702,-0.22474800340538692],[101.20858830853763,-0.224567192481337],[101.20876791043172,-0.22456716514901423],[101.208767883292,-0.224386354246923],[101.20894748516203,-0.22438632693439073],[101.20894745804196,-0.22420551605426015],[101.20948626351428,-0.22420543416940197],[101.20948634495991,-0.22474786661153887],[101.20930674315106,-0.2247478939747483],[101.20930677034113,-0.22492870481071162],[101.20894756665342,-0.22492875957449354],[101.20894759386094,-0.2251095704544313]]],[[[101.21074344839738,-0.22402443236722877],[101.21092305002243,-0.22402440507437316],[101.21092302292192,-0.2238435944363599],[101.21110262452288,-0.22384356716332163],[101.21110257038312,-0.22348194593121126],[101.21128217195782,-0.22348191870002582],[101.21128228033368,-0.22420516107592672],[101.2111026787502,-0.22420518839523979],[101.21110270589668,-0.22438599901112674],[101.21074350265965,-0.22438605368716774],[101.21074344839738,-0.22402443236722877]]],[[[101.20248118765656,-0.22022864033679593],[101.20230158505082,-0.2202286670648166],[101.20230163819082,-0.22059029045339393],[101.20248124080089,-0.22059026368148443],[101.20248129403244,-0.2209518870259837],[101.20230169141803,-0.22095191384178195],[101.20230171806433,-0.2211327255359049],[101.2024813206809,-0.22113269869816224],[101.20248134735117,-0.22131351037029326],[101.20284055252326,-0.22131345664436095],[101.20284060593788,-0.22167507990069235],[101.20302020849557,-0.22167505299054754],[101.20302023523777,-0.22185586459669224],[101.20266103009624,-0.22185591845868982],[101.20266100335839,-0.2216751068086474],[101.20194259282243,-0.22167521441857171],[101.2019425661151,-0.22149440268070777],[101.20176296342879,-0.2214944295557757],[101.20176293674541,-0.2213136177959252],[101.20158333403948,-0.22131364464686806],[101.20158322753258,-0.22059039751924278],[101.20176283022982,-0.22059037075604895],[101.20176280365541,-0.22040955899596143],[101.20158320096033,-0.22040958573721794],[101.20158317440986,-0.220228773955146],[101.20140357169515,-0.22022880067228998],[101.20140346571982,-0.219505553455788],[101.2015830684259,-0.2195055268263859],[101.20158304198439,-0.21932471504407805],[101.20212184996545,-0.21932463520867956],[101.20212187641343,-0.21950544692517032],[101.20230147903234,-0.21950542028709535],[101.20230150550427,-0.2196862319815964],[101.20248110810353,-0.21968620531940886],[101.20248118765656,-0.22022864033679593]]],[[[101.21002429143972,-0.2189618405506503],[101.21020389309143,-0.21896181388323932],[101.21020394611551,-0.21932343533799126],[101.21002434445948,-0.21932346204944467],[101.21002439756674,-0.21968508354805066],[101.21020399922706,-0.21968505679255493],[101.21020402581567,-0.21986586751976606],[101.21038362745627,-0.21986584074007734],[101.21038373403806,-0.22058908356035772],[101.21020413238881,-0.22058911042813834],[101.21020415908679,-0.22076992115511307],[101.21038376073818,-0.22076989426530955],[101.2103837874602,-0.22095070497021396],[101.21074299070173,-0.2209506511400136],[101.21074304422007,-0.22131227246157748],[101.21092264581235,-0.221312245499147],[101.21092267260651,-0.22149305613782938],[101.21128187572977,-0.22149300216234832],[101.21128190255017,-0.22167381275692113],[101.21200030854271,-0.2216737046915602],[101.21200033539371,-0.22185451519793994],[101.21217993683929,-0.22185448815408496],[101.21217996371435,-0.22203529863837623],[101.21235956514022,-0.22203527157028724],[101.21235961896038,-0.22239689249464153],[101.2125392203687,-0.22239686538027056],[101.21253927428081,-0.222758486260345],[101.21271887567161,-0.22275845909968503],[101.21271895671056,-0.22330089035329934],[101.2125393553132,-0.22330091758009796],[101.21253932828051,-0.22312010714022817],[101.21200052396358,-0.22312018874126238],[101.21200049695935,-0.22293937823521684],[101.21128209090571,-0.22293948691759632],[101.21128203698042,-0.2225778657290707],[101.21110243541666,-0.22257789285009658],[101.21110238158326,-0.22221627161731594],[101.210922780002,-0.22221629869208306],[101.2109227531203,-0.2220354880535911],[101.21074315151931,-0.222035515104135],[101.21074312466169,-0.221854704443567],[101.210563523041,-0.22185473146989115],[101.21056354989646,-0.2220355421524857],[101.21038394825172,-0.22203556919864326],[101.21038397512687,-0.2222163799032149],[101.21020437345808,-0.2222164069692023],[101.21020442726966,-0.22257802842224844],[101.21002482557462,-0.22257805553008328],[101.21002479866007,-0.2223972447815629],[101.20984519694535,-0.22239727186517982],[101.20984517005486,-0.22221646109459228],[101.20966556832045,-0.22221648815399492],[101.209665541454,-0.22203567736134205],[101.2094859396999,-0.22203570439653386],[101.20948588603699,-0.22167408276705355],[101.20966548778675,-0.22167405577589336],[101.20966546098592,-0.2214932449830977],[101.20984506271164,-0.2214932180117656],[101.2098450359305,-0.22131240724093995],[101.21002463763216,-0.22131238028943948],[101.21002461087073,-0.22113156954058577],[101.21020421254836,-0.22113154260892046],[101.21020418580663,-0.2209507318820405],[101.21002458413118,-0.22095075879168463],[101.2100245574135,-0.22076994804273603],[101.20984495571834,-0.22076997492817824],[101.2098449290247,-0.22058916415716284],[101.20966532730982,-0.2205891910184069],[101.2096653540013,-0.2207700018114399],[101.20948575226241,-0.22077002869252088],[101.20948583246155,-0.22131246113738293],[101.20930623069428,-0.22131248808232543],[101.20930620394154,-0.2211316772454048],[101.20894700034573,-0.22113173108470896],[101.20894702709414,-0.22131254196565225],[101.20876742526127,-0.22131256890403672],[101.2087672917487,-0.22040851438880224],[101.20894689357074,-0.22040848756046127],[101.2089467605939,-0.21950443315408766],[101.20912636238329,-0.21950440643362193],[101.20912633585135,-0.2193235955742162],[101.20894673406413,-0.2193236222726714],[101.20894670755621,-0.21914281139120817],[101.20876710574929,-0.21914283806548834],[101.20876707926537,-0.2189620271619693],[101.20858747743873,-0.218962053812078],[101.20858745097883,-0.2187812428865051],[101.20840784913247,-0.21878126951244586],[101.20840782269657,-0.21860045856482094],[101.20822822083049,-0.21860048516659736],[101.20822816802858,-0.2182388632272001],[101.20840776989037,-0.21823883666943034],[101.20840779628254,-0.21841964761714902],[101.20858739812462,-0.21841962103521853],[101.2085874245408,-0.21860043196088524],[101.20894662816364,-0.2186003787465363],[101.20894660174318,-0.2184195678648851],[101.20912620351967,-0.21841954127648222],[101.20912612438303,-0.21787710869727897],[101.20966492956205,-0.21787702911725218],[101.20966495592548,-0.21805783991099126],[101.20984455761021,-0.21805781335799387],[101.20984463683814,-0.2186002456728774],[101.21002423850744,-0.21860021905166796],[101.21002429143972,-0.2189618405506503]]],[[[101.20715076802804,-0.21968551134087147],[101.20697116599612,-0.21968553805947827],[101.20697119254591,-0.21986634918279757],[101.20679159048998,-0.21986637592122338],[101.20679156394236,-0.21968556477591508],[101.20625275765,-0.21968564491220574],[101.20625270463319,-0.21932402248953492],[101.20643230674818,-0.21932399582357534],[101.20643225381441,-0.2189623734446836],[101.20661185590326,-0.2189623468205286],[101.20661190884132,-0.21932396915544944],[101.20679151091262,-0.21932394248515705],[101.20679153741656,-0.21950475363055963],[101.20715074149795,-0.2195047002394959],[101.20715076802804,-0.21968551134087147]]],[[[101.20517477537237,-0.21715444631745573],[101.20499517313026,-0.21715447270459642],[101.20499514693155,-0.21697366133879292],[101.20481554466976,-0.2169736877018193],[101.204815518495,-0.21679287631399985],[101.20535432520853,-0.21679279728440473],[101.20535435138967,-0.21697360860631065],[101.20553395358598,-0.2169735822368548],[101.20553400601801,-0.21733520483657745],[101.20517480159504,-0.21733525766124148],[101.20517477537237,-0.21715444631745573]]],[[[101.19727191840181,-0.21480504530350733],[101.19799033087678,-0.21480494124965957],[101.19799035673138,-0.21498575347150164],[101.19763115053317,-0.2149858055464668],[101.1976311764053,-0.2151666178120604],[101.19727197011586,-0.21516666992232172],[101.19727191840181,-0.21480504530350733]]],[[[101.19152434949116,-0.21299774641852745],[101.19170395331658,-0.21299772069451864],[101.1917039022539,-0.21263609471892445],[101.19224271358746,-0.21263601766531876],[101.19224273911422,-0.21281683058761636],[101.19242234285076,-0.21281680487703591],[101.19242241956748,-0.21335924357812172],[101.19152440063642,-0.21335937243761346],[101.19152434949116,-0.21299774641852745]]],[[[101.1985287802365,-0.21227349299632448],[101.19834917724498,-0.21227351871266334],[101.19834930523355,-0.213177579605601],[101.19745128989746,-0.2131777087033365],[101.19745111093876,-0.21191202268641457],[101.19781031710924,-0.21191197136019613],[101.19781029162657,-0.2117311591156765],[101.19870830666171,-0.21173103087301548],[101.1987083321548,-0.21191184300801869],[101.19888793509863,-0.21191181733130357],[101.19888796061555,-0.21209262944435275],[101.19852875470197,-0.21209268083950533],[101.1985287802365,-0.21227349299632448]]],[[[101.19260181912801,-0.2119127147708625],[101.19278142281074,-0.21191268916531728],[101.19278139738624,-0.21173187630833062],[101.1934998118918,-0.21173177395262707],[101.1934999137533,-0.21245502503066296],[101.19278149921445,-0.2124551277360047],[101.19278147372484,-0.2122743148791544],[101.19260187003796,-0.21227434052839544],[101.19260181912801,-0.2119127147708625]]],[[[101.19439772797963,-0.21100839531938595],[101.19367931394147,-0.21100849736713764],[101.19367926331053,-0.21064687187119857],[101.19385886684852,-0.21064684640610443],[101.19385876583891,-0.20992359550111914],[101.1942179728332,-0.20992354473957903],[101.19421794763097,-0.20974273205694272],[101.19457715453429,-0.20974268133083804],[101.19457712934965,-0.2095618686918865],[101.19475673276668,-0.209561843347594],[101.19475683364375,-0.21028509381565982],[101.1945772302185,-0.2102851192474226],[101.19457730609821,-0.2108275571636013],[101.19439770264503,-0.21082758265888427],[101.19439772797963,-0.21100839531938595]]],[[[101.21056179895476,-0.20992122631522614],[101.210382197452,-0.2099212518857254],[101.21038227374584,-0.2104636840086267],[101.21020267221502,-0.21046370964312133],[101.2102025705419,-0.20974046672440433],[101.21038217206447,-0.2097404411780015],[101.21038214669882,-0.20955963047023257],[101.2102025451783,-0.2095596559946125],[101.21020246921879,-0.2090172238049671],[101.21038207073315,-0.2090171983466561],[101.21038202019874,-0.20865557693071404],[101.21056162168713,-0.2086555515143879],[101.21056172285164,-0.2093787942579936],[101.21074132432636,-0.20937876875150038],[101.21074137504401,-0.20974039007898074],[101.21056177356517,-0.20974041562952705],[101.21056179895476,-0.20992122631522614]]],[[[101.19727067858047,-0.20594524208574994],[101.19709107550848,-0.20594526702117139],[101.197091100287,-0.20612607935470595],[101.19691149719125,-0.20612610430998393],[101.19691154680949,-0.206487729020702],[101.19673194368795,-0.20648775401772176],[101.19673196852766,-0.20666856639490347],[101.1963727622153,-0.20666861642659673],[101.19637271256575,-0.20630699158464397],[101.19619310938103,-0.20630701655366124],[101.19619305982246,-0.20594539166776424],[101.19637266300315,-0.2059453667425142],[101.19637263825446,-0.20576455432138316],[101.19655224141138,-0.20576452941598428],[101.19655219197517,-0.2054029046173605],[101.19691139821573,-0.20540285488801757],[101.196911422927,-0.20558366724357532],[101.19709102601668,-0.20558364235396973],[101.19709105075171,-0.2057644546875926],[101.19727065382166,-0.20576442977406376],[101.19727067858047,-0.20594524208574994]]],[[[101.20840563097843,-0.20305071689768212],[101.20876483428921,-0.20305066747268077],[101.20876495730855,-0.2039547220097733],[101.2085853556541,-0.20395474683331105],[101.20858528178292,-0.20341231404516602],[101.2084056801126,-0.20341233880067394],[101.20840563097843,-0.20305071689768212]]],[[[101.20858481850061,-0.1999769063778332],[101.20768681011849,-0.19997702804513892],[101.20768668956258,-0.19907297284321762],[101.20786629127292,-0.1990729486236966],[101.20786626722533,-0.19889213760518198],[101.20804586891187,-0.19889211340569432],[101.20804589296141,-0.19907292440220928],[101.20876429949683,-0.1990728274965964],[101.20876439594483,-0.19979607113016196],[101.20858479433592,-0.19979609544754207],[101.20858481850061,-0.1999769063778332]]],[[[101.20517228736442,-0.19925412305829796],[101.20553149137868,-0.19925407462839992],[101.20553153953223,-0.19961569723688277],[101.20391512074546,-0.1996159155048433],[101.20391502459607,-0.19889266949687467],[101.20409462676294,-0.1988926453406076],[101.20409460277817,-0.19871183386046903],[101.20481301121968,-0.1987117373036145],[101.20481303521227,-0.1988925486958935],[101.20499263727004,-0.19889252452980355],[101.2049926612864,-0.1990733359000705],[101.2051722633243,-0.19907331171004483],[101.20517228736442,-0.19925412305829796]]],[[[101.21433558552692,-0.22474712696574836],[101.21397638306944,-0.22474718180982342],[101.21397630145862,-0.22420475102048218],[101.2143355039029,-0.22420469630877551],[101.21433558552692,-0.22474712696574836]]],[[[101.22223659936941,-0.21516302802299198],[101.22241619948485,-0.21516300167350963],[101.22241622567019,-0.21534381090025806],[101.22259582576574,-0.2153437845265061],[101.22259587820662,-0.2157054029355754],[101.2227754782844,-0.21570537651540408],[101.22277555711706,-0.2162478040622218],[101.2229551571792,-0.21624777757347602],[101.22295520984854,-0.216609395893493],[101.22277560978215,-0.21660942242653483],[101.22277566253524,-0.21697104079066168],[101.2229552626059,-0.21697101421332393],[101.22295528901758,-0.21715182337316954],[101.2233144890971,-0.21715177016776355],[101.22331454199501,-0.2175133883987121],[101.22349414200603,-0.21751336174848515],[101.2234941949962,-0.21787497993494015],[101.2236737949895,-0.21787495323825457],[101.22367387464624,-0.21841738045112044],[101.22385347462394,-0.21841735368581214],[101.22385350122235,-0.2185981627345168],[101.22403310118018,-0.2185981359448925],[101.22403312780274,-0.2187789449713914],[101.22385352784275,-0.2187789717831744],[101.22385360783605,-0.21932139892886524],[101.22349440783717,-0.21932145267888475],[101.22349438115502,-0.21914064358605612],[101.2231351810724,-0.21914069728310565],[101.22313520775022,-0.21932150642023918],[101.22223720714788,-0.21932164073571564],[101.22223723383696,-0.21950244998353302],[101.22169843320518,-0.21950253061324088],[101.22169827343927,-0.21841767472712753],[101.2215186731976,-0.21841770146654768],[101.22151862012248,-0.21805608279319663],[101.22133901986308,-0.21805610948619206],[101.22133894042175,-0.21751368140941316],[101.22115934014677,-0.21751370803385917],[101.22115926090967,-0.21697127989026396],[101.22097966061911,-0.21697130644617119],[101.22097958158626,-0.2164288782357663],[101.2207999812801,-0.21642890472314538],[101.22079990245143,-0.21588647644593714],[101.22062030212965,-0.21588650286479896],[101.22062022350515,-0.21534407452079374],[101.22044062316773,-0.21534410087114883],[101.22044059700563,-0.21516329140092974],[101.22062019734093,-0.21516326507269942],[101.2206201711987,-0.2149824556245589],[101.22133857231167,-0.21498235037890231],[101.22133859846234,-0.2151631597385259],[101.22151819868773,-0.21516313339966947],[101.22151817253496,-0.2149823240621796],[101.22223657320819,-0.21498221877405468],[101.22223659936941,-0.21516302802299198]]],[[[101.21361584630732,-0.2157067212276644],[101.21325664389062,-0.21570677384855708],[101.2132565395363,-0.21498353243366944],[101.21361574193611,-0.21498347998921052],[101.21361576799606,-0.21516429029889328],[101.21379536916521,-0.21516426405142172],[101.21379542135503,-0.21552588462653488],[101.21361582018166,-0.2155259109181203],[101.21361584630732,-0.2157067212276644]]],[[[101.22870205868993,-0.21425803584891331],[101.22888165800187,-0.21425800953395935],[101.22888168415292,-0.21443881796261488],[101.22924088271483,-0.21443876528193911],[101.22924090889217,-0.21461957366612938],[101.2287021110099,-0.2146196527505921],[101.22870208483887,-0.21443884429977572],[101.22852248550278,-0.2144388706348186],[101.22852245935591,-0.21425806216175106],[101.22834285999987,-0.21425808847247255],[101.22834283387718,-0.21407727997715567],[101.22816323450117,-0.21407730626355942],[101.22816320840262,-0.21389649774599495],[101.22798360900666,-0.21389652400808448],[101.2279836351031,-0.21407733254784875],[101.22780403568298,-0.2140773588300236],[101.22780406179938,-0.21425816739193987],[101.22762446235512,-0.2142581936941964],[101.22762438407838,-0.21371576794172126],[101.22780398351635,-0.2137157417060532],[101.2278039314379,-0.21335412458189912],[101.22834272960694,-0.21335404599542834],[101.22834275564142,-0.21353485449092904],[101.22852235498908,-0.21353482826902093],[101.22852240712838,-0.2138964452154779],[101.22870200645819,-0.21389641894705042],[101.22870205868993,-0.21425803584891331]]],[[[101.21217849242915,-0.2119099114458017],[101.2123580937358,-0.21190988561209906],[101.21235811940873,-0.2120906960769094],[101.21253772069558,-0.21209067021906927],[101.2125377721113,-0.21245229110446445],[101.21217856950737,-0.2124523429062238],[101.21217854379275,-0.21227153241946198],[101.21199894246003,-0.21227155829515312],[101.21199891676937,-0.21209074778630496],[101.21181931541683,-0.21209077363786033],[101.21181928975015,-0.21190996310692758],[101.21163968837782,-0.21190998893435087],[101.2116396627351,-0.21172917838133543],[101.21146006134295,-0.21172920418463007],[101.21146001012733,-0.21136758303439193],[101.21128040871744,-0.21136760879152797],[101.21128038314454,-0.21118679819430713],[101.21145998455235,-0.21118677245920472],[101.21145995899927,-0.2110059618839723],[101.21181916174508,-0.21100591045158235],[101.21181918730231,-0.2111867209827421],[101.21199878864445,-0.21118669524138184],[101.21199886545372,-0.21172912676847205],[101.2121784667802,-0.21172910095890332],[101.21217849242915,-0.2119099114458017]]],[[[101.21936189088645,-0.20738863635649024],[101.21900269006456,-0.20738868707949623],[101.21900266488568,-0.20720787743034702],[101.21882306444382,-0.2072079027666687],[101.21882293888903,-0.20630385440971286],[101.21900253932074,-0.20630382918393445],[101.21900258948084,-0.20666544848263269],[101.21918218989464,-0.2066654232105957],[101.21918221500965,-0.20684623283776787],[101.21936181540352,-0.2068462075415774],[101.21936189088645,-0.20738863635649024]]],[[[101.22474904672139,-0.20124037051864246],[101.22492864637142,-0.20124034584631295],[101.22492862187413,-0.20105953692625997],[101.22528782110423,-0.20105948761997855],[101.22528789467403,-0.2016019142469861],[101.22546749426196,-0.20160188952434777],[101.2254675926713,-0.20232512493772623],[101.22564719224512,-0.2023251001243977],[101.2256472169045,-0.20250590895545903],[101.22546761732868,-0.20250593379096227],[101.22546766670955,-0.20286755149730387],[101.22564726628934,-0.2028675266174511],[101.22564729101481,-0.2030483354483818],[101.22582689057458,-0.20304831054434888],[101.22582698970469,-0.20377154577892892],[101.2260065892504,-0.20377152078417718],[101.22600663895165,-0.2041331383568481],[101.22618623847933,-0.20413311331572356],[101.22618631320243,-0.2046755396078606],[101.225827114113,-0.20467558982116865],[101.22582713906074,-0.20485639862948488],[101.22564753948097,-0.20485642375528304],[101.22564756444874,-0.20503723258573175],[101.22582716403052,-0.20503720743775702],[101.22582718902233,-0.20521801624598518],[101.22600678858409,-0.205217991073807],[101.22600681359994,-0.20539879985981271],[101.22618641314169,-0.20539877466342754],[101.22618651343349,-0.2061220097182884],[101.22600691388365,-0.20612203500339402],[101.2260069641577,-0.20648365257491916],[101.22582736458179,-0.20648367790234548],[101.22582738974984,-0.20666448671021978],[101.22564779014988,-0.20666451205778325],[101.22564781533792,-0.2068453208877897],[101.2254682157139,-0.2068453462554867],[101.22546826615202,-0.2072069639597157],[101.22528866650191,-0.2072069893697156],[101.22528869175196,-0.20738779824393633],[101.2251090920778,-0.20738782367406072],[101.22510914263991,-0.20774944146671087],[101.22474994321738,-0.20774949240948853],[101.22474991792937,-0.2075686834688488],[101.22439071842284,-0.2075687343590888],[101.22439069316093,-0.2073879253740746],[101.22421109337668,-0.20738795079395717],[101.22421106813883,-0.20720714178673613],[101.22385186850835,-0.2072071925760368],[101.22385189374212,-0.20738800162757695],[101.22349269401953,-0.20738805245300326],[101.2234926435821,-0.2070264342612545],[101.22367224345034,-0.20702640889387577],[101.22367221826259,-0.2068455998200898],[101.2238518181068,-0.20684557447282312],[101.22385176779328,-0.2064839563694317],[101.22367216795314,-0.2064839816723846],[101.22367214283142,-0.2063031725984654],[101.2229537432589,-0.20630327370127272],[101.22295371816729,-0.20612246453869962],[101.2231333180914,-0.20612243928820406],[101.22313319295326,-0.2052183935854236],[101.22295359303924,-0.2052184187251705],[101.22295356807963,-0.2050376095623323],[101.22313316799165,-0.20503758444473513],[101.22313301868398,-0.2039527295996807],[101.22331261856195,-0.20395270461296747],[101.22331264339356,-0.2041335137317681],[101.22385144290145,-0.2041334386930764],[101.22385146776108,-0.20431424774536797],[101.22421066732696,-0.2043141976651732],[101.22421064246332,-0.20413338865720076],[101.22439024221126,-0.2041333636362386],[101.22439019254602,-0.20377174566448672],[101.22421059280212,-0.20377177064112445],[101.22421056800454,-0.2035909616330206],[101.2240309682406,-0.20359098658548522],[101.22403094346701,-0.20341017755517718],[101.22385134368307,-0.20341020248347225],[101.2238513189335,-0.20322939343096186],[101.22367171912953,-0.203229418335091],[101.22367169440396,-0.20304860926038007],[101.223312494734,-0.20304865901830793],[101.22331251945559,-0.2032294681373272],[101.22277371977962,-0.20322954282562666],[101.22277369506402,-0.20304873364015819],[101.22295329497601,-0.2030487087682136],[101.22295317171806,-0.20214466295095743],[101.22277357181599,-0.2021446877121623],[101.22277352267078,-0.20178306934065968],[101.22295312256887,-0.20178304462375074],[101.22295309802729,-0.20160223546008235],[101.22277349813118,-0.20160226015484334],[101.22277347361356,-0.20142145096898376],[101.22259387369743,-0.20142147563960738],[101.22259384920379,-0.2012406664315583],[101.2229530490101,-0.20124061713261573],[101.22295302453453,-0.20105980796881756],[101.22313262440271,-0.20105978333851443],[101.22313259994716,-0.20087897419682285],[101.22349179961357,-0.20087892497456375],[101.22349177517609,-0.20069811587713382],[101.22385097475055,-0.20069806669125037],[101.22385099919197,-0.2008788757443684],[101.22438979839448,-0.20087880188419455],[101.22438982286384,-0.20105961087078805],[101.22474902222606,-0.2010595615764219],[101.22474904672139,-0.20124037051864246]]],[[[101.21648763507152,-0.2026879829755476],[101.21612843365185,-0.20268803248469994],[101.21612835998947,-0.2021456024731166],[101.21648756139723,-0.2021455530964608],[101.21648763507152,-0.2026879829755476]]],[[[101.21487112987514,-0.20196496507004644],[101.21397312521455,-0.20196508829654142],[101.21397310075,-0.2017842780277071],[101.21361389873633,-0.20178432726022547],[101.21361384988086,-0.20142270663419573],[101.21397305188661,-0.20142265748990837],[101.21397307630734,-0.20160346775882934],[101.21505068181052,-0.2016033201458294],[101.21505070626505,-0.2017841302823178],[101.21487110540068,-0.20178415491153204],[101.21487112987514,-0.20196496507004644]]],[[[101.2130750467079,-0.2014227803357053],[101.2127158444831,-0.2014228294600974],[101.21271586888999,-0.20160363988339142],[101.21253626774275,-0.2016036644646493],[101.21253617025447,-0.20088042268302936],[101.2127157713938,-0.20088039818995612],[101.21271572277712,-0.20051877734297952],[101.21307492498222,-0.2005187284390757],[101.21307494928355,-0.20069953881848782],[101.21325455035522,-0.2006995143415135],[101.21325457468042,-0.20088032469883105],[101.2130749736068,-0.2008803491978569],[101.2130750467079,-0.2014227803357053]]],[[[101.23157335486884,-0.19780407769211317],[101.23175295364366,-0.19780405336672677],[101.23175292949105,-0.19762324528955102],[101.23211212697058,-0.19762319667739336],[101.23211215112708,-0.1978040047100929],[101.23229174983564,-0.19780398037884547],[101.23229177401616,-0.19798478838926173],[101.2326509713709,-0.19798473967641878],[101.23265099557742,-0.19816554764230548],[101.23247139690915,-0.1981655720219491],[101.23247144538456,-0.19852718799808347],[101.23229184669032,-0.1985272124202549],[101.23229187095922,-0.1987080204305007],[101.23211227224093,-0.19870804487295213],[101.23211224797396,-0.19852723684046553],[101.231753050475,-0.19852728567500438],[101.23175302623405,-0.1983464775979989],[101.23139382865062,-0.1983465263802253],[101.23139380443564,-0.19816571825870807],[101.23103460676776,-0.1981657669886363],[101.23103458257874,-0.19798495882261458],[101.23067538482645,-0.19798500750025896],[101.23067533652241,-0.19762339107917828],[101.23103453426695,-0.19762334249044344],[101.2310345584118,-0.19780415065655024],[101.23139375607191,-0.1978041020155459],[101.23139378024274,-0.19798491013714825],[101.23157337904159,-0.19798488579148182],[101.23157335486884,-0.19780407769211317]]],[[[101.22690308901728,-0.19256125781904748],[101.22672348970228,-0.1925612814482547],[101.22672344280592,-0.19219966404759625],[101.22690304211716,-0.19219964046276342],[101.2269030655562,-0.19238044914092617],[101.22708266484727,-0.192380425532006],[101.2270827588314,-0.19310366015548702],[101.22690315953277,-0.19310368385316315],[101.22690308901728,-0.19256125781904748]]],[[[101.21325315394027,-0.1900317031848432],[101.2130735529817,-0.19003172636077986],[101.21307357601263,-0.19021253674262448],[101.21289397503028,-0.19021255993873384],[101.21289390600877,-0.18967012872692846],[101.21307350698554,-0.18967010559696817],[101.21307348402031,-0.18948929521500119],[101.21361228681356,-0.18948922588003952],[101.21361230978435,-0.1896700361958467],[101.21343270887333,-0.18967005933142725],[101.21343273186417,-0.18985086966924875],[101.21325313092937,-0.1898508928250092],[101.21325315394027,-0.1900317031848432]]],[[[101.22528625271744,-0.18912610172931674],[101.22546585217312,-0.18912607853661037],[101.22546587522262,-0.18930688739291743],[101.22582507407164,-0.18930684095754946],[101.2258250971469,-0.18948764976946464],[101.2261842959115,-0.18948760328225922],[101.22618434213554,-0.18984922081725067],[101.22582514336348,-0.18984926739317276],[101.22582512024417,-0.18966845858133907],[101.22546592138772,-0.18966850510540934],[101.22546589829417,-0.18948769624918374],[101.2249270998499,-0.1894877659547255],[101.22492707678394,-0.1893069570319458],[101.22456787771469,-0.18930700344861576],[101.22456785467446,-0.18912619448146206],[101.22438825510868,-0.18912621766482837],[101.22438820909797,-0.18876459968607118],[101.22420860951388,-0.18876462282324508],[101.22420856359494,-0.18840300480000124],[101.22474736227007,-0.18840293551587012],[101.22474738522408,-0.18858374446102028],[101.22510658423445,-0.1885836982179583],[101.22510663021595,-0.1889453160194634],[101.22528622969179,-0.1889452928507962],[101.22528625271744,-0.18912610172931674]]],[[[101.22187385887688,-0.18912654203581492],[101.22187383588648,-0.18894573273634832],[101.22205343575845,-0.18894570960127327],[101.2220534127882,-0.18876490032390517],[101.22277181204879,-0.1887648078535163],[101.22277185802614,-0.18912642623106446],[101.22187385887688,-0.18912654203581492]]],[[[101.2213351512826,-0.18984984895933332],[101.22133517437736,-0.19003065832500263],[101.22115557440627,-0.19003068158540376],[101.22115564381684,-0.19057310974856206],[101.22097604381818,-0.1905731330734764],[101.22097599752621,-0.19021151425381824],[101.22079639750929,-0.19021153753259365],[101.22079637439815,-0.19003072810057506],[101.22097597441321,-0.19003070484392787],[101.22097595132217,-0.18984989543399666],[101.22079635130899,-0.18984991866851555],[101.2207963282418,-0.18966910923641536],[101.2206167282085,-0.18966913244693262],[101.22061670516516,-0.1894883229926652],[101.22043710511173,-0.1894883461791843],[101.22043705909468,-0.18912672722627802],[101.2206166591444,-0.18912670408400825],[101.22061661321155,-0.18876508517518886],[101.22115541321767,-0.18876501586994093],[101.22115539027867,-0.18858420648185514],[101.2213349902349,-0.18858418339850877],[101.22133480749946,-0.18713770846942263],[101.22277160623973,-0.18713752515254697],[101.2227716290194,-0.1873183343417048],[101.2229512287648,-0.18731831139662977],[101.22295127439384,-0.18767992973052902],[101.2231308741209,-0.1876799067393044],[101.22313091984161,-0.188041525028743],[101.22331051955037,-0.18804150199136166],[101.22331056536281,-0.18840312023633576],[101.22313096565036,-0.18840314331802002],[101.22313094273498,-0.18822233417340167],[101.22295134300238,-0.1882223572310754],[101.22295132011087,-0.188041548064267],[101.22277172035811,-0.1880415710979337],[101.22277169749043,-0.18786076190893697],[101.2222328981057,-0.1878608309323602],[101.22223292096785,-0.18804164018778993],[101.22205332112709,-0.18804166321402743],[101.2220533440094,-0.1882224724915575],[101.2218737441448,-0.18822249553807663],[101.22187376704724,-0.18840330483770532],[101.22169416715882,-0.18840332790450254],[101.2216941900814,-0.18858413722622794],[101.22151459016914,-0.18858416031329964],[101.22151463607656,-0.18894577900089973],[101.22169423599252,-0.1889457558695571],[101.22169425898105,-0.18912656519116092],[101.22187385887688,-0.18912654203581492],[101.22187388188927,-0.18930735133524085],[101.22169428199159,-0.18930737451272403],[101.2216943280786,-0.18966899315572827],[101.22151472815521,-0.18966901637561245],[101.22151475122985,-0.18984982571918887],[101.2213351512826,-0.18984984895933332]]]]}},{"type":"Feature","properties":{"eventId":"RIAU-20260902-031","firstDetection":"2026-09-02T07:29:00+00:00","lastDetection":"2026-09-04T20:49:00+00:00","estimatedAreaHa":42.32,"confidence":"rendah","hotspotCount":15,"detectionDays":3,"villages":["Gemala Sari"],"districts":["Rangsang"],"regencies":["Kepulauan Meranti"],"method":"Sentinel-2 dNBR/NBR indication","resolutionM":20,"clearCoveragePct":48.0,"preSceneDates":["2026-08-02","2026-08-14","2026-08-22"],"postSceneDates":["2026-09-06"],"status":"estimate","disclaimer":"Estimasi berbasis citra satelit; bukan hasil verifikasi lapangan.","province":"Riau","villageAreas":[{"village":"Gemala Sari","district":"Rangsang","regency":"Kepulauan Meranti","areaHa":42.32}],"unassignedAreaHa":0.0,"archiveEventId":"BA-47c2484b15ac8e3a","reportMonth":"2026-09"},"geometry":{"type":"MultiPolygon","coordinates":[[[[102.98469033656876,0.9162476096221202],[102.98468993714606,0.9158865987204277],[102.9848692574222,0.9158863977242803],[102.98486885813912,0.9155253869009226],[102.9846895378808,0.9155255878178314],[102.98468973749375,0.9157060932692428],[102.98451041718714,0.915706294216786],[102.98451081651328,0.9160673051981651],[102.98433149614945,0.9160675062159549],[102.98433189561517,0.9164285172756622],[102.98451121599687,0.9164283161786403],[102.98451101623539,0.9162478106885158],[102.98469033656876,0.9162476096221202]]],[[[102.97160443853474,0.9204139555573176],[102.97160423855311,0.9202334472243622],[102.97142491515365,0.9202336485031867],[102.97142471522022,0.920053140130516],[102.97106606832153,0.920053542582104],[102.97106646819172,0.9204145594851612],[102.97142511512631,0.9204141568756307],[102.9714253151382,0.9205946652478473],[102.97160463855562,0.9205944638900457],[102.97160483861572,0.9207749722225474],[102.97178416200286,0.9207747708162224],[102.97178376190395,0.920413754229973],[102.97160443853474,0.9204139555573176]]],[[[102.98882393304493,0.9245461911642778],[102.98882373129565,0.924365686635691],[102.9890030510874,0.9243654835688233],[102.98900284936852,0.9241849790796681],[102.98918216911184,0.9241847760433927],[102.98918237083971,0.9243652804928861],[102.98936169055261,0.9243650774078794],[102.98936189232892,0.9245455818174804],[102.99043780983266,0.9245443628789556],[102.99043740621136,0.9241833545355653],[102.99061672563931,0.924183151426747],[102.99061612047602,0.9236416390289791],[102.99043680107509,0.9236418420187688],[102.99043659944185,0.9234613378460468],[102.9906159188338,0.9234611348959333],[102.99061450844206,0.922197605958231],[102.99043518911309,0.9221978086306112],[102.99043498779527,0.9220173044560668],[102.99061430711524,0.9220171018233624],[102.99061350220222,0.9212950852816111],[102.99079282144685,0.9212948827985721],[102.99079201712874,0.9205728664118923],[102.99061269792003,0.9205730687362192],[102.99061289893143,0.9207535728729086],[102.9904335796743,0.9207537752278794],[102.99043378071617,0.9209342794040172],[102.98989582268135,0.920934886533743],[102.98989562166642,0.9207543822385873],[102.98935766330375,0.920754989167987],[102.98935746235516,0.9205744847536022],[102.98881950366467,0.9205750914827074],[102.98881930278242,0.9203945869491096],[102.98846066347632,0.9203949913107021],[102.9884604626514,0.9202144866975621],[102.98792250342363,0.9202150930532604],[102.98792230266504,0.920034588320934],[102.98738434310958,0.9200351944764278],[102.98738414241728,0.9198546896249306],[102.98702550253459,0.91985509360417],[102.98702530189962,0.919674588673159],[102.9866666618773,0.9196749925370168],[102.98666646129965,0.9194944875264991],[102.98648714123837,0.919494689405255],[102.98648694070907,0.9193141843548731],[102.98630762061737,0.9193143861849719],[102.98630742013641,0.919133881094728],[102.98612810001428,0.9191340828761726],[102.98612789958167,0.9189535777460681],[102.98594857942912,0.9189537794788626],[102.98594837904484,0.9187732743088991],[102.98576905886188,0.9187734759930466],[102.98576885852593,0.9185929707832269],[102.98558953831254,0.9185931724187313],[102.98558933802494,0.9184126671690562],[102.9854100177811,0.9184128687559209],[102.98540981754184,0.918232363466393],[102.98523049726758,0.9182325650046215],[102.98523029707663,0.9180520596752418],[102.98505097677196,0.9180522611648376],[102.98505077662934,0.9178717557956086],[102.98487145629423,0.9178719572365752],[102.98487125619992,0.9176914518274983],[102.98469193583439,0.9176916532198397],[102.9846917357884,0.9175111477709171],[102.98451241539244,0.9175113491146363],[102.98451281550592,0.9178723600914904],[102.98433349505271,0.9178725615054386],[102.98433409549132,0.9184140780878681],[102.98415477497188,0.9184142796116525],[102.98415497518786,0.9185947851782897],[102.98397565462012,0.9185949867326748],[102.98397585486651,0.9187754923386979],[102.98307925139267,0.9187765001734586],[102.98307905119105,0.9185959943694005],[102.98272040954394,0.918596397360997],[102.98272060972764,0.9187769032442569],[102.9825412888361,0.9187771047661333],[102.98254168930364,0.9191381166111688],[102.9827210102131,0.9191379150100961],[102.98272141085593,0.919498926775028],[102.98308005259263,0.919498523387423],[102.98307985223362,0.9193180175842721],[102.98325917303397,0.9193178159165397],[102.98325897270534,0.9191373101527659],[102.98343829345738,0.9191371085156181],[102.98343849379496,0.919317614239787],[102.98361781451662,0.9193174125540138],[102.98361761417007,0.919136906869452],[102.9837969348434,0.9191367052142675],[102.98379713519891,0.9193172108592199],[102.98397645584183,0.919317009155406],[102.98397705717142,0.9198585259700726],[102.98379773650159,0.919858727792718],[102.98379793701454,0.9200392334367635],[102.9836186162964,0.9200394352899924],[102.98361881683974,0.9202199409734197],[102.9829015335377,0.9202207484544774],[102.98290173408452,0.9204012542960951],[102.98272241315165,0.9204014561833863],[102.98272261372885,0.9205819620643765],[102.98254329274766,0.9205821639822347],[102.98254309217944,0.9204016580616462],[102.98236377116788,0.9204018599308748],[102.98236357064798,0.9202213539704628],[102.98200492852477,0.9202217576026399],[102.98200553014868,0.9207632757207577],[102.98182620900114,0.9207634776420751],[102.98182640961217,0.9209439837205845],[102.98200573076866,0.9209437817596757],[102.98200613212668,0.9213047938368304],[102.98218545326179,0.9213045917876995],[102.9821856540088,0.9214850977863427],[102.98254429617899,0.9214846935817693],[102.98254409541403,0.9213041876623169],[102.98272341643111,0.9213039855860665],[102.98272361720505,0.9214844914659204],[102.98290293819178,0.9214842893410291],[102.98290313901407,0.9216647951810565],[102.9830824599704,0.921664593007522],[102.98308266084102,0.9218450988077194],[102.98326198176701,0.9218448965855379],[102.98326238364426,0.9222059081060436],[102.98344170454888,0.9222057057956061],[102.98344190555552,0.9223862115159127],[102.98362122642976,0.9223860091568195],[102.98362142748476,0.922566514837291],[102.98380074832863,0.9225663124295382],[102.983800949432,0.9227468180701731],[102.9839802702455,0.9227466156137575],[102.9839804713972,0.922927121214554],[102.98433911292412,0.9229267161953344],[102.98433931413318,0.923107221716677],[102.9845186348466,0.9231070191538674],[102.98451883610402,0.9232875246353657],[102.98469815678706,0.9232873220238809],[102.98469835809286,0.9234678274655335],[102.98487767874553,0.9234676248053698],[102.9848778800997,0.9236481302071754],[102.98523652130494,0.9236477247804207],[102.98523672271648,0.9238282301027535],[102.98541604326905,0.9238280273361569],[102.98541624472897,0.9240085326186371],[102.98631284694615,0.9240075184515347],[102.9863126454412,0.9238270133672057],[102.98649196575748,0.9238268105462218],[102.9864917642829,0.9236463055012997],[102.98756768529938,0.9236450886228906],[102.98756748381018,0.9234645838155903],[102.98774680383272,0.9234643810104506],[102.98774660237392,0.9232838762425705],[102.98792592234804,0.9232836734680192],[102.98792572091965,0.9231031687395607],[102.98828436073171,0.9231027632425857],[102.98828456217811,0.9232832678917394],[102.98846388203403,0.923283065090011],[102.98846448663667,0.9238245789171401],[102.98828516675374,0.9238247818378336],[102.98828597340625,0.9245468004294318],[102.98810665344787,0.9245470034996739],[102.98810685520048,0.9247275081866559],[102.98846549509585,0.924727101957793],[102.9884652933252,0.9245465973501189],[102.98882393304493,0.9245461911642778]]],[[[102.97160644050923,0.9222190388743846],[102.97142711701099,0.9222192405875813],[102.97142691664594,0.9220387322174086],[102.97106826954972,0.9220391355376822],[102.9710680692419,0.9218586270883102],[102.9708887456439,0.9218588286953929],[102.9708885453843,0.9216783202063109],[102.97070922175607,0.9216785217648661],[102.97070942200669,0.9218590302934291],[102.97035077461457,0.9218594334623638],[102.97035097488644,0.9220399420696572],[102.97070962229654,0.922039538821765],[102.97070982262564,0.9222200473498735],[102.97088914628083,0.9222198456728746],[102.97088934665813,0.9224003541612752],[102.97106867028307,0.9224001524357434],[102.97106887070862,0.9225806608844332],[102.97142751785879,0.9225802573272454],[102.97142771834154,0.9227607656967358],[102.97160704186678,0.922760563865074],[102.97160724239777,0.9229410721948488],[102.9719658893485,0.9229406684253789],[102.97196528781927,0.9223991436723181],[102.97160664092252,0.9223995472048419],[102.97160644050923,0.9222190388743846]]],[[[102.97376193481492,0.9254657589915882],[102.97358261162555,0.9254659615245516],[102.97358241044596,0.9252854536324558],[102.97322376396754,0.9252858585921251],[102.97322356284523,0.9251053506207875],[102.97268559286022,0.9251059578736874],[102.97268599508993,0.9254669740531509],[102.97304464182194,0.9254665690689549],[102.97304484301372,0.9256470770793407],[102.97322416632987,0.9256468745341166],[102.97322436756993,0.92582738250477],[102.97394166047805,0.9258265720750081],[102.97394145920188,0.9256460642623899],[102.97376213604278,0.9256462668439459],[102.97376193481492,0.9254657589915882]]]]}},{"type":"Feature","properties":{"eventId":"RIAU-20260903-033","firstDetection":"2026-09-03T06:31:00+00:00","lastDetection":"2026-09-04T20:49:00+00:00","estimatedAreaHa":0.64,"confidence":"rendah","hotspotCount":7,"detectionDays":2,"villages":["Tanjungsimpang"],"districts":["Pelangiran"],"regencies":["Indragiri Hilir"],"method":"Sentinel-2 dNBR/NBR indication","resolutionM":20,"clearCoveragePct":27.8,"preSceneDates":["2026-08-14","2026-08-17","2026-08-22"],"postSceneDates":["2026-09-06"],"status":"estimate","disclaimer":"Estimasi berbasis citra satelit; bukan hasil verifikasi lapangan.","province":"Riau","villageAreas":[{"village":"Tanjungsimpang","district":"Pelangiran","regency":"Indragiri Hilir","areaHa":0.64}],"unassignedAreaHa":0.0,"archiveEventId":"BA-6f60a9f61ae3758f","reportMonth":"2026-09"},"geometry":{"type":"Polygon","coordinates":[[[103.25631985486191,0.11782983780281675],[103.25631982744912,0.11764939395355359],[103.25614059115561,0.11764942152931984],[103.25614053645832,0.11728853374611573],[103.25596130012511,0.11728856123614431],[103.25596124559814,0.11692767336823641],[103.25578200922517,0.11692770077253446],[103.25578198202585,0.11674725679624534],[103.25560274561202,0.11674728415710887],[103.25560271845583,0.11656684013850124],[103.25542348200113,0.11656686745593373],[103.25542356359229,0.11710819963852927],[103.25560280005041,0.11710817219423533],[103.25560285465681,0.11746906023124311],[103.2557820910752,0.11746903270122391],[103.25578214585192,0.11782992065353477],[103.25631985486191,0.11782983780281675]]]}}]}